{"records": [{"auctionLocation": "ABILENE, TX 79601", "auction": "Copart", "city": "ABILENE", "state": "TX", "zip": 79601, "location": "ABILENE, TX", "ports": {"Savannah, GA": 1050.0, "Elizabeth, NJ": 1500.0, "Houston, TX": 550.0, "Los Angeles, CA": 900.0, "Indianapolis, IN": 1100.0}}, {"auctionLocation": "ADELANTO (CA) 92301", "auction": "Copart", "city": "Adelanto", "state": "CA", "zip": 92301, "location": "ADELANTO (CA)", "ports": {"Savannah, GA": 1700.0, "Elizabeth, NJ": 1700.0, "Houston, TX": 1350.0, "Los Angeles, CA": 390.0, "Indianapolis, IN": 1500.0}}, {"auctionLocation": "AKRON (OH) 44203", "auction": "Copart", "city": "Barberton", "state": "OH", "zip": 44203, "location": "AKRON (OH)", "ports": {"Savannah, GA": 850.0, "Elizabeth, NJ": 650.0, "Houston, TX": 1100.0, "Los Angeles, CA": 1900.0, "Indianapolis, IN": 600.0}}, {"auctionLocation": "ALBANY 12205", "auction": "Copart", "city": "ALBANY", "state": "NY", "zip": 12205, "location": "ALBANY", "ports": {"Savannah, GA": 900.0, "Elizabeth, NJ": 440.0, "Houston, TX": 1570.0, "Los Angeles, CA": 1800.0, "Indianapolis, IN": 650.0}}, {"auctionLocation": "ALBUQUERQUE 87105", "auction": "Copart", "city": "ALBUQUERQU E", "state": "NM", "zip": 87105, "location": "ALBUQUERQUE", "ports": {"Savannah, GA": 1200.0, "Elizabeth, NJ": 1500.0, "Houston, TX": 800.0, "Los Angeles, CA": 850.0, "Indianapolis, IN": 1400.0}}, {"auctionLocation": "ALTOONA 15931", "auction": "Copart", "city": "EBENSBURG", "state": "PA", "zip": 15931, "location": "ALTOONA", "ports": {"Savannah, GA": 1000.0, "Elizabeth, NJ": 590.0, "Houston, TX": 1400.0, "Los Angeles, CA": 1800.0, "Indianapolis, IN": 650.0}}, {"auctionLocation": "AMARILLO, TX 79118", "auction": "Copart", "city": "AMARILLO", "state": "TX", "zip": 79118, "location": "AMARILLO, TX", "ports": {"Savannah, GA": 1100.0, "Elizabeth, NJ": 1500.0, "Houston, TX": 750.0, "Los Angeles, CA": 900.0, "Indianapolis, IN": 1100.0}}, {"auctionLocation": "ANCHORAGE 99501", "auction": "Copart", "city": "ANCHORAGE", "state": "AK", "zip": 99501, "location": "ANCHORAGE", "ports": {"Savannah, GA": 3500.0, "Elizabeth, NJ": 3100.0, "Houston, TX": 2900.0, "Los Angeles, CA": 3000.0, "Indianapolis, IN": 2700.0}}, {"auctionLocation": "ANDREWS, TX 79714", "auction": "Copart", "city": "ANDREWS", "state": "TX", "zip": 79714, "location": "ANDREWS, TX", "ports": {"Savannah, GA": 1050.0, "Elizabeth, NJ": 1500.0, "Houston, TX": 650.0, "Los Angeles, CA": 900.0, "Indianapolis, IN": 1100.0}}, {"auctionLocation": "ANTELOPE 95843", "auction": "Copart", "city": "ANTELOPE", "state": "CA", "zip": 95843, "location": "ANTELOPE", "ports": {"Savannah, GA": 1700.0, "Elizabeth, NJ": 1700.0, "Houston, TX": 1500.0, "Los Angeles, CA": 625.0, "Indianapolis, IN": 1500.0}}, {"auctionLocation": "APPLETON, WI 54914", "auction": "Copart", "city": "APPLETON", "state": "WI", "zip": 54914, "location": "APPLETON, WI", "ports": {"Savannah, GA": 1250.0, "Elizabeth, NJ": 950.0, "Houston, TX": 1300.0, "Los Angeles, CA": 2100.0, "Indianapolis, IN": 600.0}}, {"auctionLocation": "ATLANTA EAST 30052", "auction": "Copart", "city": "LOGANVILLE", "state": "GA", "zip": 30052, "location": "ATLANTA EAST", "ports": {"Savannah, GA": 470.0, "Elizabeth, NJ": 950.0, "Houston, TX": 950.0, "Los Angeles, CA": 1750.0, "Indianapolis, IN": 900.0}}, {"auctionLocation": "ATLANTA NORTH\n30507", "auction": "Copart", "city": "GAINESVILLE", "state": "GA", "zip": 30507, "location": "ATLANTA NORTH", "ports": {"Savannah, GA": 470.0, "Elizabeth, NJ": 950.0, "Houston, TX": 950.0, "Los Angeles, CA": 1750.0, "Indianapolis, IN": 900.0}}, {"auctionLocation": "ATLANTA SOUTH\n30294", "auction": "Copart", "city": "ELLENWOOD", "state": "GA", "zip": 30294, "location": "ATLANTA SOUTH", "ports": {"Savannah, GA": 470.0, "Elizabeth, NJ": 950.0, "Houston, TX": 950.0, "Los Angeles, CA": 1750.0, "Indianapolis, IN": 900.0}}, {"auctionLocation": "ATLANTA WEST 30168", "auction": "Copart", "city": "AUSTELL", "state": "GA", "zip": 30168, "location": "ATLANTA WEST", "ports": {"Savannah, GA": 470.0, "Elizabeth, NJ": 950.0, "Houston, TX": 950.0, "Los Angeles, CA": 1750.0, "Indianapolis, IN": 900.0}}, {"auctionLocation": "Augusta, GA 30906", "auction": "Copart", "city": "Augusta", "state": "GA", "zip": 30906, "location": "Augusta, GA", "ports": {"Savannah, GA": 445.0, "Elizabeth, NJ": 950.0, "Houston, TX": 950.0, "Los Angeles, CA": 1750.0, "Indianapolis, IN": 900.0}}, {"auctionLocation": "AUSTIN, TX 78130", "auction": "Copart", "city": "NEW BRAUNFELS", "state": "TX", "zip": 78130, "location": "AUSTIN, TX", "ports": {"Savannah, GA": 900.0, "Elizabeth, NJ": 1350.0, "Houston, TX": 440.0, "Los Angeles, CA": 1100.0, "Indianapolis, IN": 1100.0}}, {"auctionLocation": "BAKERSFIELD 93307", "auction": "Copart", "city": "BAKERSFIELD", "state": "CA", "zip": 93307, "location": "BAKERSFIELD", "ports": {"Savannah, GA": 1700.0, "Elizabeth, NJ": 1700.0, "Houston, TX": 1400.0, "Los Angeles, CA": 475.0, "Indianapolis, IN": 1500.0}}, {"auctionLocation": "BALTIMORE 21048", "auction": "Copart", "city": "FINKSBURG", "state": "MD", "zip": 21048, "location": "BALTIMORE", "ports": {"Savannah, GA": 800.0, "Elizabeth, NJ": 460.0, "Houston, TX": 1100.0, "Los Angeles, CA": 1800.0, "Indianapolis, IN": 800.0}}, {"auctionLocation": "BALTIMORE EAST", "auction": "Copart", "city": "BALTIMORE", "state": "MD", "zip": 21225, "location": "BALTIMORE EAST", "ports": {"Savannah, GA": 800.0, "Elizabeth, NJ": 460.0, "Houston, TX": 1100.0, "Los Angeles, CA": 1800.0, "Indianapolis, IN": 800.0}}, {"auctionLocation": "BATON ROUGE 70739", "auction": "Copart", "city": "GREENWELL\nSPRINGS", "state": "LA", "zip": 70739, "location": "BATON ROUGE", "ports": {"Savannah, GA": 750.0, "Elizabeth, NJ": 1000.0, "Houston, TX": 550.0, "Los Angeles, CA": 1200.0, "Indianapolis, IN": 950.0}}, {"auctionLocation": "BILLINGS 59103", "auction": "Copart", "city": "BILLINGS", "state": "MT", "zip": 59103, "location": "BILLINGS", "ports": {"Savannah, GA": 1800.0, "Elizabeth, NJ": 1500.0, "Houston, TX": 1500.0, "Los Angeles, CA": 1400.0, "Indianapolis, IN": 1350.0}}, {"auctionLocation": "BIRMINGHAM 35023", "auction": "Copart", "city": "HUEYTOWN", "state": "AL", "zip": 35023, "location": "BIRMINGHAM", "ports": {"Savannah, GA": 575.0, "Elizabeth, NJ": 850.0, "Houston, TX": 750.0, "Los Angeles, CA": 1600.0, "Indianapolis, IN": 950.0}}, {"auctionLocation": "BISMARCK (ND) 58501", "auction": "Copart", "city": "BISMARCK", "state": "ND", "zip": 58501, "location": "BISMARCK (ND)", "ports": {"Savannah, GA": 1500.0, "Elizabeth, NJ": 1300.0, "Houston, TX": 1500.0, "Los Angeles, CA": 1400.0, "Indianapolis, IN": 1175.0}}, {"auctionLocation": "BOISE 83687", "auction": "Copart", "city": "NAMPA", "state": "ID", "zip": 83687, "location": "BOISE", "ports": {"Savannah, GA": 1900.0, "Elizabeth, NJ": 1500.0, "Houston, TX": 1550.0, "Los Angeles, CA": 1170.0, "Indianapolis, IN": 1400.0}}, {"auctionLocation": "BUFFALO, NY 14006", "auction": "Copart", "city": "ANGOLA", "state": "NY", "zip": 14006, "location": "BUFFALO, NY", "ports": {"Savannah, GA": 1000.0, "Elizabeth, NJ": 640.0, "Houston, TX": 1500.0, "Los Angeles, CA": 1800.0, "Indianapolis, IN": 650.0}}, {"auctionLocation": "CANDIA NH 03034", "auction": "Copart", "city": "Candia", "state": "NH", "zip": 3034, "location": "CANDIA NH", "ports": {"Savannah, GA": 1000.0, "Elizabeth, NJ": 535.0, "Houston, TX": 1500.0, "Los Angeles, CA": 2100.0, "Indianapolis, IN": 1000.0}}, {"auctionLocation": "CARTERSVILLE 30120", "auction": "Copart", "city": "CARTERSVILLE", "state": "GA", "zip": 30120, "location": "CARTERSVILLE", "ports": {"Savannah, GA": 475.0, "Elizabeth, NJ": 950.0, "Houston, TX": 950.0, "Los Angeles, CA": 1750.0, "Indianapolis, IN": 900.0}}, {"auctionLocation": "CASPER, WY 82604", "auction": "Copart", "city": "CASPER", "state": "WY", "zip": 82604, "location": "CASPER, WY", "ports": {"Savannah, GA": 1450.0, "Elizabeth, NJ": 1450.0, "Houston, TX": 1450.0, "Los Angeles, CA": 1450.0, "Indianapolis, IN": 1250.0}}, {"auctionLocation": "CEDAR RAPIDS 52404", "auction": "Copart", "city": "Cedar Rapids", "state": "IA", "zip": 52404, "location": "CEDAR RAPIDS", "ports": {"Savannah, GA": 1250.0, "Elizabeth, NJ": 780.0, "Houston, TX": 1000.0, "Los Angeles, CA": 1600.0, "Indianapolis, IN": 650.0}}, {"auctionLocation": "CHAMBERSBURG\n17201", "auction": "Copart", "city": "CHAMBERSBU\nRG", "state": "PA", "zip": 17201, "location": "CHAMBERSBURG", "ports": {"Savannah, GA": 900.0, "Elizabeth, NJ": 510.0, "Houston, TX": 1300.0, "Los Angeles, CA": 1800.0, "Indianapolis, IN": 700.0}}, {"auctionLocation": "CHARLESTON/Hurri\ncane 25526", "auction": "Copart", "city": "HURRICANE", "state": "WV", "zip": 25526, "location": "CHARLESTON/Hurri cane", "ports": {"Savannah, GA": 800.0, "Elizabeth, NJ": 660.0, "Houston, TX": 1000.0, "Los Angeles, CA": 1800.0, "Indianapolis, IN": 700.0}}, {"auctionLocation": "CHICAGO NORTH\n60120", "auction": "Copart", "city": "ELGIN", "state": "IL", "zip": 60120, "location": "CHICAGO NORTH", "ports": {"Savannah, GA": 950.0, "Elizabeth, NJ": 720.0, "Houston, TX": 1000.0, "Los Angeles, CA": 1700.0, "Indianapolis, IN": 440.0}}, {"auctionLocation": "CHICAGO SOUTH\n60411", "auction": "Copart", "city": "CHICAGO\nHEIGHTS", "state": "IL", "zip": 60411, "location": "CHICAGO SOUTH", "ports": {"Savannah, GA": 950.0, "Elizabeth, NJ": 720.0, "Houston, TX": 1000.0, "Los Angeles, CA": 1700.0, "Indianapolis, IN": 440.0}}, {"auctionLocation": "CHINA GROVE 28023", "auction": "Copart", "city": "CHINA GROVE", "state": "NC", "zip": 28023, "location": "CHINA GROVE", "ports": {"Savannah, GA": 490.0, "Elizabeth, NJ": 600.0, "Houston, TX": 1000.0, "Los Angeles, CA": 1800.0, "Indianapolis, IN": 950.0}}, {"auctionLocation": "CICERO, IN 46034", "auction": "Copart", "city": "Cicero", "state": "IN", "zip": 46034, "location": "CICERO, IN", "ports": {"Savannah, GA": 850.0, "Elizabeth, NJ": 700.0, "Houston, TX": 1000.0, "Los Angeles, CA": 1800.0, "Indianapolis, IN": 250.0}}, {"auctionLocation": "CLEVELAND EAST", "auction": "Copart", "city": "NORTHFIELD", "state": "OH", "zip": 44067, "location": "CLEVELAND EAST", "ports": {"Savannah, GA": 850.0, "Elizabeth, NJ": 650.0, "Houston, TX": 1100.0, "Los Angeles, CA": 1900.0, "Indianapolis, IN": 600.0}}, {"auctionLocation": "CLEVELAND WEST\n44028", "auction": "Copart", "city": "COLUMBIA\nSTATION", "state": "OH", "zip": 44028, "location": "CLEVELAND WEST", "ports": {"Savannah, GA": 850.0, "Elizabeth, NJ": 650.0, "Houston, TX": 1100.0, "Los Angeles, CA": 1900.0, "Indianapolis, IN": 600.0}}, {"auctionLocation": "CLEWISTON, FL 33440", "auction": "Copart", "city": "CLEWISTON", "state": "FL", "zip": 33440, "location": "CLEWISTON, FL", "ports": {"Savannah, GA": 570.0, "Elizabeth, NJ": 100.0, "Houston, TX": 100.0, "Los Angeles, CA": 100.0, "Indianapolis, IN": 100.0}}, {"auctionLocation": "COLORADO SPRINGS,\nCO", "auction": "Copart", "city": "COLORADO\nSPRINGS", "state": "CO", "zip": 80907, "location": "COLORADO SPRINGS, CO", "ports": {"Savannah, GA": 1250.0, "Elizabeth, NJ": 950.0, "Houston, TX": 950.0, "Los Angeles, CA": 1000.0, "Indianapolis, IN": 1000.0}}, {"auctionLocation": "COLUMBIA MO 65201", "auction": "Copart", "city": "COLUMBIA", "state": "MO", "zip": 65201, "location": "COLUMBIA MO", "ports": {"Savannah, GA": 800.0, "Elizabeth, NJ": 850.0, "Houston, TX": 890.0, "Los Angeles, CA": 1500.0, "Indianapolis, IN": 620.0}}, {"auctionLocation": "COLUMBIA SC 29053", "auction": "Copart", "city": "GASTON", "state": "SC", "zip": 29053, "location": "COLUMBIA SC", "ports": {"Savannah, GA": 425.0, "Elizabeth, NJ": 700.0, "Houston, TX": 900.0, "Los Angeles, CA": 1600.0, "Indianapolis, IN": 950.0}}, {"auctionLocation": "COLUMBUS (OH)\n43207", "auction": "Copart", "city": "COLUMBUS", "state": "OH", "zip": 43207, "location": "COLUMBUS (OH)", "ports": {"Savannah, GA": 850.0, "Elizabeth, NJ": 675.0, "Houston, TX": 1000.0, "Los Angeles, CA": 1900.0, "Indianapolis, IN": 430.0}}, {"auctionLocation": "CONCORD NC (28025 )", "auction": "Copart", "city": "CONCORD", "state": "NC", "zip": 28025, "location": "CONCORD NC (28025 )", "ports": {"Savannah, GA": 525.0, "Elizabeth, NJ": 600.0, "Houston, TX": 1000.0, "Los Angeles, CA": 1800.0, "Indianapolis, IN": 950.0}}, {"auctionLocation": "CORPUS CHRISTI, TX\n78405", "auction": "Copart", "city": "CORPUS CHRISTI", "state": "TX", "zip": 78405, "location": "CORPUS CHRISTI, TX", "ports": {"Savannah, GA": 900.0, "Elizabeth, NJ": 1350.0, "Houston, TX": 530.0, "Los Angeles, CA": 1100.0, "Indianapolis, IN": 1100.0}}, {"auctionLocation": "CRASHEDTOYS\nATLANTA 30344", "auction": "Copart", "city": "EAST POINT", "state": "GA", "zip": 30344, "location": "CRASHEDTOYS ATLANTA", "ports": {"Savannah, GA": 470.0, "Elizabeth, NJ": 950.0, "Houston, TX": 950.0, "Los Angeles, CA": 1750.0, "Indianapolis, IN": 900.0}}, {"auctionLocation": "CRASHEDTOYS\nDALLAS", "auction": "Copart", "city": "DALLAS", "state": "TX", "zip": 75247, "location": "CRASHEDTOYS DALLAS", "ports": {"Savannah, GA": 900.0, "Elizabeth, NJ": 1100.0, "Houston, TX": 470.0, "Los Angeles, CA": 1100.0, "Indianapolis, IN": 950.0}}, {"auctionLocation": "CRASHEDTOYS EAST\nBETHEL, MN 55011", "auction": "Copart", "city": "EAST BETHEL", "state": "MN", "zip": 55011, "location": "CRASHEDTOYS EAST BETHEL, MN", "ports": {"Savannah, GA": 1250.0, "Elizabeth, NJ": 950.0, "Houston, TX": 1400.0, "Los Angeles, CA": 2100.0, "Indianapolis, IN": 645.0}}, {"auctionLocation": "CRASHEDTOYS ELDRIDGE (IA) 52748", "auction": "Copart", "city": "ELDRIDGE", "state": "IA", "zip": 52748, "location": "CRASHEDTOYS ELDRIDGE (IA)", "ports": {"Savannah, GA": 1250.0, "Elizabeth, NJ": 780.0, "Houston, TX": 1000.0, "Los Angeles, CA": 1600.0, "Indianapolis, IN": 650.0}}, {"auctionLocation": "CRASHEDTOYS\nMemphis 38118", "auction": "Copart", "city": "Memphis,", "state": "TENNES SEE", "zip": 38118, "location": "CRASHEDTOYS Memphis", "ports": {"Savannah, GA": 635.0, "Elizabeth, NJ": 900.0, "Houston, TX": 700.0, "Los Angeles, CA": 1500.0, "Indianapolis, IN": 700.0}}, {"auctionLocation": "CRASHEDTOYS MINNEAPOLIS 55434", "auction": "Copart", "city": "BLAINE", "state": "MN", "zip": 55434, "location": "CRASHEDTOYS MINNEAPOLIS", "ports": {"Savannah, GA": 1300.0, "Elizabeth, NJ": 1000.0, "Houston, TX": 1400.0, "Los Angeles, CA": 2100.0, "Indianapolis, IN": 675.0}}, {"auctionLocation": "CRASHEDTOYS SACRAMENTO, CA\n95828", "auction": "Copart", "city": "SACRAMENTO", "state": "CA", "zip": 95828, "location": "CRASHEDTOYS SACRAMENTO, CA", "ports": {"Savannah, GA": 1700.0, "Elizabeth, NJ": 1700.0, "Houston, TX": 1500.0, "Los Angeles, CA": 600.0, "Indianapolis, IN": 1500.0}}, {"auctionLocation": "DALLAS SOUTH 75172", "auction": "Copart", "city": "WILMER", "state": "TX", "zip": 75172, "location": "DALLAS SOUTH", "ports": {"Savannah, GA": 900.0, "Elizabeth, NJ": 1100.0, "Houston, TX": 470.0, "Los Angeles, CA": 1100.0, "Indianapolis, IN": 950.0}}, {"auctionLocation": "DALLAS, TX 75051", "auction": "Copart", "city": "GRAND PRAIRIE", "state": "TX", "zip": 75051, "location": "DALLAS, TX", "ports": {"Savannah, GA": 900.0, "Elizabeth, NJ": 1100.0, "Houston, TX": 470.0, "Los Angeles, CA": 1100.0, "Indianapolis, IN": 950.0}}, {"auctionLocation": "DANVILLE 24531", "auction": "Copart", "city": "CHATHAM", "state": "VA", "zip": 24531, "location": "DANVILLE", "ports": {"Savannah, GA": 650.0, "Elizabeth, NJ": 590.0, "Houston, TX": 1000.0, "Los Angeles, CA": 1800.0, "Indianapolis, IN": 800.0}}, {"auctionLocation": "DAVENPORT (IA)", "auction": "Copart", "city": "ELDRIDGE", "state": "IA", "zip": 52748, "location": "DAVENPORT (IA)", "ports": {"Savannah, GA": 1250.0, "Elizabeth, NJ": 780.0, "Houston, TX": 1000.0, "Los Angeles, CA": 1600.0, "Indianapolis, IN": 650.0}}, {"auctionLocation": "DAYTON, OH 45439", "auction": "Copart", "city": "Moraine", "state": "OH", "zip": 45439, "location": "DAYTON, OH", "ports": {"Savannah, GA": 850.0, "Elizabeth, NJ": 690.0, "Houston, TX": 1000.0, "Los Angeles, CA": 1900.0, "Indianapolis, IN": 450.0}}, {"auctionLocation": "DENVER CENTRAL,", "auction": "Copart", "city": "DENVER", "state": "CO", "zip": 80229, "location": "DENVER CENTRAL,", "ports": {"Savannah, GA": 1250.0, "Elizabeth, NJ": 900.0, "Houston, TX": 890.0, "Los Angeles, CA": 1000.0, "Indianapolis, IN": 1000.0}}, {"auctionLocation": "DENVER SOUTH (CO)\n80125", "auction": "Copart", "city": "LITTLETON", "state": "CO", "zip": 80125, "location": "DENVER SOUTH (CO)", "ports": {"Savannah, GA": 1250.0, "Elizabeth, NJ": 900.0, "Houston, TX": 890.0, "Los Angeles, CA": 1000.0, "Indianapolis, IN": 875.0}}, {"auctionLocation": "DENVER/Brighton\n80603", "auction": "Copart", "city": "BRIGHTON", "state": "CO", "zip": 80603, "location": "DENVER/Brighton", "ports": {"Savannah, GA": 1250.0, "Elizabeth, NJ": 900.0, "Houston, TX": 890.0, "Los Angeles, CA": 1000.0, "Indianapolis, IN": 875.0}}, {"auctionLocation": "DES MOINES (IA)\n50317", "auction": "Copart", "city": "DES MOINES", "state": "IA", "zip": 50317, "location": "DES MOINES (IA)", "ports": {"Savannah, GA": 1250.0, "Elizabeth, NJ": 780.0, "Houston, TX": 1000.0, "Los Angeles, CA": 1600.0, "Indianapolis, IN": 650.0}}, {"auctionLocation": "DETROIT 48183", "auction": "Copart", "city": "WOODHAVEN", "state": "MI", "zip": 48183, "location": "DETROIT", "ports": {"Savannah, GA": 900.0, "Elizabeth, NJ": 720.0, "Houston, TX": 1100.0, "Los Angeles, CA": 2100.0, "Indianapolis, IN": 675.0}}, {"auctionLocation": "DOTHAN 36352", "auction": "Copart", "city": "NEWTON", "state": "AL", "zip": 36352, "location": "DOTHAN", "ports": {"Savannah, GA": 525.0, "Elizabeth, NJ": 900.0, "Houston, TX": 750.0, "Los Angeles, CA": 1600.0, "Indianapolis, IN": 950.0}}, {"auctionLocation": "DYER (IN) 46311", "auction": "Copart", "city": "DYER", "state": "IN", "zip": 46311, "location": "DYER (IN)", "ports": {"Savannah, GA": 950.0, "Elizabeth, NJ": 700.0, "Houston, TX": 1000.0, "Los Angeles, CA": 1700.0, "Indianapolis, IN": 425.0}}, {"auctionLocation": "EARLINGTON (KY)", "auction": "Copart", "city": "EARLINGTON", "state": "KY", "zip": 42410, "location": "EARLINGTON (KY)", "ports": {"Savannah, GA": 720.0, "Elizabeth, NJ": 750.0, "Houston, TX": 900.0, "Los Angeles, CA": 1700.0, "Indianapolis, IN": 575.0}}, {"auctionLocation": "EL PASO, TX 79821", "auction": "Copart", "city": "Anthony", "state": "TX", "zip": 79821, "location": "EL PASO, TX", "ports": {"Savannah, GA": 1100.0, "Elizabeth, NJ": 1500.0, "Houston, TX": 750.0, "Los Angeles, CA": 800.0, "Indianapolis, IN": 1400.0}}, {"auctionLocation": "EUGENE 97402", "auction": "Copart", "city": "EUGENE", "state": "OR", "zip": 97402, "location": "EUGENE", "ports": {"Savannah, GA": 1900.0, "Elizabeth, NJ": 1700.0, "Houston, TX": 1800.0, "Los Angeles, CA": 890.0, "Indianapolis, IN": 1500.0}}, {"auctionLocation": "EXETER, RI 02822", "auction": "Copart", "city": "EXETER", "state": "RI", "zip": 2822, "location": "EXETER, RI", "ports": {"Savannah, GA": 1050.0, "Elizabeth, NJ": 535.0, "Houston, TX": 1400.0, "Los Angeles, CA": 2000.0, "Indianapolis, IN": 900.0}}, {"auctionLocation": "FAIRBURN (GA) 30213", "auction": "Copart", "city": "FAIRBURN", "state": "GA", "zip": 30213, "location": "FAIRBURN (GA)", "ports": {"Savannah, GA": 470.0, "Elizabeth, NJ": 950.0, "Houston, TX": 950.0, "Los Angeles, CA": 1750.0, "Indianapolis, IN": 900.0}}, {"auctionLocation": "FAYETTEVILLE (AR)\n72753", "auction": "Copart", "city": "PRAIRIE GROVE", "state": "AR", "zip": 72753, "location": "FAYETTEVILLE (AR)", "ports": {"Savannah, GA": 900.0, "Elizabeth, NJ": 1050.0, "Houston, TX": 750.0, "Los Angeles, CA": 1200.0, "Indianapolis, IN": 750.0}}, {"auctionLocation": "FLINT 48423", "auction": "Copart", "city": "Davison", "state": "MI", "zip": 48423, "location": "FLINT", "ports": {"Savannah, GA": 900.0, "Elizabeth, NJ": 720.0, "Houston, TX": 1100.0, "Los Angeles, CA": 2100.0, "Indianapolis, IN": 675.0}}, {"auctionLocation": "FORT WAYNE 46803", "auction": "Copart", "city": "FORT WAYNE", "state": "IN", "zip": 46803, "location": "FORT WAYNE", "ports": {"Savannah, GA": 950.0, "Elizabeth, NJ": 700.0, "Houston, TX": 1200.0, "Los Angeles, CA": 2100.0, "Indianapolis, IN": 380.0}}, {"auctionLocation": "FREDERICKSBURG\n(VA) 22408", "auction": "Copart", "city": "FREDERICKSB\nURG", "state": "VA", "zip": 22408, "location": "FREDERICKSBURG (VA)", "ports": {"Savannah, GA": 700.0, "Elizabeth, NJ": 590.0, "Houston, TX": 1100.0, "Los Angeles, CA": 1800.0, "Indianapolis, IN": 800.0}}, {"auctionLocation": "FREETOWN, MA 02702", "auction": "Copart", "city": "Assonet", "state": "MA", "zip": 2702, "location": "FREETOWN, MA", "ports": {"Savannah, GA": 1000.0, "Elizabeth, NJ": 510.0, "Houston, TX": 1400.0, "Los Angeles, CA": 2000.0, "Indianapolis, IN": 900.0}}, {"auctionLocation": "FRESNO 93725", "auction": "Copart", "city": "FRESNO", "state": "CA", "zip": 93725, "location": "FRESNO", "ports": {"Savannah, GA": 1700.0, "Elizabeth, NJ": 1700.0, "Houston, TX": 1400.0, "Los Angeles, CA": 475.0, "Indianapolis, IN": 1500.0}}, {"auctionLocation": "FT. PIERCE 34946", "auction": "Copart", "city": "FORT PIERCE", "state": "FL", "zip": 34946, "location": "FT. PIERCE", "ports": {"Savannah, GA": 515.0, "Elizabeth, NJ": 1000.0, "Houston, TX": 1000.0, "Los Angeles, CA": 1800.0, "Indianapolis, IN": 1400.0}}, {"auctionLocation": "FT. WORTH, TX 76052", "auction": "Copart", "city": "HASLET", "state": "TX", "zip": 76052, "location": "FT. WORTH, TX", "ports": {"Savannah, GA": 900.0, "Elizabeth, NJ": 1100.0, "Houston, TX": 490.0, "Los Angeles, CA": 1100.0, "Indianapolis, IN": 950.0}}, {"auctionLocation": "GASTONIA 28052", "auction": "Copart", "city": "GASTONIA", "state": "NC", "zip": 28052, "location": "GASTONIA", "ports": {"Savannah, GA": 525.0, "Elizabeth, NJ": 950.0, "Houston, TX": 950.0, "Los Angeles, CA": 1750.0, "Indianapolis, IN": 900.0}}, {"auctionLocation": "GLASSBORO EAST", "auction": "Copart", "city": "GLASSBORO", "state": "NJ", "zip": 8028, "location": "GLASSBORO EAST", "ports": {"Savannah, GA": 800.0, "Elizabeth, NJ": 350.0, "Houston, TX": 1300.0, "Los Angeles, CA": 1800.0, "Indianapolis, IN": 800.0}}, {"auctionLocation": "GLASSBORO WEST\n08028", "auction": "Copart", "city": "GLASSBORO", "state": "NJ", "zip": 8028, "location": "GLASSBORO WEST", "ports": {"Savannah, GA": 800.0, "Elizabeth, NJ": 350.0, "Houston, TX": 1300.0, "Los Angeles, CA": 1800.0, "Indianapolis, IN": 800.0}}, {"auctionLocation": "GRAHAM 98338", "auction": "Copart", "city": "GRAHAM", "state": "WA", "zip": 98338, "location": "GRAHAM", "ports": {"Savannah, GA": 2100.0, "Elizabeth, NJ": 1700.0, "Houston, TX": 2200.0, "Los Angeles, CA": 950.0, "Indianapolis, IN": 1300.0}}, {"auctionLocation": "Grenada, MS 38901", "auction": "Copart", "city": "Grenada", "state": "MS", "zip": 38901, "location": "Grenada, MS", "ports": {"Savannah, GA": 700.0, "Elizabeth, NJ": 950.0, "Houston, TX": 700.0, "Los Angeles, CA": 1300.0, "Indianapolis, IN": 950.0}}, {"auctionLocation": "HAMMOND 46320", "auction": "Copart", "city": "HAMMOND", "state": "IN", "zip": 46320, "location": "HAMMOND", "ports": {"Savannah, GA": 950.0, "Elizabeth, NJ": 700.0, "Houston, TX": 1000.0, "Los Angeles, CA": 1700.0, "Indianapolis, IN": 425.0}}, {"auctionLocation": "HAMPTON,VA 23666", "auction": "Copart", "city": "HAMPTON", "state": "VA", "zip": 23666, "location": "HAMPTON,VA", "ports": {"Savannah, GA": 650.0, "Elizabeth, NJ": 520.0, "Houston, TX": 1000.0, "Los Angeles, CA": 1800.0, "Indianapolis, IN": 800.0}}, {"auctionLocation": "HARRISBURG 17028", "auction": "Copart", "city": "GRANTVILLE", "state": "PA", "zip": 17028, "location": "HARRISBURG", "ports": {"Savannah, GA": 900.0, "Elizabeth, NJ": 430.0, "Houston, TX": 1300.0, "Los Angeles, CA": 1800.0, "Indianapolis, IN": 700.0}}, {"auctionLocation": "HARTFORD 06051", "auction": "Copart", "city": "NEW BRITAIN", "state": "CT", "zip": 6051, "location": "HARTFORD", "ports": {"Savannah, GA": 900.0, "Elizabeth, NJ": 380.0, "Houston, TX": 1400.0, "Los Angeles, CA": 1900.0, "Indianapolis, IN": 900.0}}, {"auctionLocation": "HARTFORD", "auction": "Copart", "city": "EAST GRANBY", "state": "CT", "zip": 6026, "location": "HARTFORD", "ports": {"Savannah, GA": 900.0, "Elizabeth, NJ": 380.0, "Houston, TX": 1400.0, "Los Angeles, CA": 1900.0, "Indianapolis, IN": 900.0}}, {"auctionLocation": "HAYWARD - DESERT VIEW", "auction": "Copart", "city": "HAYWARD", "state": "CA", "zip": 94545, "location": "HAYWARD - DESERT VIEW", "ports": {"Savannah, GA": 1700.0, "Elizabeth, NJ": 1700.0, "Houston, TX": 1400.0, "Los Angeles, CA": 545.0, "Indianapolis, IN": 1500.0}}, {"auctionLocation": "HAYWARD 94545", "auction": "Copart", "city": "HAYWARD", "state": "CA", "zip": 94545, "location": "HAYWARD", "ports": {"Savannah, GA": 1700.0, "Elizabeth, NJ": 1700.0, "Houston, TX": 1400.0, "Los Angeles, CA": 545.0, "Indianapolis, IN": 1500.0}}, {"auctionLocation": "HELENA 59601", "auction": "Copart", "city": "HELENA", "state": "MT", "zip": 59601, "location": "HELENA", "ports": {"Savannah, GA": 1800.0, "Elizabeth, NJ": 1500.0, "Houston, TX": 1500.0, "Los Angeles, CA": 1400.0, "Indianapolis, IN": 1350.0}}, {"auctionLocation": "HONOLULU (KAHALUI,", "auction": "Copart", "city": "KAHALUI", "state": "HI", "zip": 96732, "location": "HONOLULU (KAHALUI,", "ports": {"Savannah, GA": 3900.0, "Elizabeth, NJ": 4900.0, "Houston, TX": 3300.0, "Los Angeles, CA": 3450.0, "Indianapolis, IN": 4700.0}}, {"auctionLocation": "HONOLULU (KAILUA- KONA, HAWAII\nISLAND) 96740", "auction": "Copart", "city": "KAILUA-KONA", "state": "HI", "zip": 96740, "location": "HONOLULU (KAILUA- KONA, HAWAII ISLAND)", "ports": {"Savannah, GA": 4300.0, "Elizabeth, NJ": 5300.0, "Houston, TX": 3700.0, "Los Angeles, CA": 3200.0, "Indianapolis, IN": 5100.0}}, {"auctionLocation": "HONOLULU (KAPOLEI, OAHU ISLAND) 96707", "auction": "Copart", "city": "KAPOLEI", "state": "HI", "zip": 96707, "location": "HONOLULU (KAPOLEI, OAHU ISLAND)", "ports": {"Savannah, GA": 3600.0, "Elizabeth, NJ": 4600.0, "Houston, TX": 3000.0, "Los Angeles, CA": 3300.0, "Indianapolis, IN": 4400.0}}, {"auctionLocation": "HONOLULU (LIHUE, KAUAI ISLAND) 96766", "auction": "Copart", "city": "LIHUE", "state": "HI", "zip": 96766, "location": "HONOLULU (LIHUE, KAUAI ISLAND)", "ports": {"Savannah, GA": 4650.0, "Elizabeth, NJ": 5650.0, "Houston, TX": 4050.0, "Los Angeles, CA": 3700.0, "Indianapolis, IN": 5450.0}}, {"auctionLocation": "HOUSTON 77073", "auction": "Copart", "city": "HOUSTON", "state": "TX", "zip": 77073, "location": "HOUSTON", "ports": {"Savannah, GA": 750.0, "Elizabeth, NJ": 1100.0, "Houston, TX": 330.0, "Los Angeles, CA": 1000.0, "Indianapolis, IN": 1000.0}}, {"auctionLocation": "HOUSTON EAST", "auction": "Copart", "city": "HOUSTON", "state": "TEXAS", "zip": 77049, "location": "HOUSTON EAST", "ports": {"Savannah, GA": 750.0, "Elizabeth, NJ": 1100.0, "Houston, TX": 330.0, "Los Angeles, CA": 1000.0, "Indianapolis, IN": 1000.0}}, {"auctionLocation": "INDIANAPOLIS 46254", "auction": "Copart", "city": "INDIANAPOLIS", "state": "IN", "zip": 46254, "location": "INDIANAPOLIS", "ports": {"Savannah, GA": 850.0, "Elizabeth, NJ": 700.0, "Houston, TX": 1000.0, "Los Angeles, CA": 1800.0, "Indianapolis, IN": 350.0}}, {"auctionLocation": "IONIA, MI 48875", "auction": "Copart", "city": "PORTLAND", "state": "MI", "zip": 48875, "location": "IONIA, MI", "ports": {"Savannah, GA": 900.0, "Elizabeth, NJ": 790.0, "Houston, TX": 1100.0, "Los Angeles, CA": 2100.0, "Indianapolis, IN": 675.0}}, {"auctionLocation": "JACKSON 39073", "auction": "Copart", "city": "FLORENCE", "state": "MS", "zip": 39073, "location": "JACKSON", "ports": {"Savannah, GA": 650.0, "Elizabeth, NJ": 950.0, "Houston, TX": 700.0, "Los Angeles, CA": 1300.0, "Indianapolis, IN": 950.0}}, {"auctionLocation": "JACKSONVILLE EAST", "auction": "Copart", "city": "JACKSONVILLE", "state": "FL", "zip": 32209, "location": "JACKSONVILLE EAST", "ports": {"Savannah, GA": 385.0, "Elizabeth, NJ": 900.0, "Houston, TX": 800.0, "Los Angeles, CA": 1600.0, "Indianapolis, IN": 1200.0}}, {"auctionLocation": "JACKSONVILLE\nNORTH 32218", "auction": "Copart", "city": "JACKSONVILLE", "state": "FL", "zip": 32218, "location": "JACKSONVILLE NORTH", "ports": {"Savannah, GA": 385.0, "Elizabeth, NJ": 900.0, "Houston, TX": 800.0, "Los Angeles, CA": 1600.0, "Indianapolis, IN": 1200.0}}, {"auctionLocation": "JACKSONVILLE WEST\n32220", "auction": "Copart", "city": "JACKSONVILLE", "state": "FL", "zip": 32220, "location": "JACKSONVILLE WEST", "ports": {"Savannah, GA": 385.0, "Elizabeth, NJ": 900.0, "Houston, TX": 800.0, "Los Angeles, CA": 1600.0, "Indianapolis, IN": 1200.0}}, {"auctionLocation": "KANSAS CITY 66111", "auction": "Copart", "city": "KANSAS CITY", "state": "KS", "zip": 66111, "location": "KANSAS CITY", "ports": {"Savannah, GA": 900.0, "Elizabeth, NJ": 900.0, "Houston, TX": 800.0, "Los Angeles, CA": 1500.0, "Indianapolis, IN": 820.0}}, {"auctionLocation": "KINCHELOE (MI) 49788", "auction": "Copart", "city": "KINCHELOE", "state": "MI", "zip": 49788, "location": "KINCHELOE (MI)", "ports": {"Savannah, GA": 1300.0, "Elizabeth, NJ": 1200.0, "Houston, TX": 1500.0, "Los Angeles, CA": 2500.0, "Indianapolis, IN": 1020.0}}, {"auctionLocation": "KNOXVILLE 37354", "auction": "Copart", "city": "MADISONVILLE", "state": "TN", "zip": 37354, "location": "KNOXVILLE", "ports": {"Savannah, GA": 570.0, "Elizabeth, NJ": 700.0, "Houston, TX": 850.0, "Los Angeles, CA": 1600.0, "Indianapolis, IN": 800.0}}, {"auctionLocation": "LANSING 48917", "auction": "Copart", "city": "LANSING", "state": "MI", "zip": 48917, "location": "LANSING", "ports": {"Savannah, GA": 900.0, "Elizabeth, NJ": 730.0, "Houston, TX": 1100.0, "Los Angeles, CA": 2100.0, "Indianapolis, IN": 675.0}}, {"auctionLocation": "LAS VEGAS 89115", "auction": "Copart", "city": "LAS VEGAS", "state": "NV", "zip": 89115, "location": "LAS VEGAS", "ports": {"Savannah, GA": 1700.0, "Elizabeth, NJ": 1700.0, "Houston, TX": 1250.0, "Los Angeles, CA": 500.0, "Indianapolis, IN": 1500.0}}, {"auctionLocation": "LAS VEGAS WEST", "auction": "Copart", "city": "North Las Vegas", "state": "NEVADA", "zip": 89032, "location": "LAS VEGAS WEST", "ports": {"Savannah, GA": 1700.0, "Elizabeth, NJ": 1700.0, "Houston, TX": 1250.0, "Los Angeles, CA": 500.0, "Indianapolis, IN": 1500.0}}, {"auctionLocation": "LEXINGTON EAST\n40509", "auction": "Copart", "city": "LEXINGTON", "state": "KY", "zip": 40509, "location": "LEXINGTON EAST", "ports": {"Savannah, GA": 630.0, "Elizabeth, NJ": 750.0, "Houston, TX": 900.0, "Los Angeles, CA": 1700.0, "Indianapolis, IN": 575.0}}, {"auctionLocation": "LEXINGTON WEST\n40342", "auction": "Copart", "city": "LAWRENCEBU\nRG", "state": "KY", "zip": 40342, "location": "LEXINGTON WEST", "ports": {"Savannah, GA": 630.0, "Elizabeth, NJ": 750.0, "Houston, TX": 900.0, "Los Angeles, CA": 1700.0, "Indianapolis, IN": 575.0}}, {"auctionLocation": "LINCOLN 68366", "auction": "Copart", "city": "GREENWOOD", "state": "NE", "zip": 68366, "location": "LINCOLN", "ports": {"Savannah, GA": 1150.0, "Elizabeth, NJ": 800.0, "Houston, TX": 875.0, "Los Angeles, CA": 1500.0, "Indianapolis, IN": 725.0}}, {"auctionLocation": "LITTLE ROCK 72032", "auction": "Copart", "city": "CONWAY", "state": "AR", "zip": 72032, "location": "LITTLE ROCK", "ports": {"Savannah, GA": 800.0, "Elizabeth, NJ": 1000.0, "Houston, TX": 750.0, "Los Angeles, CA": 1300.0, "Indianapolis, IN": 750.0}}, {"auctionLocation": "LONG BEACH (CA)", "auction": "Copart", "city": "WILMINGTON", "state": "CA", "zip": 90744, "location": "LONG BEACH (CA)", "ports": {"Savannah, GA": 1600.0, "Elizabeth, NJ": 1700.0, "Houston, TX": 1550.0, "Los Angeles, CA": 375.0, "Indianapolis, IN": 1500.0}}, {"auctionLocation": "LONG ISLAND 11719", "auction": "Copart", "city": "BROOKHAVEN", "state": "NY", "zip": 11719, "location": "LONG ISLAND", "ports": {"Savannah, GA": 900.0, "Elizabeth, NJ": 410.0, "Houston, TX": 1300.0, "Los Angeles, CA": 1800.0, "Indianapolis, IN": 800.0}}, {"auctionLocation": "LONGVIEW, TX 75603", "auction": "Copart", "city": "LONGVIEW", "state": "TX", "zip": 75603, "location": "LONGVIEW, TX", "ports": {"Savannah, GA": 800.0, "Elizabeth, NJ": 1100.0, "Houston, TX": 490.0, "Los Angeles, CA": 1100.0, "Indianapolis, IN": 950.0}}, {"auctionLocation": "LOS ANGELES 90001", "auction": "Copart", "city": "LOS ANGELES", "state": "CA", "zip": 90001, "location": "LOS ANGELES", "ports": {"Savannah, GA": 1600.0, "Elizabeth, NJ": 1700.0, "Houston, TX": 1550.0, "Los Angeles, CA": 370.0, "Indianapolis, IN": 1500.0}}, {"auctionLocation": "LOUISVILLE (KY) 40272", "auction": "Copart", "city": "LOUISVILLE", "state": "KY", "zip": 40272, "location": "LOUISVILLE (KY)", "ports": {"Savannah, GA": 630.0, "Elizabeth, NJ": 750.0, "Houston, TX": 900.0, "Los Angeles, CA": 1700.0, "Indianapolis, IN": 500.0}}, {"auctionLocation": "LUFKIN, TX 75904", "auction": "Copart", "city": "LUFKIN", "state": "TX", "zip": 75904, "location": "LUFKIN, TX", "ports": {"Savannah, GA": 900.0, "Elizabeth, NJ": 1100.0, "Houston, TX": 450.0, "Los Angeles, CA": 1100.0, "Indianapolis, IN": 950.0}}, {"auctionLocation": "LUMBERTON, NC", "auction": "Copart", "city": "LUMBERTON", "state": "NC", "zip": 28360, "location": "LUMBERTON, NC", "ports": {"Savannah, GA": 545.0, "Elizabeth, NJ": 600.0, "Houston, TX": 1000.0, "Los Angeles, CA": 1800.0, "Indianapolis, IN": 950.0}}, {"auctionLocation": "LYMAN 04002", "auction": "Copart", "city": "LYMAN", "state": "ME", "zip": 4002, "location": "LYMAN", "ports": {"Savannah, GA": 1100.0, "Elizabeth, NJ": 575.0, "Houston, TX": 1550.0, "Los Angeles, CA": 2100.0, "Indianapolis, IN": 1050.0}}, {"auctionLocation": "MACON (GA) 31008", "auction": "Copart", "city": "BYRON", "state": "GA", "zip": 31008, "location": "MACON (GA)", "ports": {"Savannah, GA": 445.0, "Elizabeth, NJ": 950.0, "Houston, TX": 950.0, "Los Angeles, CA": 1750.0, "Indianapolis, IN": 900.0}}, {"auctionLocation": "MADISON (WI) 53718", "auction": "Copart", "city": "MADISON", "state": "WI", "zip": 53718, "location": "MADISON (WI)", "ports": {"Savannah, GA": 1250.0, "Elizabeth, NJ": 900.0, "Houston, TX": 1200.0, "Los Angeles, CA": 2100.0, "Indianapolis, IN": 575.0}}, {"auctionLocation": "MADISON SOUTH (WI)\n53558", "auction": "Copart", "city": "McFarland", "state": "WI", "zip": 53558, "location": "MADISON SOUTH (WI)", "ports": {"Savannah, GA": 1250.0, "Elizabeth, NJ": 900.0, "Houston, TX": 1200.0, "Los Angeles, CA": 2100.0, "Indianapolis, IN": 550.0}}, {"auctionLocation": "MARTINEZ 94553", "auction": "Copart", "city": "MARTINEZ", "state": "CA", "zip": 94553, "location": "MARTINEZ", "ports": {"Savannah, GA": 1700.0, "Elizabeth, NJ": 1700.0, "Houston, TX": 1700.0, "Los Angeles, CA": 545.0, "Indianapolis, IN": 1500.0}}, {"auctionLocation": "MCALLEN, TX 78570", "auction": "Copart", "city": "MERCEDES", "state": "TX", "zip": 78570, "location": "MCALLEN, TX", "ports": {"Savannah, GA": 1100.0, "Elizabeth, NJ": 1450.0, "Houston, TX": 550.0, "Los Angeles, CA": 1100.0, "Indianapolis, IN": 1200.0}}, {"auctionLocation": "MEBANE 27302", "auction": "Copart", "city": "MEBANE", "state": "NC", "zip": 27302, "location": "MEBANE", "ports": {"Savannah, GA": 515.0, "Elizabeth, NJ": 600.0, "Houston, TX": 1000.0, "Los Angeles, CA": 1800.0, "Indianapolis, IN": 950.0}}, {"auctionLocation": "MEMPHIS 38118", "auction": "Copart", "city": "MEMPHIS", "state": "TN", "zip": 38118, "location": "MEMPHIS", "ports": {"Savannah, GA": 635.0, "Elizabeth, NJ": 900.0, "Houston, TX": 700.0, "Los Angeles, CA": 1500.0, "Indianapolis, IN": 700.0}}, {"auctionLocation": "Mentone (CA) 92359", "auction": "Copart", "city": "Mentone", "state": "CA", "zip": 92359, "location": "Mentone (CA)", "ports": {"Savannah, GA": 1600.0, "Elizabeth, NJ": 1700.0, "Houston, TX": 1400.0, "Los Angeles, CA": 390.0, "Indianapolis, IN": 1500.0}}, {"auctionLocation": "MIAMI CENTRAL 33167", "auction": "Copart", "city": "MIAMI", "state": "FL", "zip": 33167, "location": "MIAMI CENTRAL", "ports": {"Savannah, GA": 570.0, "Elizabeth, NJ": 1150.0, "Houston, TX": 1050.0, "Los Angeles, CA": 1850.0, "Indianapolis, IN": 1400.0}}, {"auctionLocation": "MIAMI NORTH 33054", "auction": "Copart", "city": "opa locka", "state": "FL", "zip": 33054, "location": "MIAMI NORTH", "ports": {"Savannah, GA": 570.0, "Elizabeth, NJ": 1150.0, "Houston, TX": 1050.0, "Los Angeles, CA": 1850.0, "Indianapolis, IN": 1400.0}}, {"auctionLocation": "MIAMI SOUTH 33032", "auction": "Copart", "city": "HOMESTEAD", "state": "FL", "zip": 33032, "location": "MIAMI SOUTH", "ports": {"Savannah, GA": 570.0, "Elizabeth, NJ": 1150.0, "Houston, TX": 1050.0, "Los Angeles, CA": 1850.0, "Indianapolis, IN": 1400.0}}, {"auctionLocation": "MILWAUKEE 53110", "auction": "Copart", "city": "CUDAHY", "state": "WI", "zip": 53110, "location": "MILWAUKEE", "ports": {"Savannah, GA": 1250.0, "Elizabeth, NJ": 900.0, "Houston, TX": 1200.0, "Los Angeles, CA": 2100.0, "Indianapolis, IN": 525.0}}, {"auctionLocation": "MILWAUKEE NORTH", "auction": "Copart", "city": "MILWAUKEE", "state": "WI", "zip": 53224, "location": "MILWAUKEE NORTH", "ports": {"Savannah, GA": 1250.0, "Elizabeth, NJ": 900.0, "Houston, TX": 1200.0, "Los Angeles, CA": 2100.0, "Indianapolis, IN": 525.0}}, {"auctionLocation": "Milwaukee South (WI)\n53132", "auction": "Copart", "city": "Franklin", "state": "WI", "zip": 53132, "location": "Milwaukee South (WI)", "ports": {"Savannah, GA": 1250.0, "Elizabeth, NJ": 900.0, "Houston, TX": 1200.0, "Los Angeles, CA": 2100.0, "Indianapolis, IN": 525.0}}, {"auctionLocation": "MINNEAPOLIS 55421", "auction": "Copart", "city": "BLAINE", "state": "MN", "zip": 55434, "location": "MINNEAPOLIS", "ports": {"Savannah, GA": 1250.0, "Elizabeth, NJ": 950.0, "Houston, TX": 1400.0, "Los Angeles, CA": 2100.0, "Indianapolis, IN": 675.0}}, {"auctionLocation": "MINNEAPOLIS NORTH\n55304", "auction": "Copart", "city": "HAM LAKE", "state": "MN", "zip": 55304, "location": "MINNEAPOLIS NORTH", "ports": {"Savannah, GA": 1250.0, "Elizabeth, NJ": 950.0, "Houston, TX": 1400.0, "Los Angeles, CA": 2100.0, "Indianapolis, IN": 675.0}}, {"auctionLocation": "MOBILE (AL) 36613", "auction": "Copart", "city": "EIGHT MILE", "state": "AL", "zip": 36613, "location": "MOBILE (AL)", "ports": {"Savannah, GA": 570.0, "Elizabeth, NJ": 1000.0, "Houston, TX": 700.0, "Los Angeles, CA": 1500.0, "Indianapolis, IN": 1200.0}}, {"auctionLocation": "MOBILE SOUTH (AL)", "auction": "Copart", "city": "THEODORE", "state": "AL", "zip": 36582, "location": "MOBILE SOUTH (AL)", "ports": {"Savannah, GA": 570.0, "Elizabeth, NJ": 1000.0, "Houston, TX": 700.0, "Los Angeles, CA": 1500.0, "Indianapolis, IN": 1200.0}}, {"auctionLocation": "MOCKSVILLE, NC\n27028", "auction": "Copart", "city": "MOCKSVILLE", "state": "NC", "zip": 27028, "location": "MOCKSVILLE, NC", "ports": {"Savannah, GA": 515.0, "Elizabeth, NJ": 650.0, "Houston, TX": 1000.0, "Los Angeles, CA": 1800.0, "Indianapolis, IN": 950.0}}, {"auctionLocation": "MONTGOMERY 36116", "auction": "Copart", "city": "MONTGOMERY", "state": "AL", "zip": 36116, "location": "MONTGOMERY", "ports": {"Savannah, GA": 525.0, "Elizabeth, NJ": 900.0, "Houston, TX": 750.0, "Los Angeles, CA": 1600.0, "Indianapolis, IN": 950.0}}, {"auctionLocation": "Napa, CA 94503", "auction": "Copart", "city": "American Canyon", "state": "CA", "zip": 94503, "location": "Napa, CA", "ports": {"Savannah, GA": 1700.0, "Elizabeth, NJ": 1700.0, "Houston, TX": 1400.0, "Los Angeles, CA": 650.0, "Indianapolis, IN": 1500.0}}, {"auctionLocation": "NASHVILLE 37090", "auction": "Copart", "city": "LEBANON", "state": "TN", "zip": 37090, "location": "NASHVILLE", "ports": {"Savannah, GA": 600.0, "Elizabeth, NJ": 700.0, "Houston, TX": 800.0, "Los Angeles, CA": 1600.0, "Indianapolis, IN": 700.0}}, {"auctionLocation": "NEW ORLEANS 70129", "auction": "Copart", "city": "NEW ORLEANS", "state": "LA", "zip": 70129, "location": "NEW ORLEANS", "ports": {"Savannah, GA": 700.0, "Elizabeth, NJ": 1000.0, "Houston, TX": 550.0, "Los Angeles, CA": 1200.0, "Indianapolis, IN": 950.0}}, {"auctionLocation": "NEWBURGH/Marlbo ro\n12542", "auction": "Copart", "city": "MARLBORO", "state": "NY", "zip": 12542, "location": "NEWBURGH/Marlbo ro", "ports": {"Savannah, GA": 900.0, "Elizabeth, NJ": 370.0, "Houston, TX": 1300.0, "Los Angeles, CA": 1800.0, "Indianapolis, IN": 650.0}}, {"auctionLocation": "NORTH AUSTIN, TX\n76574", "auction": "Copart", "city": "Taylor", "state": "TX", "zip": 76574, "location": "NORTH AUSTIN, TX", "ports": {"Savannah, GA": 900.0, "Elizabeth, NJ": 1100.0, "Houston, TX": 450.0, "Los Angeles, CA": 1100.0, "Indianapolis, IN": 1000.0}}, {"auctionLocation": "NORTH BOSTON\n01862", "auction": "Copart", "city": "NORTH\nBILLERICA", "state": "MA", "zip": 1862, "location": "NORTH BOSTON", "ports": {"Savannah, GA": 1000.0, "Elizabeth, NJ": 510.0, "Houston, TX": 1400.0, "Los Angeles, CA": 2000.0, "Indianapolis, IN": 900.0}}, {"auctionLocation": "NORTH CHARLESTON\n(SC) 29448", "auction": "Copart", "city": "HARLEYVILLE", "state": "SC", "zip": 29448, "location": "NORTH CHARLESTON (SC)", "ports": {"Savannah, GA": 415.0, "Elizabeth, NJ": 700.0, "Houston, TX": 900.0, "Los Angeles, CA": 1600.0, "Indianapolis, IN": 950.0}}, {"auctionLocation": "NORTH SEATTLE 98223", "auction": "Copart", "city": "ARLINGTON", "state": "WA", "zip": 98223, "location": "NORTH SEATTLE", "ports": {"Savannah, GA": 2100.0, "Elizabeth, NJ": 1700.0, "Houston, TX": 2200.0, "Los Angeles, CA": 1050.0, "Indianapolis, IN": 1300.0}}, {"auctionLocation": "OCALA 34482", "auction": "Copart", "city": "OCALA", "state": "FL", "zip": 34482, "location": "OCALA", "ports": {"Savannah, GA": 475.0, "Elizabeth, NJ": 1000.0, "Houston, TX": 1000.0, "Los Angeles, CA": 1800.0, "Indianapolis, IN": 1300.0}}, {"auctionLocation": "OGDEN (UT) 84404", "auction": "Copart", "city": "FARR WEST", "state": "UT", "zip": 84404, "location": "OGDEN (UT)", "ports": {"Savannah, GA": 1900.0, "Elizabeth, NJ": 1500.0, "Houston, TX": 1300.0, "Los Angeles, CA": 700.0, "Indianapolis, IN": 1100.0}}, {"auctionLocation": "OKEECHOBEE, FL", "auction": "Copart", "city": "OKEECHOBEE", "state": "FL", "zip": 34972, "location": "OKEECHOBEE, FL", "ports": {"Savannah, GA": 515.0, "Elizabeth, NJ": 1000.0, "Houston, TX": 1000.0, "Los Angeles, CA": 1800.0, "Indianapolis, IN": 1400.0}}, {"auctionLocation": "OKLAHOMA CITY", "auction": "Copart", "city": "OKLAHOMA CITY", "state": "OK", "zip": 73129, "location": "OKLAHOMA CITY", "ports": {"Savannah, GA": 900.0, "Elizabeth, NJ": 1050.0, "Houston, TX": 650.0, "Los Angeles, CA": 1100.0, "Indianapolis, IN": 750.0}}, {"auctionLocation": "ORLANDO (FL) 32822", "auction": "Copart", "city": "ORLANDO", "state": "FL", "zip": 32822, "location": "ORLANDO (FL)", "ports": {"Savannah, GA": 475.0, "Elizabeth, NJ": 1000.0, "Houston, TX": 1000.0, "Los Angeles, CA": 1800.0, "Indianapolis, IN": 1300.0}}, {"auctionLocation": "ORLANDO NORTH (FL)", "auction": "Copart", "city": "APOPKA", "state": "FL", "zip": 32712, "location": "ORLANDO NORTH (FL)", "ports": {"Savannah, GA": 475.0, "Elizabeth, NJ": 1000.0, "Houston, TX": 1000.0, "Los Angeles, CA": 1800.0, "Indianapolis, IN": 1300.0}}, {"auctionLocation": "ORLANDO SOUTH\n(FL) 32824", "auction": "Copart", "city": "ORLANDO", "state": "FL", "zip": 32824, "location": "ORLANDO SOUTH (FL)", "ports": {"Savannah, GA": 475.0, "Elizabeth, NJ": 1000.0, "Houston, TX": 1000.0, "Los Angeles, CA": 1800.0, "Indianapolis, IN": 1300.0}}, {"auctionLocation": "PASCO (WA) 99301", "auction": "Copart", "city": "PASCO", "state": "WA", "zip": 99301, "location": "PASCO (WA)", "ports": {"Savannah, GA": 2100.0, "Elizabeth, NJ": 1700.0, "Houston, TX": 1500.0, "Los Angeles, CA": 1025.0, "Indianapolis, IN": 1300.0}}, {"auctionLocation": "PEORIA (IL) 61554", "auction": "Copart", "city": "PEKIN", "state": "IL", "zip": 61554, "location": "PEORIA (IL)", "ports": {"Savannah, GA": 950.0, "Elizabeth, NJ": 710.0, "Houston, TX": 1000.0, "Los Angeles, CA": 1700.0, "Indianapolis, IN": 475.0}}, {"auctionLocation": "PHILADELPHIA (PA)", "auction": "Copart", "city": "PENNSBURG", "state": "PA", "zip": 18073, "location": "PHILADELPHIA (PA)", "ports": {"Savannah, GA": 800.0, "Elizabeth, NJ": 390.0, "Houston, TX": 1200.0, "Los Angeles, CA": 1800.0, "Indianapolis, IN": 700.0}}, {"auctionLocation": "PHILADELPHIA EAST\n(PA) 18914", "auction": "Copart", "city": "CHALFONT", "state": "PA", "zip": 18914, "location": "PHILADELPHIA EAST (PA)", "ports": {"Savannah, GA": 800.0, "Elizabeth, NJ": 390.0, "Houston, TX": 1200.0, "Los Angeles, CA": 1800.0, "Indianapolis, IN": 700.0}}, {"auctionLocation": "PHOENIX (AZ) 85043", "auction": "Copart", "city": "PHOENIX", "state": "AZ", "zip": 85043, "location": "PHOENIX (AZ)", "ports": {"Savannah, GA": 1450.0, "Elizabeth, NJ": 1500.0, "Houston, TX": 1050.0, "Los Angeles, CA": 480.0, "Indianapolis, IN": 1500.0}}, {"auctionLocation": "PHOENIX NORTH (AZ)\n85085", "auction": "Copart", "city": "Phoenix", "state": "AZ", "zip": 85085, "location": "PHOENIX NORTH (AZ)", "ports": {"Savannah, GA": 1450.0, "Elizabeth, NJ": 1500.0, "Houston, TX": 1050.0, "Los Angeles, CA": 550.0, "Indianapolis, IN": 1500.0}}, {"auctionLocation": "PITTSBURGH EAST\n(PA) 15611", "auction": "Copart", "city": "ADAMSBURG", "state": "PA", "zip": 15611, "location": "PITTSBURGH EAST (PA)", "ports": {"Savannah, GA": 1000.0, "Elizabeth, NJ": 590.0, "Houston, TX": 1400.0, "Los Angeles, CA": 1800.0, "Indianapolis, IN": 650.0}}, {"auctionLocation": "PITTSBURGH NORTH\n(PA) 16117", "auction": "Copart", "city": "ELLWOOD CITY", "state": "PA", "zip": 16117, "location": "PITTSBURGH NORTH (PA)", "ports": {"Savannah, GA": 1000.0, "Elizabeth, NJ": 590.0, "Houston, TX": 1400.0, "Los Angeles, CA": 1800.0, "Indianapolis, IN": 650.0}}, {"auctionLocation": "PITTSBURGH SOUTH\n(PA) 15122", "auction": "Copart", "city": "WEST MIFFLIN", "state": "PA", "zip": 15122, "location": "PITTSBURGH SOUTH (PA)", "ports": {"Savannah, GA": 1000.0, "Elizabeth, NJ": 590.0, "Houston, TX": 1400.0, "Los Angeles, CA": 1800.0, "Indianapolis, IN": 650.0}}, {"auctionLocation": "PITTSBURGH WEST,\n(PA) 15122", "auction": "Copart", "city": "WEST MIFFLIN", "state": "PA", "zip": 15122, "location": "PITTSBURGH WEST, (PA)", "ports": {"Savannah, GA": 1000.0, "Elizabeth, NJ": 590.0, "Houston, TX": 1400.0, "Los Angeles, CA": 1800.0, "Indianapolis, IN": 650.0}}, {"auctionLocation": "PORTLAND NORTH\n(OR) 97218", "auction": "Copart", "city": "PORTLAND", "state": "OR", "zip": 97218, "location": "PORTLAND NORTH (OR)", "ports": {"Savannah, GA": 1900.0, "Elizabeth, NJ": 1700.0, "Houston, TX": 1800.0, "Los Angeles, CA": 850.0, "Indianapolis, IN": 1500.0}}, {"auctionLocation": "PORTLAND SOUTH\n(OR) 97071", "auction": "Copart", "city": "WOODBURN", "state": "OR", "zip": 97071, "location": "PORTLAND SOUTH (OR)", "ports": {"Savannah, GA": 1900.0, "Elizabeth, NJ": 1700.0, "Houston, TX": 1800.0, "Los Angeles, CA": 850.0, "Indianapolis, IN": 1500.0}}, {"auctionLocation": "PUNTA GORDA (FL)\n33982", "auction": "Copart", "city": "PUNTA GORDA", "state": "FL", "zip": 33982, "location": "PUNTA GORDA (FL)", "ports": {"Savannah, GA": 570.0, "Elizabeth, NJ": 700.0, "Houston, TX": 1050.0, "Los Angeles, CA": 1850.0, "Indianapolis, IN": 1400.0}}, {"auctionLocation": "Punta Gorda South (FL)\n34269", "auction": "Copart", "city": "Arcadia", "state": "FL", "zip": 34269, "location": "Punta Gorda South (FL)", "ports": {"Savannah, GA": 570.0, "Elizabeth, NJ": 700.0, "Houston, TX": 1000.0, "Los Angeles, CA": 1800.0, "Indianapolis, IN": 750.0}}, {"auctionLocation": "RALEIGH (NC) 28334", "auction": "Copart", "city": "DUNN", "state": "NC", "zip": 28334, "location": "RALEIGH (NC)", "ports": {"Savannah, GA": 490.0, "Elizabeth, NJ": 600.0, "Houston, TX": 1000.0, "Los Angeles, CA": 1800.0, "Indianapolis, IN": 950.0}}, {"auctionLocation": "RALEIGH NORTH (NC)\n27545", "auction": "Copart", "city": "KNIGHTDALE", "state": "NC", "zip": 27545, "location": "RALEIGH NORTH (NC)", "ports": {"Savannah, GA": 490.0, "Elizabeth, NJ": 600.0, "Houston, TX": 1000.0, "Los Angeles, CA": 1800.0, "Indianapolis, IN": 950.0}}, {"auctionLocation": "RANCHO\nCUCAMONGA (CA)", "auction": "Copart", "city": "RANCHO\nCUCAMONGA", "state": "CA", "zip": 91739, "location": "RANCHO CUCAMONGA (CA)", "ports": {"Savannah, GA": 1600.0, "Elizabeth, NJ": 1700.0, "Houston, TX": 1550.0, "Los Angeles, CA": 390.0, "Indianapolis, IN": 1500.0}}, {"auctionLocation": "Rapid City", "auction": "Copart", "city": "Rapid City", "state": "SD", "zip": 57701, "location": "Rapid City", "ports": {"Savannah, GA": 1500.0, "Elizabeth, NJ": 1200.0, "Houston, TX": 1400.0, "Los Angeles, CA": 1400.0, "Indianapolis, IN": 965.0}}, {"auctionLocation": "REDDING (CA) 96007", "auction": "Copart", "city": "ANDERSON", "state": "CA", "zip": 96007, "location": "REDDING (CA)", "ports": {"Savannah, GA": 1700.0, "Elizabeth, NJ": 1700.0, "Houston, TX": 1500.0, "Los Angeles, CA": 820.0, "Indianapolis, IN": 1500.0}}, {"auctionLocation": "RENO (NV) 89506", "auction": "Copart", "city": "RENO", "state": "NV", "zip": 89506, "location": "RENO (NV)", "ports": {"Savannah, GA": 1800.0, "Elizabeth, NJ": 1700.0, "Houston, TX": 1350.0, "Los Angeles, CA": 670.0, "Indianapolis, IN": 1500.0}}, {"auctionLocation": "RICHMOND (VA) 23150", "auction": "Copart", "city": "SANDSTON", "state": "VA", "zip": 23150, "location": "RICHMOND (VA)", "ports": {"Savannah, GA": 650.0, "Elizabeth, NJ": 495.0, "Houston, TX": 1000.0, "Los Angeles, CA": 1800.0, "Indianapolis, IN": 800.0}}, {"auctionLocation": "RICHMOND EAST, VA\n23030", "auction": "Copart", "city": "CHARLES CITY", "state": "VA", "zip": 23030, "location": "RICHMOND EAST, VA", "ports": {"Savannah, GA": 650.0, "Elizabeth, NJ": 495.0, "Houston, TX": 1000.0, "Los Angeles, CA": 1800.0, "Indianapolis, IN": 800.0}}, {"auctionLocation": "ROCHESTER (NY)\n14482", "auction": "Copart", "city": "LEROY", "state": "NY", "zip": 14482, "location": "ROCHESTER (NY)", "ports": {"Savannah, GA": 1000.0, "Elizabeth, NJ": 590.0, "Houston, TX": 1500.0, "Los Angeles, CA": 1800.0, "Indianapolis, IN": 650.0}}, {"auctionLocation": "RUTLAND (VT) 05736", "auction": "Copart", "city": "Center Rutland", "state": "VT", "zip": 5736, "location": "RUTLAND (VT)", "ports": {"Savannah, GA": 1100.0, "Elizabeth, NJ": 625.0, "Houston, TX": 1550.0, "Los Angeles, CA": 2100.0, "Indianapolis, IN": 1050.0}}, {"auctionLocation": "SACRAMENTO (CA)\n95828", "auction": "Copart", "city": "SACRAMENTO", "state": "CA", "zip": 95828, "location": "SACRAMENTO (CA)", "ports": {"Savannah, GA": 1700.0, "Elizabeth, NJ": 1700.0, "Houston, TX": 1500.0, "Los Angeles, CA": 600.0, "Indianapolis, IN": 1500.0}}, {"auctionLocation": "SALT LAKE CITY (UT)\n84044", "auction": "Copart", "city": "MAGNA", "state": "UT", "zip": 84044, "location": "SALT LAKE CITY (UT)", "ports": {"Savannah, GA": 1900.0, "Elizabeth, NJ": 1500.0, "Houston, TX": 1300.0, "Los Angeles, CA": 700.0, "Indianapolis, IN": 1400.0}}, {"auctionLocation": "SALT LAKE CITY (UT)\n84054", "auction": "Copart", "city": "NORTH SALT\nLAKE", "state": "UT", "zip": 84054, "location": "SALT LAKE CITY (UT)", "ports": {"Savannah, GA": 1900.0, "Elizabeth, NJ": 1500.0, "Houston, TX": 1300.0, "Los Angeles, CA": 700.0, "Indianapolis, IN": 1100.0}}, {"auctionLocation": "SAN ANTONIO (TX)\n78224", "auction": "Copart", "city": "SAN ANTONIO", "state": "TX", "zip": 78224, "location": "SAN ANTONIO (TX)", "ports": {"Savannah, GA": 900.0, "Elizabeth, NJ": 1350.0, "Houston, TX": 440.0, "Los Angeles, CA": 1100.0, "Indianapolis, IN": 1100.0}}, {"auctionLocation": "SAN BERNARDINO\n(CA) 92324", "auction": "Copart", "city": "COLTON", "state": "CA", "zip": 92324, "location": "SAN BERNARDINO (CA)", "ports": {"Savannah, GA": 1600.0, "Elizabeth, NJ": 1700.0, "Houston, TX": 1300.0, "Los Angeles, CA": 360.0, "Indianapolis, IN": 1500.0}}, {"auctionLocation": "SAN DIEGO (CA) 92154", "auction": "Copart", "city": "SAN DIEGO", "state": "CA", "zip": 92154, "location": "SAN DIEGO (CA)", "ports": {"Savannah, GA": 1700.0, "Elizabeth, NJ": 1700.0, "Houston, TX": 1490.0, "Los Angeles, CA": 430.0, "Indianapolis, IN": 1500.0}}, {"auctionLocation": "SAN JOSE (CA) 95046", "auction": "Copart", "city": "SAN MARTIN", "state": "CA", "zip": 95046, "location": "SAN JOSE (CA)", "ports": {"Savannah, GA": 1700.0, "Elizabeth, NJ": 1700.0, "Houston, TX": 1400.0, "Los Angeles, CA": 545.0, "Indianapolis, IN": 1500.0}}, {"auctionLocation": "SAVANNAH (GA) 31405", "auction": "Copart", "city": "SAVANNAH", "state": "GA", "zip": 31405, "location": "SAVANNAH (GA)", "ports": {"Savannah, GA": 320.0, "Elizabeth, NJ": 750.0, "Houston, TX": 750.0, "Los Angeles, CA": 1550.0, "Indianapolis, IN": 950.0}}, {"auctionLocation": "SCRANTON (PA) 18642", "auction": "Copart", "city": "DURYEA", "state": "PA", "zip": 18642, "location": "SCRANTON (PA)", "ports": {"Savannah, GA": 900.0, "Elizabeth, NJ": 440.0, "Houston, TX": 1300.0, "Los Angeles, CA": 1800.0, "Indianapolis, IN": 700.0}}, {"auctionLocation": "SEAFORD (DE) 19973", "auction": "Copart", "city": "SEAFORD", "state": "DE", "zip": 19973, "location": "SEAFORD (DE)", "ports": {"Savannah, GA": 800.0, "Elizabeth, NJ": 440.0, "Houston, TX": 1200.0, "Los Angeles, CA": 1800.0, "Indianapolis, IN": 800.0}}, {"auctionLocation": "SHREVEPORT (LA)\n71109", "auction": "Copart", "city": "SHREVEPORT", "state": "LA", "zip": 71109, "location": "SHREVEPORT (LA)", "ports": {"Savannah, GA": 750.0, "Elizabeth, NJ": 1000.0, "Houston, TX": 550.0, "Los Angeles, CA": 1200.0, "Indianapolis, IN": 850.0}}, {"auctionLocation": "SIKESTON (MO) 63801", "auction": "Copart", "city": "SIKESTON", "state": "MO", "zip": 63801, "location": "SIKESTON (MO)", "ports": {"Savannah, GA": 800.0, "Elizabeth, NJ": 850.0, "Houston, TX": 775.0, "Los Angeles, CA": 1500.0, "Indianapolis, IN": 750.0}}, {"auctionLocation": "SO SACRAMENTO\n(CA) 95828", "auction": "Copart", "city": "SACRAMENTO", "state": "CA", "zip": 95828, "location": "SO SACRAMENTO (CA)", "ports": {"Savannah, GA": 1700.0, "Elizabeth, NJ": 1700.0, "Houston, TX": 1500.0, "Los Angeles, CA": 600.0, "Indianapolis, IN": 1500.0}}, {"auctionLocation": "SO SACRAMENTO\n95828", "auction": "Copart", "city": "SACRAMENTO", "state": "CA", "zip": 95828, "location": "SO SACRAMENTO", "ports": {"Savannah, GA": 1700.0, "Elizabeth, NJ": 1700.0, "Houston, TX": 1500.0, "Los Angeles, CA": 600.0, "Indianapolis, IN": 1500.0}}, {"auctionLocation": "SOMERVILLE (NJ)\n08844", "auction": "Copart", "city": "HILLSBOROUG H", "state": "NJ", "zip": 8844, "location": "SOMERVILLE (NJ)", "ports": {"Savannah, GA": 800.0, "Elizabeth, NJ": 300.0, "Houston, TX": 1300.0, "Los Angeles, CA": 1800.0, "Indianapolis, IN": 800.0}}, {"auctionLocation": "SOUTH BOSTON (MA)\n01756", "auction": "Copart", "city": "MENDON", "state": "MA", "zip": 1756, "location": "SOUTH BOSTON (MA)", "ports": {"Savannah, GA": 1000.0, "Elizabeth, NJ": 510.0, "Houston, TX": 1400.0, "Los Angeles, CA": 2000.0, "Indianapolis, IN": 900.0}}, {"auctionLocation": "SOUTHERN ILLINOIS\n(IL) 62207", "auction": "Copart", "city": "ALORTON", "state": "IL", "zip": 62207, "location": "SOUTHERN ILLINOIS (IL)", "ports": {"Savannah, GA": 850.0, "Elizabeth, NJ": 755.0, "Houston, TX": 900.0, "Los Angeles, CA": 1700.0, "Indianapolis, IN": 490.0}}, {"auctionLocation": "SPARTANBURG (SC)\n29301", "auction": "Copart", "city": "SPARTANBUR G", "state": "SOUTH\nCAROLIN A", "zip": 29301, "location": "SPARTANBURG (SC)", "ports": {"Savannah, GA": 425.0, "Elizabeth, NJ": 700.0, "Houston, TX": 900.0, "Los Angeles, CA": 1600.0, "Indianapolis, IN": 950.0}}, {"auctionLocation": "SPOKANE (WA) 99001", "auction": "Copart", "city": "AIRWAY HEIGHTS", "state": "WA", "zip": 99001, "location": "SPOKANE (WA)", "ports": {"Savannah, GA": 2100.0, "Elizabeth, NJ": 1700.0, "Houston, TX": 1500.0, "Los Angeles, CA": 1025.0, "Indianapolis, IN": 1400.0}}, {"auctionLocation": "SPRINGFIELD (MO)\n65742", "auction": "Copart", "city": "ROGERSVILLE", "state": "MO", "zip": 65742, "location": "SPRINGFIELD (MO)", "ports": {"Savannah, GA": 800.0, "Elizabeth, NJ": 850.0, "Houston, TX": 890.0, "Los Angeles, CA": 1500.0, "Indianapolis, IN": 620.0}}, {"auctionLocation": "ST. CLOUD (MN) 56310", "auction": "Copart", "city": "AVON", "state": "MN", "zip": 56310, "location": "ST. CLOUD (MN)", "ports": {"Savannah, GA": 1300.0, "Elizabeth, NJ": 1000.0, "Houston, TX": 1400.0, "Los Angeles, CA": 2100.0, "Indianapolis, IN": 725.0}}, {"auctionLocation": "ST. LOUIS (MO) 63044", "auction": "Copart", "city": "BRIDGETON", "state": "MO", "zip": 63044, "location": "ST. LOUIS (MO)", "ports": {"Savannah, GA": 850.0, "Elizabeth, NJ": 755.0, "Houston, TX": 900.0, "Los Angeles, CA": 1700.0, "Indianapolis, IN": 450.0}}, {"auctionLocation": "SUN VALLEY (CA)\n91352", "auction": "Copart", "city": "SUN VALLEY", "state": "CA", "zip": 91352, "location": "SUN VALLEY (CA)", "ports": {"Savannah, GA": 1600.0, "Elizabeth, NJ": 1700.0, "Houston, TX": 1550.0, "Los Angeles, CA": 370.0, "Indianapolis, IN": 1500.0}}, {"auctionLocation": "SYRACUSE (NY) 13036", "auction": "Copart", "city": "CENTRAL\nSQUARE", "state": "NY", "zip": 13036, "location": "SYRACUSE (NY)", "ports": {"Savannah, GA": 1000.0, "Elizabeth, NJ": 480.0, "Houston, TX": 1400.0, "Los Angeles, CA": 1800.0, "Indianapolis, IN": 650.0}}, {"auctionLocation": "TALLAHASSEE (FL)\n32343", "auction": "Copart", "city": "MIDWAY", "state": "FL", "zip": 32343, "location": "TALLAHASSEE (FL)", "ports": {"Savannah, GA": 545.0, "Elizabeth, NJ": 1000.0, "Houston, TX": 1050.0, "Los Angeles, CA": 1850.0, "Indianapolis, IN": 1400.0}}, {"auctionLocation": "TAMPA SOUTH (FL)\n33578", "auction": "Copart", "city": "RIVERVIEW", "state": "FL", "zip": 33578, "location": "TAMPA SOUTH (FL)", "ports": {"Savannah, GA": 515.0, "Elizabeth, NJ": 700.0, "Houston, TX": 1000.0, "Los Angeles, CA": 1800.0, "Indianapolis, IN": 1300.0}}, {"auctionLocation": "TANNER (AL) 35671", "auction": "Copart", "city": "TANNER", "state": "AL", "zip": 35671, "location": "TANNER (AL)", "ports": {"Savannah, GA": 545.0, "Elizabeth, NJ": 800.0, "Houston, TX": 800.0, "Los Angeles, CA": 1600.0, "Indianapolis, IN": 950.0}}, {"auctionLocation": "TIFTON (GA) 31794", "auction": "Copart", "city": "TIFTON", "state": "GA", "zip": 31794, "location": "TIFTON (GA)", "ports": {"Savannah, GA": 445.0, "Elizabeth, NJ": 900.0, "Houston, TX": 800.0, "Los Angeles, CA": 1600.0, "Indianapolis, IN": 950.0}}, {"auctionLocation": "TRENTON (NJ) 08561", "auction": "Copart", "city": "WINDSOR", "state": "NJ", "zip": 8561, "location": "TRENTON (NJ)", "ports": {"Savannah, GA": 800.0, "Elizabeth, NJ": 320.0, "Houston, TX": 1300.0, "Los Angeles, CA": 1800.0, "Indianapolis, IN": 800.0}}, {"auctionLocation": "TUCSON AZ) 85706", "auction": "Copart", "city": "TUCSON", "state": "AZ", "zip": 85706, "location": "TUCSON AZ)", "ports": {"Savannah, GA": 1450.0, "Elizabeth, NJ": 1500.0, "Houston, TX": 1050.0, "Los Angeles, CA": 595.0, "Indianapolis, IN": 1500.0}}, {"auctionLocation": "TULSA (OK) 74107", "auction": "Copart", "city": "TULSA", "state": "OK", "zip": 74107, "location": "TULSA (OK)", "ports": {"Savannah, GA": 900.0, "Elizabeth, NJ": 1050.0, "Houston, TX": 690.0, "Los Angeles, CA": 1200.0, "Indianapolis, IN": 750.0}}, {"auctionLocation": "VALLEJO (CA) 94590", "auction": "Copart", "city": "VALLEJO", "state": "CA", "zip": 94590, "location": "VALLEJO (CA)", "ports": {"Savannah, GA": 1700.0, "Elizabeth, NJ": 1700.0, "Houston, TX": 1400.0, "Los Angeles, CA": 520.0, "Indianapolis, IN": 1500.0}}, {"auctionLocation": "VAN NUYS (CA) 91405", "auction": "Copart", "city": "VAN NUYS", "state": "CA", "zip": 91405, "location": "VAN NUYS (CA)", "ports": {"Savannah, GA": 1600.0, "Elizabeth, NJ": 1700.0, "Houston, TX": 1550.0, "Los Angeles, CA": 390.0, "Indianapolis, IN": 1500.0}}, {"auctionLocation": "WACO (TX) 76501", "auction": "Copart", "city": "TEMPLE", "state": "TX", "zip": 76501, "location": "WACO (TX)", "ports": {"Savannah, GA": 900.0, "Elizabeth, NJ": 1100.0, "Houston, TX": 450.0, "Los Angeles, CA": 1100.0, "Indianapolis, IN": 950.0}}, {"auctionLocation": "WALTON (KY) 41094", "auction": "Copart", "city": "WALTON", "state": "KY", "zip": 41094, "location": "WALTON (KY)", "ports": {"Savannah, GA": 700.0, "Elizabeth, NJ": 750.0, "Houston, TX": 1000.0, "Los Angeles, CA": 1900.0, "Indianapolis, IN": 500.0}}, {"auctionLocation": "WASHINGTON (DC)\n20602", "auction": "Copart", "city": "WALDORF", "state": "MD", "zip": 20602, "location": "WASHINGTON (DC)", "ports": {"Savannah, GA": 800.0, "Elizabeth, NJ": 455.0, "Houston, TX": 1100.0, "Los Angeles, CA": 1800.0, "Indianapolis, IN": 800.0}}, {"auctionLocation": "WAYLAND (MI) 49348", "auction": "Copart", "city": "Wayland", "state": "MI", "zip": 49348, "location": "WAYLAND (MI)", "ports": {"Savannah, GA": 950.0, "Elizabeth, NJ": 730.0, "Houston, TX": 1200.0, "Los Angeles, CA": 2100.0, "Indianapolis, IN": 675.0}}, {"auctionLocation": "WEST PALM BEACH\n(FL) 33411", "auction": "Copart", "city": "WEST PALM\nBEACH", "state": "FL", "zip": 33411, "location": "WEST PALM BEACH (FL)", "ports": {"Savannah, GA": 570.0, "Elizabeth, NJ": 1150.0, "Houston, TX": 1050.0, "Los Angeles, CA": 1850.0, "Indianapolis, IN": 1400.0}}, {"auctionLocation": "WEST WARREN (MA)\n01092", "auction": "Copart", "city": "WEST WARREN", "state": "MA", "zip": 1092, "location": "WEST WARREN (MA)", "ports": {"Savannah, GA": 1000.0, "Elizabeth, NJ": 510.0, "Houston, TX": 1500.0, "Los Angeles, CA": 2100.0, "Indianapolis, IN": 1000.0}}, {"auctionLocation": "WHEELING (IL) 60090", "auction": "Copart", "city": "WHEELING", "state": "IL", "zip": 60090, "location": "WHEELING (IL)", "ports": {"Savannah, GA": 950.0, "Elizabeth, NJ": 720.0, "Houston, TX": 1000.0, "Los Angeles, CA": 1700.0, "Indianapolis, IN": 440.0}}, {"auctionLocation": "WICHITA (KS) 67216", "auction": "Copart", "city": "WICHITA", "state": "KS", "zip": 67216, "location": "WICHITA (KS)", "ports": {"Savannah, GA": 1150.0, "Elizabeth, NJ": 1100.0, "Houston, TX": 800.0, "Los Angeles, CA": 1500.0, "Indianapolis, IN": 820.0}}, {"auctionLocation": "Windham, ME 04062", "auction": "Copart", "city": "Windham", "state": "ME", "zip": 4062, "location": "Windham, ME", "ports": {"Savannah, GA": 1100.0, "Elizabeth, NJ": 575.0, "Houston, TX": 1550.0, "Los Angeles, CA": 2100.0, "Indianapolis, IN": 1050.0}}, {"auctionLocation": "YORK HAVEN (PA)", "auction": "Copart", "city": "YORK HAVEN", "state": "PA", "zip": 17370, "location": "YORK HAVEN (PA)", "ports": {"Savannah, GA": 900.0, "Elizabeth, NJ": 440.0, "Houston, TX": 1300.0, "Los Angeles, CA": 1800.0, "Indianapolis, IN": 700.0}}, {"auctionLocation": "Abilene 79601", "auction": "IAAI", "city": "Hawley", "state": "TX", "zip": 79525, "location": "Abilene", "ports": {"Savannah, GA": 1050.0, "Elizabeth, NJ": 1500.0, "Houston, TX": 550.0, "Los Angeles, CA": 900.0, "Indianapolis, IN": 1100.0}}, {"auctionLocation": "ACE - Carson (CA)", "auction": "IAAI", "city": "Carson", "state": "CA", "zip": 90248, "location": "ACE - Carson (CA)", "ports": {"Savannah, GA": 1600.0, "Elizabeth, NJ": 1700.0, "Houston, TX": 1550.0, "Los Angeles, CA": 370.0, "Indianapolis, IN": 1500.0}}, {"auctionLocation": "ACE - Perris (CA)\n92571", "auction": "IAAI", "city": "Perris", "state": "CA", "zip": 92571, "location": "ACE - Perris (CA)", "ports": {"Savannah, GA": 1600.0, "Elizabeth, NJ": 1700.0, "Houston, TX": 1400.0, "Los Angeles, CA": 370.0, "Indianapolis, IN": 1500.0}}, {"auctionLocation": "Akron-Canton 44663", "auction": "IAAI", "city": "New Philadelphia", "state": "OH", "zip": 44663, "location": "Akron-Canton", "ports": {"Savannah, GA": 750.0, "Elizabeth, NJ": 650.0, "Houston, TX": 1100.0, "Los Angeles, CA": 1900.0, "Indianapolis, IN": 590.0}}, {"auctionLocation": "Albany 12303", "auction": "IAAI", "city": "Schenectady", "state": "NY", "zip": 12303, "location": "Albany", "ports": {"Savannah, GA": 900.0, "Elizabeth, NJ": 440.0, "Houston, TX": 1570.0, "Los Angeles, CA": 1800.0, "Indianapolis, IN": 650.0}}, {"auctionLocation": "Albuquerque 87105", "auction": "IAAI", "city": "Albuquerque", "state": "NM", "zip": null, "location": "Albuquerque", "ports": {"Savannah, GA": 1200.0, "Elizabeth, NJ": 1500.0, "Houston, TX": 800.0, "Los Angeles, CA": 850.0, "Indianapolis, IN": 1400.0}}, {"auctionLocation": "Altoona 16637", "auction": "IAAI", "city": "East Freedom", "state": "PA", "zip": 16637, "location": "Altoona", "ports": {"Savannah, GA": 900.0, "Elizabeth, NJ": 590.0, "Houston, TX": 1400.0, "Los Angeles, CA": 1800.0, "Indianapolis, IN": 700.0}}, {"auctionLocation": "Amarillo (TX) 79118", "auction": "IAAI", "city": "Amarillo", "state": "TX", "zip": 79118, "location": "Amarillo (TX)", "ports": {"Savannah, GA": 1100.0, "Elizabeth, NJ": 1500.0, "Houston, TX": 750.0, "Los Angeles, CA": 900.0, "Indianapolis, IN": 1100.0}}, {"auctionLocation": "Anaheim 92806", "auction": "IAAI", "city": "Anaheim", "state": "CA", "zip": null, "location": "Anaheim", "ports": {"Savannah, GA": 1600.0, "Elizabeth, NJ": 1700.0, "Houston, TX": 1400.0, "Los Angeles, CA": 310.0, "Indianapolis, IN": 1500.0}}, {"auctionLocation": "Anchorage (AK)", "auction": "IAAI", "city": "Wasilla", "state": "AK", "zip": 99654, "location": "Anchorage (AK)", "ports": {"Savannah, GA": 3500.0, "Elizabeth, NJ": 3100.0, "Houston, TX": 2900.0, "Los Angeles, CA": 3000.0, "Indianapolis, IN": 2700.0}}, {"auctionLocation": "Appleton 54914", "auction": "IAAI", "city": "Appleton", "state": "WI", "zip": null, "location": "Appleton", "ports": {"Savannah, GA": 1250.0, "Elizabeth, NJ": 950.0, "Houston, TX": 1300.0, "Los Angeles, CA": 2100.0, "Indianapolis, IN": 600.0}}, {"auctionLocation": "Asheville (NC) 28732", "auction": "IAAI", "city": "Fletcher", "state": "NC", "zip": 28732, "location": "Asheville (NC)", "ports": {"Savannah, GA": 525.0, "Elizabeth, NJ": 600.0, "Houston, TX": 1200.0, "Los Angeles, CA": 1600.0, "Indianapolis, IN": 900.0}}, {"auctionLocation": "Ashland 41102", "auction": "IAAI", "city": "Ashland", "state": "KY", "zip": 41102, "location": "Ashland", "ports": {"Savannah, GA": 775.0, "Elizabeth, NJ": 750.0, "Houston, TX": 950.0, "Los Angeles, CA": 1700.0, "Indianapolis, IN": 675.0}}, {"auctionLocation": "Atlanta 30052", "auction": "IAAI", "city": "Loganville", "state": "GA", "zip": null, "location": "Atlanta", "ports": {"Savannah, GA": 470.0, "Elizabeth, NJ": 950.0, "Houston, TX": 950.0, "Los Angeles, CA": 1750.0, "Indianapolis, IN": 900.0}}, {"auctionLocation": "Atlanta East 30680", "auction": "IAAI", "city": "Winder", "state": "GA", "zip": 30680, "location": "Atlanta East", "ports": {"Savannah, GA": 470.0, "Elizabeth, NJ": 950.0, "Houston, TX": 950.0, "Los Angeles, CA": 1750.0, "Indianapolis, IN": 900.0}}, {"auctionLocation": "Atlanta North 30101", "auction": "IAAI", "city": "Acworth", "state": "GA", "zip": 30101, "location": "Atlanta North", "ports": {"Savannah, GA": 470.0, "Elizabeth, NJ": 950.0, "Houston, TX": 950.0, "Los Angeles, CA": 1750.0, "Indianapolis, IN": 900.0}}, {"auctionLocation": "Atlanta South 30260", "auction": "IAAI", "city": "Lake City", "state": "GA", "zip": 30260, "location": "Atlanta South", "ports": {"Savannah, GA": 470.0, "Elizabeth, NJ": 950.0, "Houston, TX": 950.0, "Los Angeles, CA": 1750.0, "Indianapolis, IN": 900.0}}, {"auctionLocation": "Atlanta West 30153", "auction": "IAAI", "city": "Rockmart", "state": "GEORGI A", "zip": 30153, "location": "Atlanta West", "ports": {"Savannah, GA": 475.0, "Elizabeth, NJ": 100.0, "Houston, TX": 100.0, "Los Angeles, CA": 100.0, "Indianapolis, IN": 100.0}}, {"auctionLocation": "Austin 78616", "auction": "IAAI", "city": "Dale", "state": "TX", "zip": 78616, "location": "Austin", "ports": {"Savannah, GA": 900.0, "Elizabeth, NJ": 1350.0, "Houston, TX": 450.0, "Los Angeles, CA": 1000.0, "Indianapolis, IN": 1100.0}}, {"auctionLocation": "Austin North (TX)", "auction": "IAAI", "city": "Florence", "state": "TX", "zip": 76527, "location": "Austin North (TX)", "ports": {"Savannah, GA": 900.0, "Elizabeth, NJ": 1100.0, "Houston, TX": 450.0, "Los Angeles, CA": 1100.0, "Indianapolis, IN": 1000.0}}, {"auctionLocation": "Avenel New Jersey\n07001", "auction": "IAAI", "city": "Avenel", "state": "NJ", "zip": 7001, "location": "Avenel New Jersey", "ports": {"Savannah, GA": 800.0, "Elizabeth, NJ": 300.0, "Houston, TX": 1200.0, "Los Angeles, CA": 1800.0, "Indianapolis, IN": 750.0}}, {"auctionLocation": "Baltimore 21226", "auction": "IAAI", "city": "Baltimore", "state": "MD", "zip": 21226, "location": "Baltimore", "ports": {"Savannah, GA": 800.0, "Elizabeth, NJ": 440.0, "Houston, TX": 1100.0, "Los Angeles, CA": 1800.0, "Indianapolis, IN": 800.0}}, {"auctionLocation": "Baton Rouge (LA)", "auction": "IAAI", "city": "Carville", "state": "LA", "zip": 70721, "location": "Baton Rouge (LA)", "ports": {"Savannah, GA": 750.0, "Elizabeth, NJ": 1000.0, "Houston, TX": 550.0, "Los Angeles, CA": 1200.0, "Indianapolis, IN": 950.0}}, {"auctionLocation": "Billings (MT) 59101", "auction": "IAAI", "city": "Billings", "state": "MT", "zip": 59101, "location": "Billings (MT)", "ports": {"Savannah, GA": 1800.0, "Elizabeth, NJ": 1500.0, "Houston, TX": 1500.0, "Los Angeles, CA": 1400.0, "Indianapolis, IN": 1350.0}}, {"auctionLocation": "Birmingham 35022", "auction": "IAAI", "city": "Bessemer", "state": "AL", "zip": 35022, "location": "Birmingham", "ports": {"Savannah, GA": 575.0, "Elizabeth, NJ": 850.0, "Houston, TX": 750.0, "Los Angeles, CA": 1600.0, "Indianapolis, IN": 950.0}}, {"auctionLocation": "Boise 83605", "auction": "IAAI", "city": "Meridian", "state": "ID", "zip": 83642, "location": "Boise", "ports": {"Savannah, GA": 1900.0, "Elizabeth, NJ": 1500.0, "Houston, TX": 1550.0, "Los Angeles, CA": 1170.0, "Indianapolis, IN": 1400.0}}, {"auctionLocation": "Boston - Shirley (MA)", "auction": "IAAI", "city": "Shirley", "state": "MA", "zip": 1464, "location": "Boston - Shirley (MA)", "ports": {"Savannah, GA": 1000.0, "Elizabeth, NJ": 510.0, "Houston, TX": 1400.0, "Los Angeles, CA": 2000.0, "Indianapolis, IN": 900.0}}, {"auctionLocation": "Bowling Green (KY)\n42101", "auction": "IAAI", "city": "Bowling Green", "state": "KY", "zip": 42101, "location": "Bowling Green (KY)", "ports": {"Savannah, GA": 720.0, "Elizabeth, NJ": 750.0, "Houston, TX": 900.0, "Los Angeles, CA": 1700.0, "Indianapolis, IN": 575.0}}, {"auctionLocation": "Bridgeport PA 19405", "auction": "IAAI", "city": "Bridgeport", "state": "PA", "zip": 19405, "location": "Bridgeport PA", "ports": {"Savannah, GA": 850.0, "Elizabeth, NJ": 390.0, "Houston, TX": 1200.0, "Los Angeles, CA": 1800.0, "Indianapolis, IN": 700.0}}, {"auctionLocation": "Buckhannon 26201", "auction": "IAAI", "city": "Buckhannon", "state": "WV", "zip": 26201, "location": "Buckhannon", "ports": {"Savannah, GA": 800.0, "Elizabeth, NJ": 660.0, "Houston, TX": 1000.0, "Los Angeles, CA": 1800.0, "Indianapolis, IN": 700.0}}, {"auctionLocation": "Buffalo 14207", "auction": "IAAI", "city": "buffalo", "state": "NY", "zip": 14207, "location": "Buffalo", "ports": {"Savannah, GA": 1000.0, "Elizabeth, NJ": 640.0, "Houston, TX": 1800.0, "Los Angeles, CA": 1800.0, "Indianapolis, IN": 650.0}}, {"auctionLocation": "Burlington 05451", "auction": "IAAI", "city": "Essex", "state": "VT", "zip": 5451, "location": "Burlington", "ports": {"Savannah, GA": 1100.0, "Elizabeth, NJ": 625.0, "Houston, TX": 1550.0, "Los Angeles, CA": 2100.0, "Indianapolis, IN": 1050.0}}, {"auctionLocation": "Casper", "auction": "IAAI", "city": "Casper", "state": "WY", "zip": 82601, "location": "Casper", "ports": {"Savannah, GA": 1450.0, "Elizabeth, NJ": 1450.0, "Houston, TX": 1450.0, "Los Angeles, CA": 1450.0, "Indianapolis, IN": 1250.0}}, {"auctionLocation": "Central New Jersey", "auction": "IAAI", "city": "Morganville", "state": "NJ", "zip": 7751, "location": "Central New Jersey", "ports": {"Savannah, GA": 800.0, "Elizabeth, NJ": 300.0, "Houston, TX": 1250.0, "Los Angeles, CA": 1800.0, "Indianapolis, IN": 750.0}}, {"auctionLocation": "Charleston 29470", "auction": "IAAI", "city": "Ravenel", "state": "SC", "zip": 29470, "location": "Charleston", "ports": {"Savannah, GA": 415.0, "Elizabeth, NJ": 700.0, "Houston, TX": 900.0, "Los Angeles, CA": 1600.0, "Indianapolis, IN": 1000.0}}, {"auctionLocation": "Charlotte 28206", "auction": "IAAI", "city": "Charlotte", "state": "NC", "zip": null, "location": "Charlotte", "ports": {"Savannah, GA": 525.0, "Elizabeth, NJ": 600.0, "Houston, TX": 1000.0, "Los Angeles, CA": 1800.0, "Indianapolis, IN": 950.0}}, {"auctionLocation": "Chattanooga 37404", "auction": "IAAI", "city": "Chattanooga", "state": "TN", "zip": 37404, "location": "Chattanooga", "ports": {"Savannah, GA": 600.0, "Elizabeth, NJ": 800.0, "Houston, TX": 750.0, "Los Angeles, CA": 1600.0, "Indianapolis, IN": 800.0}}, {"auctionLocation": "Chicago-North 60118", "auction": "IAAI", "city": "East Dundee", "state": "IL", "zip": 60118, "location": "Chicago-North", "ports": {"Savannah, GA": 950.0, "Elizabeth, NJ": 720.0, "Houston, TX": 1000.0, "Los Angeles, CA": 1700.0, "Indianapolis, IN": 440.0}}, {"auctionLocation": "Chicago-South 60428", "auction": "IAAI", "city": "Markham", "state": "IL", "zip": 60428, "location": "Chicago-South", "ports": {"Savannah, GA": 950.0, "Elizabeth, NJ": 720.0, "Houston, TX": 900.0, "Los Angeles, CA": 1700.0, "Indianapolis, IN": 440.0}}, {"auctionLocation": "Chicago-West 60505", "auction": "IAAI", "city": "Aurora", "state": "IL", "zip": 60505, "location": "Chicago-West", "ports": {"Savannah, GA": 950.0, "Elizabeth, NJ": 720.0, "Houston, TX": 1000.0, "Los Angeles, CA": 1700.0, "Indianapolis, IN": 440.0}}, {"auctionLocation": "Cincinnati 45069", "auction": "IAAI", "city": "West Chester", "state": "OH", "zip": 45069, "location": "Cincinnati", "ports": {"Savannah, GA": 850.0, "Elizabeth, NJ": 650.0, "Houston, TX": 1000.0, "Los Angeles, CA": 1900.0, "Indianapolis, IN": 420.0}}, {"auctionLocation": "Cincinnati-South 45102", "auction": "IAAI", "city": "Amelia", "state": "OH", "zip": 45102, "location": "Cincinnati-South", "ports": {"Savannah, GA": 850.0, "Elizabeth, NJ": 650.0, "Houston, TX": 1000.0, "Los Angeles, CA": 1900.0, "Indianapolis, IN": 420.0}}, {"auctionLocation": "Clearwater 33760", "auction": "IAAI", "city": "Clearwater", "state": "FL", "zip": 33760, "location": "Clearwater", "ports": {"Savannah, GA": 515.0, "Elizabeth, NJ": 1000.0, "Houston, TX": 1000.0, "Los Angeles, CA": 1800.0, "Indianapolis, IN": 750.0}}, {"auctionLocation": "Cleveland 44053", "auction": "IAAI", "city": "Lorain", "state": "OH", "zip": 44053, "location": "Cleveland", "ports": {"Savannah, GA": 850.0, "Elizabeth, NJ": 650.0, "Houston, TX": 1100.0, "Los Angeles, CA": 1900.0, "Indianapolis, IN": 590.0}}, {"auctionLocation": "Colorado Springs, CO", "auction": "IAAI", "city": "Colorado Springs", "state": "CO", "zip": 80925, "location": "Colorado Springs, CO", "ports": {"Savannah, GA": 1250.0, "Elizabeth, NJ": 950.0, "Houston, TX": 950.0, "Los Angeles, CA": 1000.0, "Indianapolis, IN": 1000.0}}, {"auctionLocation": "Colton (CA) 92324", "auction": "IAAI", "city": "Colton", "state": "CA", "zip": 92324, "location": "Colton (CA)", "ports": {"Savannah, GA": 1600.0, "Elizabeth, NJ": 1700.0, "Houston, TX": 1300.0, "Los Angeles, CA": 360.0, "Indianapolis, IN": 1500.0}}, {"auctionLocation": "Columbia, SC 29209", "auction": "IAAI", "city": "Columbia", "state": "SC", "zip": 29209, "location": "Columbia, SC", "ports": {"Savannah, GA": 425.0, "Elizabeth, NJ": 700.0, "Houston, TX": 900.0, "Los Angeles, CA": 1600.0, "Indianapolis, IN": 950.0}}, {"auctionLocation": "Columbus (OH) 43123", "auction": "IAAI", "city": "Grove City", "state": "OH", "zip": 43123, "location": "Columbus (OH)", "ports": {"Savannah, GA": 850.0, "Elizabeth, NJ": 675.0, "Houston, TX": 1000.0, "Los Angeles, CA": 1900.0, "Indianapolis, IN": 430.0}}, {"auctionLocation": "Concord 28025", "auction": "IAAI", "city": "Concord", "state": "NC", "zip": 28025, "location": "Concord", "ports": {"Savannah, GA": 525.0, "Elizabeth, NJ": 600.0, "Houston, TX": 1000.0, "Los Angeles, CA": 1800.0, "Indianapolis, IN": 950.0}}, {"auctionLocation": "Corpus Christi 78405", "auction": "IAAI", "city": "Corpus Christi", "state": "TX", "zip": 78405, "location": "Corpus Christi", "ports": {"Savannah, GA": 900.0, "Elizabeth, NJ": 1350.0, "Houston, TX": 530.0, "Los Angeles, CA": 1100.0, "Indianapolis, IN": 1100.0}}, {"auctionLocation": "Culpeper, VA 22701", "auction": "IAAI", "city": "Culpeper", "state": "VA", "zip": 22701, "location": "Culpeper, VA", "ports": {"Savannah, GA": 650.0, "Elizabeth, NJ": 590.0, "Houston, TX": 1000.0, "Los Angeles, CA": 1800.0, "Indianapolis, IN": 800.0}}, {"auctionLocation": "Dallas 75172", "auction": "IAAI", "city": "Wilmer", "state": "TX", "zip": 75172, "location": "Dallas", "ports": {"Savannah, GA": 900.0, "Elizabeth, NJ": 1100.0, "Houston, TX": 470.0, "Los Angeles, CA": 1100.0, "Indianapolis, IN": 950.0}}, {"auctionLocation": "Dallas/Ft. Worth 75050", "auction": "IAAI", "city": "Grand Prairie", "state": "TX", "zip": null, "location": "Dallas/Ft. Worth", "ports": {"Savannah, GA": 900.0, "Elizabeth, NJ": 1100.0, "Houston, TX": 470.0, "Los Angeles, CA": 1100.0, "Indianapolis, IN": 950.0}}, {"auctionLocation": "Davenport 52802", "auction": "IAAI", "city": "Davenport", "state": "IA", "zip": 52802, "location": "Davenport", "ports": {"Savannah, GA": 1250.0, "Elizabeth, NJ": 780.0, "Houston, TX": 1000.0, "Los Angeles, CA": 1600.0, "Indianapolis, IN": 650.0}}, {"auctionLocation": "Dayton 45427", "auction": "IAAI", "city": "Dayton", "state": "OH", "zip": 45417, "location": "Dayton", "ports": {"Savannah, GA": 850.0, "Elizabeth, NJ": 650.0, "Houston, TX": 1000.0, "Los Angeles, CA": 1900.0, "Indianapolis, IN": 450.0}}, {"auctionLocation": "Denver 80221", "auction": "IAAI", "city": "Denver", "state": "CO", "zip": 80221, "location": "Denver", "ports": {"Savannah, GA": 1250.0, "Elizabeth, NJ": 900.0, "Houston, TX": 890.0, "Los Angeles, CA": 1000.0, "Indianapolis, IN": 1000.0}}, {"auctionLocation": "Denver East (CO)", "auction": "IAAI", "city": "Commerce City", "state": "CO", "zip": 80022, "location": "Denver East (CO)", "ports": {"Savannah, GA": 1250.0, "Elizabeth, NJ": 990.0, "Houston, TX": 900.0, "Los Angeles, CA": 1000.0, "Indianapolis, IN": 1000.0}}, {"auctionLocation": "Des Moines 50069", "auction": "IAAI", "city": "De Soto", "state": "IA", "zip": 50069, "location": "Des Moines", "ports": {"Savannah, GA": 1250.0, "Elizabeth, NJ": 780.0, "Houston, TX": 1000.0, "Los Angeles, CA": 1600.0, "Indianapolis, IN": 650.0}}, {"auctionLocation": "Detroit 48111", "auction": "IAAI", "city": "Belleville", "state": "MI", "zip": 48111, "location": "Detroit", "ports": {"Savannah, GA": 900.0, "Elizabeth, NJ": 700.0, "Houston, TX": 1100.0, "Los Angeles, CA": 2100.0, "Indianapolis, IN": 650.0}}, {"auctionLocation": "Dothan 36345", "auction": "IAAI", "city": "Headland", "state": "AL", "zip": null, "location": "Dothan", "ports": {"Savannah, GA": 525.0, "Elizabeth, NJ": 900.0, "Houston, TX": 750.0, "Los Angeles, CA": 1600.0, "Indianapolis, IN": 950.0}}, {"auctionLocation": "Dundalk (MD) 21222", "auction": "IAAI", "city": "Dundalk", "state": "MD", "zip": 21222, "location": "Dundalk (MD)", "ports": {"Savannah, GA": 800.0, "Elizabeth, NJ": 455.0, "Houston, TX": 1100.0, "Los Angeles, CA": 1800.0, "Indianapolis, IN": 800.0}}, {"auctionLocation": "East Bay 94565", "auction": "IAAI", "city": "Bay Point", "state": "CA", "zip": 94565, "location": "East Bay", "ports": {"Savannah, GA": 1700.0, "Elizabeth, NJ": 1700.0, "Houston, TX": 1400.0, "Los Angeles, CA": 510.0, "Indianapolis, IN": 1500.0}}, {"auctionLocation": "El Paso 79927", "auction": "IAAI", "city": "El Paso", "state": "TX", "zip": 79927, "location": "El Paso", "ports": {"Savannah, GA": 1100.0, "Elizabeth, NJ": 1500.0, "Houston, TX": 750.0, "Los Angeles, CA": 950.0, "Indianapolis, IN": 1400.0}}, {"auctionLocation": "Elkton (MD) 21921", "auction": "IAAI", "city": "Elkton", "state": "MD", "zip": 21921, "location": "Elkton (MD)", "ports": {"Savannah, GA": 800.0, "Elizabeth, NJ": 440.0, "Houston, TX": 1100.0, "Los Angeles, CA": 1800.0, "Indianapolis, IN": 800.0}}, {"auctionLocation": "Englishtown (NJ)", "auction": "IAAI", "city": "Englishtown", "state": "NJ", "zip": 7726, "location": "Englishtown (NJ)", "ports": {"Savannah, GA": 800.0, "Elizabeth, NJ": 300.0, "Houston, TX": 1200.0, "Los Angeles, CA": 1800.0, "Indianapolis, IN": 750.0}}, {"auctionLocation": "Erie 16416", "auction": "IAAI", "city": "Garland", "state": "PA", "zip": 16416, "location": "Erie", "ports": {"Savannah, GA": 1100.0, "Elizabeth, NJ": 660.0, "Houston, TX": 1500.0, "Los Angeles, CA": 1800.0, "Indianapolis, IN": 660.0}}, {"auctionLocation": "Eugene 97402", "auction": "IAAI", "city": "Eugene", "state": "OR", "zip": null, "location": "Eugene", "ports": {"Savannah, GA": 1900.0, "Elizabeth, NJ": 1700.0, "Houston, TX": 1800.0, "Los Angeles, CA": 890.0, "Indianapolis, IN": 1500.0}}, {"auctionLocation": "Fargo 58102", "auction": "IAAI", "city": "Fargo", "state": "ND", "zip": 58102, "location": "Fargo", "ports": {"Savannah, GA": 1500.0, "Elizabeth, NJ": 1300.0, "Houston, TX": 1500.0, "Los Angeles, CA": 1400.0, "Indianapolis, IN": 1000.0}}, {"auctionLocation": "Fayetteville (AR) 72744", "auction": "IAAI", "city": "Lincoln", "state": "AR", "zip": 72744, "location": "Fayetteville (AR)", "ports": {"Savannah, GA": 900.0, "Elizabeth, NJ": 1050.0, "Houston, TX": 750.0, "Los Angeles, CA": 1200.0, "Indianapolis, IN": 750.0}}, {"auctionLocation": "Flint MI 48507", "auction": "IAAI", "city": "Flint", "state": "MI", "zip": 48507, "location": "Flint MI", "ports": {"Savannah, GA": 900.0, "Elizabeth, NJ": 720.0, "Houston, TX": 1100.0, "Los Angeles, CA": 2100.0, "Indianapolis, IN": 675.0}}, {"auctionLocation": "Fontana 92335", "auction": "IAAI", "city": "Fontana", "state": "CA", "zip": null, "location": "Fontana", "ports": {"Savannah, GA": 1600.0, "Elizabeth, NJ": 1700.0, "Houston, TX": 1400.0, "Los Angeles, CA": 360.0, "Indianapolis, IN": 1500.0}}, {"auctionLocation": "Fort Myers (FL) 33903", "auction": "IAAI", "city": "Fort Myers", "state": "FL", "zip": 33913, "location": "Fort Myers (FL)", "ports": {"Savannah, GA": 545.0, "Elizabeth, NJ": 850.0, "Houston, TX": 1250.0, "Los Angeles, CA": 1850.0, "Indianapolis, IN": 750.0}}, {"auctionLocation": "Fort Pierce, FL 34945", "auction": "IAAI", "city": "Fort Pierce", "state": "FL", "zip": 34981, "location": "Fort Pierce, FL", "ports": {"Savannah, GA": 515.0, "Elizabeth, NJ": 1000.0, "Houston, TX": 1000.0, "Los Angeles, CA": 1800.0, "Indianapolis, IN": 1400.0}}, {"auctionLocation": "Fort Wayne (IN) 46806", "auction": "IAAI", "city": "FORT WAYNE", "state": "IN", "zip": 46806, "location": "Fort Wayne (IN)", "ports": {"Savannah, GA": 950.0, "Elizabeth, NJ": 700.0, "Houston, TX": 1200.0, "Los Angeles, CA": 2100.0, "Indianapolis, IN": 380.0}}, {"auctionLocation": "Fort Worth North (TX)\n76247", "auction": "IAAI", "city": "JUSTIN", "state": "TX", "zip": 76247, "location": "Fort Worth North (TX)", "ports": {"Savannah, GA": 900.0, "Elizabeth, NJ": 1100.0, "Houston, TX": 490.0, "Los Angeles, CA": 1100.0, "Indianapolis, IN": 950.0}}, {"auctionLocation": "Fremont 94538", "auction": "IAAI", "city": "Fremont", "state": "CA", "zip": 94538, "location": "Fremont", "ports": {"Savannah, GA": 1700.0, "Elizabeth, NJ": 1700.0, "Houston, TX": 1400.0, "Los Angeles, CA": 520.0, "Indianapolis, IN": 1500.0}}, {"auctionLocation": "Fresno 93705", "auction": "IAAI", "city": "Fresno", "state": "CA", "zip": 93705, "location": "Fresno", "ports": {"Savannah, GA": 1700.0, "Elizabeth, NJ": 1700.0, "Houston, TX": 1400.0, "Los Angeles, CA": 475.0, "Indianapolis, IN": 1500.0}}, {"auctionLocation": "Grand Rapids 49315", "auction": "IAAI", "city": "Byron Center", "state": "MI", "zip": 49315, "location": "Grand Rapids", "ports": {"Savannah, GA": 950.0, "Elizabeth, NJ": 730.0, "Houston, TX": 1200.0, "Los Angeles, CA": 2100.0, "Indianapolis, IN": 675.0}}, {"auctionLocation": "Greensboro 27253", "auction": "IAAI", "city": "Graham", "state": "NC", "zip": null, "location": "Greensboro", "ports": {"Savannah, GA": 515.0, "Elizabeth, NJ": 600.0, "Houston, TX": 1000.0, "Los Angeles, CA": 1800.0, "Indianapolis, IN": 950.0}}, {"auctionLocation": "Greenville 29681", "auction": "IAAI", "city": "Simpsonville", "state": "SC", "zip": 29681, "location": "Greenville", "ports": {"Savannah, GA": 425.0, "Elizabeth, NJ": 775.0, "Houston, TX": 1000.0, "Los Angeles, CA": 1600.0, "Indianapolis, IN": 900.0}}, {"auctionLocation": "Grenada (MS) 38901", "auction": "IAAI", "city": "Grenada", "state": "MS", "zip": 38901, "location": "Grenada (MS)", "ports": {"Savannah, GA": 700.0, "Elizabeth, NJ": 950.0, "Houston, TX": 700.0, "Los Angeles, CA": 1300.0, "Indianapolis, IN": 950.0}}, {"auctionLocation": "Gulf Coast (MS) 39562", "auction": "IAAI", "city": "Moss Point", "state": "MS", "zip": 39562, "location": "Gulf Coast (MS)", "ports": {"Savannah, GA": 650.0, "Elizabeth, NJ": 1000.0, "Houston, TX": 700.0, "Los Angeles, CA": 1300.0, "Indianapolis, IN": 950.0}}, {"auctionLocation": "Hartford 06088", "auction": "IAAI", "city": "East Windsor", "state": "CT", "zip": 6088, "location": "Hartford", "ports": {"Savannah, GA": 900.0, "Elizabeth, NJ": 380.0, "Houston, TX": 1400.0, "Los Angeles, CA": 1900.0, "Indianapolis, IN": 900.0}}, {"auctionLocation": "High Desert 92345", "auction": "IAAI", "city": "Hesperia", "state": "CA", "zip": 92345, "location": "High Desert", "ports": {"Savannah, GA": 1600.0, "Elizabeth, NJ": 1700.0, "Houston, TX": 1400.0, "Los Angeles, CA": 430.0, "Indianapolis, IN": 1500.0}}, {"auctionLocation": "High Point (NC) 27263", "auction": "IAAI", "city": "High Point", "state": "NC", "zip": 27263, "location": "High Point (NC)", "ports": {"Savannah, GA": 515.0, "Elizabeth, NJ": 600.0, "Houston, TX": 1000.0, "Los Angeles, CA": 1800.0, "Indianapolis, IN": 950.0}}, {"auctionLocation": "Honolulu (Kahalui,\nMaui Island) 96732", "auction": "IAAI", "city": "Kahalui, Maui Island", "state": "HI", "zip": 96732, "location": "Honolulu (Kahalui, Maui Island)", "ports": {"Savannah, GA": 3900.0, "Elizabeth, NJ": 4900.0, "Houston, TX": 3300.0, "Los Angeles, CA": 3450.0, "Indianapolis, IN": 4700.0}}, {"auctionLocation": "Honolulu (Kailua-\nKona, Hawaii Island)", "auction": "IAAI", "city": "Kailua-\nKona,Hawaii Island", "state": "HI", "zip": 96740, "location": "Honolulu (Kailua- Kona, Hawaii Island)", "ports": {"Savannah, GA": 4300.0, "Elizabeth, NJ": 5300.0, "Houston, TX": 3700.0, "Los Angeles, CA": 3200.0, "Indianapolis, IN": 5100.0}}, {"auctionLocation": "Honolulu (Kapolei, Oahu Island) 96707", "auction": "IAAI", "city": "Kapolei, Oahu Island", "state": "HI", "zip": null, "location": "Honolulu (Kapolei, Oahu Island)", "ports": {"Savannah, GA": 3600.0, "Elizabeth, NJ": 4600.0, "Houston, TX": 3000.0, "Los Angeles, CA": 3300.0, "Indianapolis, IN": 4400.0}}, {"auctionLocation": "Honolulu (Lihue, Kauai Island) 96766", "auction": "IAAI", "city": "Lihue, Kauai Island", "state": "HI", "zip": 96766, "location": "Honolulu (Lihue, Kauai Island)", "ports": {"Savannah, GA": 4650.0, "Elizabeth, NJ": 5650.0, "Houston, TX": 4050.0, "Los Angeles, CA": 3700.0, "Indianapolis, IN": 5450.0}}, {"auctionLocation": "Houston 77038", "auction": "IAAI", "city": "Houston", "state": "TX", "zip": null, "location": "Houston", "ports": {"Savannah, GA": 750.0, "Elizabeth, NJ": 1100.0, "Houston, TX": 330.0, "Los Angeles, CA": 1000.0, "Indianapolis, IN": 1000.0}}, {"auctionLocation": "Houston South 77583", "auction": "IAAI", "city": "Rosharon", "state": "TX", "zip": 77583, "location": "Houston South", "ports": {"Savannah, GA": 750.0, "Elizabeth, NJ": 1100.0, "Houston, TX": 330.0, "Los Angeles, CA": 1000.0, "Indianapolis, IN": 1000.0}}, {"auctionLocation": "Houston-North 77032", "auction": "IAAI", "city": "Houston", "state": "TX", "zip": 77032, "location": "Houston-North", "ports": {"Savannah, GA": 750.0, "Elizabeth, NJ": 1100.0, "Houston, TX": 330.0, "Los Angeles, CA": 1000.0, "Indianapolis, IN": 1000.0}}, {"auctionLocation": "Huntsville 35613", "auction": "IAAI", "city": "Athens", "state": "AL", "zip": null, "location": "Huntsville", "ports": {"Savannah, GA": 545.0, "Elizabeth, NJ": 800.0, "Houston, TX": 800.0, "Los Angeles, CA": 1600.0, "Indianapolis, IN": 950.0}}, {"auctionLocation": "Indianapolis 46217", "auction": "IAAI", "city": "Indianapolis", "state": "IN", "zip": 46217, "location": "Indianapolis", "ports": {"Savannah, GA": 850.0, "Elizabeth, NJ": 700.0, "Houston, TX": 1000.0, "Los Angeles, CA": 1800.0, "Indianapolis, IN": 350.0}}, {"auctionLocation": "Indianapolis South", "auction": "IAAI", "city": "Crothersville", "state": "IN", "zip": 47229, "location": "Indianapolis South", "ports": {"Savannah, GA": 650.0, "Elizabeth, NJ": 800.0, "Houston, TX": 900.0, "Los Angeles, CA": 1700.0, "Indianapolis, IN": 370.0}}, {"auctionLocation": "Jackson 39272", "auction": "IAAI", "city": "Byram", "state": "MS", "zip": 39272, "location": "Jackson", "ports": {"Savannah, GA": 650.0, "Elizabeth, NJ": 950.0, "Houston, TX": 700.0, "Los Angeles, CA": 1300.0, "Indianapolis, IN": 950.0}}, {"auctionLocation": "Jacksonville 32218", "auction": "IAAI", "city": "Jacksonville", "state": "FL", "zip": 32218, "location": "Jacksonville", "ports": {"Savannah, GA": 385.0, "Elizabeth, NJ": 900.0, "Houston, TX": 800.0, "Los Angeles, CA": 1600.0, "Indianapolis, IN": 1200.0}}, {"auctionLocation": "Kansas City (KS)", "auction": "IAAI", "city": "Kansas City", "state": "KS", "zip": 66111, "location": "Kansas City (KS)", "ports": {"Savannah, GA": 900.0, "Elizabeth, NJ": 900.0, "Houston, TX": 800.0, "Los Angeles, CA": 1500.0, "Indianapolis, IN": 820.0}}, {"auctionLocation": "Kansas City East (MO)\n64076", "auction": "IAAI", "city": "Odessa", "state": "MO", "zip": 64076, "location": "Kansas City East (MO)", "ports": {"Savannah, GA": 850.0, "Elizabeth, NJ": 850.0, "Houston, TX": 800.0, "Los Angeles, CA": 1500.0, "Indianapolis, IN": 645.0}}, {"auctionLocation": "Knoxville 37914", "auction": "IAAI", "city": "Knoxville", "state": "TN", "zip": 37914, "location": "Knoxville", "ports": {"Savannah, GA": 600.0, "Elizabeth, NJ": 650.0, "Houston, TX": 850.0, "Los Angeles, CA": 1600.0, "Indianapolis, IN": 800.0}}, {"auctionLocation": "Lafayette (LA) 70507", "auction": "IAAI", "city": "Lafayette", "state": "LA", "zip": 70507, "location": "Lafayette (LA)", "ports": {"Savannah, GA": 700.0, "Elizabeth, NJ": 1000.0, "Houston, TX": 550.0, "Los Angeles, CA": 1200.0, "Indianapolis, IN": 950.0}}, {"auctionLocation": "Las Vegas 89011", "auction": "IAAI", "city": "Henderson", "state": "NV", "zip": 89011, "location": "Las Vegas", "ports": {"Savannah, GA": 1700.0, "Elizabeth, NJ": 1700.0, "Houston, TX": 1250.0, "Los Angeles, CA": 500.0, "Indianapolis, IN": 1500.0}}, {"auctionLocation": "Lexington (SC) 29073", "auction": "IAAI", "city": "Lexington", "state": "SC", "zip": 29073, "location": "Lexington (SC)", "ports": {"Savannah, GA": 445.0, "Elizabeth, NJ": 700.0, "Houston, TX": 900.0, "Los Angeles, CA": 1600.0, "Indianapolis, IN": 950.0}}, {"auctionLocation": "Lincoln 62656", "auction": "IAAI", "city": "Lincoln", "state": "IL", "zip": 62656, "location": "Lincoln", "ports": {"Savannah, GA": 950.0, "Elizabeth, NJ": 755.0, "Houston, TX": 900.0, "Los Angeles, CA": 1700.0, "Indianapolis, IN": 480.0}}, {"auctionLocation": "Little Rock 72142", "auction": "IAAI", "city": "Scott", "state": "AR", "zip": null, "location": "Little Rock", "ports": {"Savannah, GA": 800.0, "Elizabeth, NJ": 1000.0, "Houston, TX": 750.0, "Los Angeles, CA": 1300.0, "Indianapolis, IN": 750.0}}, {"auctionLocation": "LIVINGSTON (LA) 70754", "auction": "IAAI", "city": "LIVINGSTON", "state": "LA", "zip": 70754, "location": "LIVINGSTON (LA)", "ports": {"Savannah, GA": 750.0, "Elizabeth, NJ": 1000.0, "Houston, TX": 550.0, "Los Angeles, CA": 1200.0, "Indianapolis, IN": 950.0}}, {"auctionLocation": "Long Island 11763", "auction": "IAAI", "city": "Medford", "state": "NY", "zip": 11763, "location": "Long Island", "ports": {"Savannah, GA": 900.0, "Elizabeth, NJ": 410.0, "Houston, TX": 1300.0, "Los Angeles, CA": 1800.0, "Indianapolis, IN": 800.0}}, {"auctionLocation": "Longview 75605", "auction": "IAAI", "city": "Longview", "state": "TX", "zip": null, "location": "Longview", "ports": {"Savannah, GA": 800.0, "Elizabeth, NJ": 1100.0, "Houston, TX": 490.0, "Los Angeles, CA": 1100.0, "Indianapolis, IN": 950.0}}, {"auctionLocation": "Los Angeles 90248", "auction": "IAAI", "city": "Gardena", "state": "CA", "zip": null, "location": "Los Angeles", "ports": {"Savannah, GA": 1600.0, "Elizabeth, NJ": 1700.0, "Houston, TX": 1550.0, "Los Angeles, CA": 370.0, "Indianapolis, IN": 1500.0}}, {"auctionLocation": "Los Angeles South (CA) 90744", "auction": "IAAI", "city": "Wilmington", "state": "CA", "zip": 90744, "location": "Los Angeles South (CA)", "ports": {"Savannah, GA": 1600.0, "Elizabeth, NJ": 1700.0, "Houston, TX": 1550.0, "Los Angeles, CA": 375.0, "Indianapolis, IN": 1500.0}}, {"auctionLocation": "Louisville (KY) 40165", "auction": "IAAI", "city": "Shepherdsville", "state": "KY", "zip": 40165, "location": "Louisville (KY)", "ports": {"Savannah, GA": 630.0, "Elizabeth, NJ": 750.0, "Houston, TX": 900.0, "Los Angeles, CA": 1700.0, "Indianapolis, IN": 500.0}}, {"auctionLocation": "Louisville North (KY)", "auction": "IAAI", "city": "Eminence", "state": "KY", "zip": 40019, "location": "Louisville North (KY)", "ports": {"Savannah, GA": 630.0, "Elizabeth, NJ": 750.0, "Houston, TX": 900.0, "Los Angeles, CA": 1700.0, "Indianapolis, IN": 500.0}}, {"auctionLocation": "Lubbock (TX) 79415", "auction": "IAAI", "city": "Lubbock", "state": "TX", "zip": 79415, "location": "Lubbock (TX)", "ports": {"Savannah, GA": 1100.0, "Elizabeth, NJ": 1500.0, "Houston, TX": 625.0, "Los Angeles, CA": 900.0, "Indianapolis, IN": 1100.0}}, {"auctionLocation": "Macon (GA) 31217", "auction": "IAAI", "city": "Macon", "state": "GA", "zip": 31217, "location": "Macon (GA)", "ports": {"Savannah, GA": 445.0, "Elizabeth, NJ": 950.0, "Houston, TX": 950.0, "Los Angeles, CA": 1750.0, "Indianapolis, IN": 900.0}}, {"auctionLocation": "Manchester 03079", "auction": "IAAI", "city": "Salem", "state": "NH", "zip": 3079, "location": "Manchester", "ports": {"Savannah, GA": 1000.0, "Elizabeth, NJ": 535.0, "Houston, TX": 1500.0, "Los Angeles, CA": 2100.0, "Indianapolis, IN": 1000.0}}, {"auctionLocation": "McAllen (TX) - 78537", "auction": "IAAI", "city": "Donna", "state": "TX", "zip": 78537, "location": "McAllen (TX)", "ports": {"Savannah, GA": 1100.0, "Elizabeth, NJ": 1450.0, "Houston, TX": 550.0, "Los Angeles, CA": 1100.0, "Indianapolis, IN": 1200.0}}, {"auctionLocation": "Memphis 38053", "auction": "IAAI", "city": "Millington", "state": "TN", "zip": 38053, "location": "Memphis", "ports": {"Savannah, GA": 635.0, "Elizabeth, NJ": 900.0, "Houston, TX": 700.0, "Los Angeles, CA": 1500.0, "Indianapolis, IN": 700.0}}, {"auctionLocation": "Metro DC 20613", "auction": "IAAI", "city": "Brandywine", "state": "MD", "zip": 20613, "location": "Metro DC", "ports": {"Savannah, GA": 800.0, "Elizabeth, NJ": 455.0, "Houston, TX": 1100.0, "Los Angeles, CA": 1800.0, "Indianapolis, IN": 800.0}}, {"auctionLocation": "Miami 33054", "auction": "IAAI", "city": "Opa Locka", "state": "FL", "zip": 33054, "location": "Miami", "ports": {"Savannah, GA": 570.0, "Elizabeth, NJ": 1150.0, "Houston, TX": 1050.0, "Los Angeles, CA": 1850.0, "Indianapolis, IN": 1400.0}}, {"auctionLocation": "Miami-North 33332", "auction": "IAAI", "city": "fort lauderdale", "state": "FL", "zip": 33332, "location": "Miami-North", "ports": {"Savannah, GA": 570.0, "Elizabeth, NJ": 1150.0, "Houston, TX": 1050.0, "Los Angeles, CA": 1850.0, "Indianapolis, IN": 1400.0}}, {"auctionLocation": "Milwaukee 53089", "auction": "IAAI", "city": "Sussex", "state": "WI", "zip": 53089, "location": "Milwaukee", "ports": {"Savannah, GA": 1250.0, "Elizabeth, NJ": 900.0, "Houston, TX": 1200.0, "Los Angeles, CA": 2100.0, "Indianapolis, IN": 525.0}}, {"auctionLocation": "Minneapolis South", "auction": "IAAI", "city": "Randolph", "state": "MN", "zip": 55065, "location": "Minneapolis South", "ports": {"Savannah, GA": 1250.0, "Elizabeth, NJ": 950.0, "Houston, TX": 1400.0, "Los Angeles, CA": 2100.0, "Indianapolis, IN": 675.0}}, {"auctionLocation": "Minneapolis/St. Paul\n(MN) 55117", "auction": "IAAI", "city": "Maplewood", "state": "MN", "zip": 55117, "location": "Minneapolis/St. Paul (MN)", "ports": {"Savannah, GA": 1250.0, "Elizabeth, NJ": 950.0, "Houston, TX": 1400.0, "Los Angeles, CA": 2100.0, "Indianapolis, IN": 675.0}}, {"auctionLocation": "Missoula 59802", "auction": "IAAI", "city": "Missoula", "state": "MT", "zip": 59808, "location": "Missoula", "ports": {"Savannah, GA": 1800.0, "Elizabeth, NJ": 1800.0, "Houston, TX": 1500.0, "Los Angeles, CA": 1400.0, "Indianapolis, IN": 1350.0}}, {"auctionLocation": "Monticello 12701", "auction": "IAAI", "city": "Monticello", "state": "NY", "zip": 12701, "location": "Monticello", "ports": {"Savannah, GA": 900.0, "Elizabeth, NJ": 400.0, "Houston, TX": 1300.0, "Los Angeles, CA": 1800.0, "Indianapolis, IN": 650.0}}, {"auctionLocation": "Nashville 37218", "auction": "IAAI", "city": "Nashville", "state": "TN", "zip": 37218, "location": "Nashville", "ports": {"Savannah, GA": 600.0, "Elizabeth, NJ": 700.0, "Houston, TX": 800.0, "Los Angeles, CA": 1600.0, "Indianapolis, IN": 700.0}}, {"auctionLocation": "New Castle 19720", "auction": "IAAI", "city": "New Castle", "state": "DE", "zip": 19720, "location": "New Castle", "ports": {"Savannah, GA": 800.0, "Elizabeth, NJ": 440.0, "Houston, TX": 1200.0, "Los Angeles, CA": 1800.0, "Indianapolis, IN": 800.0}}, {"auctionLocation": "New Orleans 70433", "auction": "IAAI", "city": "Covington", "state": "LA", "zip": 70433, "location": "New Orleans", "ports": {"Savannah, GA": 700.0, "Elizabeth, NJ": 1000.0, "Houston, TX": 625.0, "Los Angeles, CA": 1200.0, "Indianapolis, IN": 950.0}}, {"auctionLocation": "New Orleans East", "auction": "IAAI", "city": "New Orleans", "state": "LA", "zip": 70126, "location": "New Orleans East", "ports": {"Savannah, GA": 700.0, "Elizabeth, NJ": 1000.0, "Houston, TX": 550.0, "Los Angeles, CA": 1200.0, "Indianapolis, IN": 950.0}}, {"auctionLocation": "Newburgh 12575", "auction": "IAAI", "city": "Rock Tavern", "state": "NY", "zip": 12575, "location": "Newburgh", "ports": {"Savannah, GA": 900.0, "Elizabeth, NJ": 370.0, "Houston, TX": 1300.0, "Los Angeles, CA": 1800.0, "Indianapolis, IN": 650.0}}, {"auctionLocation": "North Hollywood 91605", "auction": "IAAI", "city": "North Hollywood", "state": "CA", "zip": null, "location": "North Hollywood", "ports": {"Savannah, GA": 1600.0, "Elizabeth, NJ": 1700.0, "Houston, TX": 1550.0, "Los Angeles, CA": 400.0, "Indianapolis, IN": 1500.0}}, {"auctionLocation": "Northern Virginia 22406", "auction": "IAAI", "city": "Fredericksburg", "state": "VA", "zip": null, "location": "Northern Virginia", "ports": {"Savannah, GA": 700.0, "Elizabeth, NJ": 590.0, "Houston, TX": 1100.0, "Los Angeles, CA": 1800.0, "Indianapolis, IN": 800.0}}, {"auctionLocation": "Oklahoma City 73121", "auction": "IAAI", "city": "Oklahoma City", "state": "OK", "zip": 73121, "location": "Oklahoma City", "ports": {"Savannah, GA": 900.0, "Elizabeth, NJ": 1050.0, "Houston, TX": 650.0, "Los Angeles, CA": 1100.0, "Indianapolis, IN": 750.0}}, {"auctionLocation": "Omaha 68059", "auction": "IAAI", "city": "Springfield", "state": "NE", "zip": 68059, "location": "Omaha", "ports": {"Savannah, GA": 1150.0, "Elizabeth, NJ": 905.0, "Houston, TX": 905.0, "Los Angeles, CA": 1500.0, "Indianapolis, IN": 725.0}}, {"auctionLocation": "Omaha South (NE)", "auction": "IAAI", "city": "Greenwood", "state": "NE", "zip": 68366, "location": "Omaha South (NE)", "ports": {"Savannah, GA": 1150.0, "Elizabeth, NJ": 800.0, "Houston, TX": 875.0, "Los Angeles, CA": 1500.0, "Indianapolis, IN": 725.0}}, {"auctionLocation": "Orlando 32824", "auction": "IAAI", "city": "Orlando", "state": "FL", "zip": 32824, "location": "Orlando", "ports": {"Savannah, GA": 475.0, "Elizabeth, NJ": 1000.0, "Houston, TX": 1000.0, "Los Angeles, CA": 1800.0, "Indianapolis, IN": 1300.0}}, {"auctionLocation": "Orlando-North 32773", "auction": "IAAI", "city": "Sanford", "state": "FL", "zip": 32773, "location": "Orlando-North", "ports": {"Savannah, GA": 475.0, "Elizabeth, NJ": 1000.0, "Houston, TX": 1000.0, "Los Angeles, CA": 1800.0, "Indianapolis, IN": 1300.0}}, {"auctionLocation": "Paducah 42002", "auction": "IAAI", "city": "Paducah", "state": "KY", "zip": 42002, "location": "Paducah", "ports": {"Savannah, GA": 635.0, "Elizabeth, NJ": 750.0, "Houston, TX": 900.0, "Los Angeles, CA": 1700.0, "Indianapolis, IN": 675.0}}, {"auctionLocation": "Pensacola 32583", "auction": "IAAI", "city": "Milton", "state": "FL", "zip": 32583, "location": "Pensacola", "ports": {"Savannah, GA": 570.0, "Elizabeth, NJ": 1000.0, "Houston, TX": 700.0, "Los Angeles, CA": 1500.0, "Indianapolis, IN": 1200.0}}, {"auctionLocation": "Permian Basin 79764", "auction": "IAAI", "city": "Odessa", "state": "TX", "zip": 79764, "location": "Permian Basin", "ports": {"Savannah, GA": 1100.0, "Elizabeth, NJ": 1500.0, "Houston, TX": 670.0, "Los Angeles, CA": 900.0, "Indianapolis, IN": 1300.0}}, {"auctionLocation": "Philadelphia 19428", "auction": "IAAI", "city": "Conshohocken", "state": "PA", "zip": null, "location": "Philadelphia", "ports": {"Savannah, GA": 800.0, "Elizabeth, NJ": 390.0, "Houston, TX": 1200.0, "Los Angeles, CA": 1800.0, "Indianapolis, IN": 700.0}}, {"auctionLocation": "Phoenix 85041", "auction": "IAAI", "city": "Phoenix", "state": "AZ", "zip": 85041, "location": "Phoenix", "ports": {"Savannah, GA": 1450.0, "Elizabeth, NJ": 1500.0, "Houston, TX": 1050.0, "Los Angeles, CA": 480.0, "Indianapolis, IN": 1500.0}}, {"auctionLocation": "Pittsburgh 15001", "auction": "IAAI", "city": "Aliquippa", "state": "PA", "zip": 15001, "location": "Pittsburgh", "ports": {"Savannah, GA": 1000.0, "Elizabeth, NJ": 590.0, "Houston, TX": 1400.0, "Los Angeles, CA": 1800.0, "Indianapolis, IN": 650.0}}, {"auctionLocation": "Pittsburgh-North 15044", "auction": "IAAI", "city": "Gibsonia", "state": "PA", "zip": 15044, "location": "Pittsburgh-North", "ports": {"Savannah, GA": 1000.0, "Elizabeth, NJ": 590.0, "Houston, TX": 1400.0, "Los Angeles, CA": 1800.0, "Indianapolis, IN": 650.0}}, {"auctionLocation": "Port Murray (NJ) 07865", "auction": "IAAI", "city": "Port Murray", "state": "NJ", "zip": 7865, "location": "Port Murray (NJ)", "ports": {"Savannah, GA": 800.0, "Elizabeth, NJ": 350.0, "Houston, TX": 1300.0, "Los Angeles, CA": 1800.0, "Indianapolis, IN": 800.0}}, {"auctionLocation": "Portage (WI) 53901", "auction": "IAAI", "city": "Portage", "state": "WI", "zip": 53901, "location": "Portage (WI)", "ports": {"Savannah, GA": 1250.0, "Elizabeth, NJ": 900.0, "Houston, TX": 1200.0, "Los Angeles, CA": 2100.0, "Indianapolis, IN": 575.0}}, {"auctionLocation": "Portland - Gorham", "auction": "IAAI", "city": "Gorham", "state": "ME", "zip": 4038, "location": "Portland - Gorham", "ports": {"Savannah, GA": 1100.0, "Elizabeth, NJ": 575.0, "Houston, TX": 1550.0, "Los Angeles, CA": 2100.0, "Indianapolis, IN": 1050.0}}, {"auctionLocation": "Portland (OR) 97230", "auction": "IAAI", "city": "Portland", "state": "OR", "zip": null, "location": "Portland (OR)", "ports": {"Savannah, GA": 1900.0, "Elizabeth, NJ": 1700.0, "Houston, TX": 1800.0, "Los Angeles, CA": 820.0, "Indianapolis, IN": 1500.0}}, {"auctionLocation": "Portland South (OR) 97071", "auction": "IAAI", "city": "Woodburn", "state": "OR", "zip": 97071, "location": "Portland South (OR)", "ports": {"Savannah, GA": 1900.0, "Elizabeth, NJ": 1700.0, "Houston, TX": 1800.0, "Los Angeles, CA": 850.0, "Indianapolis, IN": 1500.0}}, {"auctionLocation": "Portland West  (OR)\n97217", "auction": "IAAI", "city": "Portland", "state": "OR", "zip": 97217, "location": "Portland West (OR)", "ports": {"Savannah, GA": 1900.0, "Elizabeth, NJ": 1700.0, "Houston, TX": 1800.0, "Los Angeles, CA": 820.0, "Indianapolis, IN": 1500.0}}, {"auctionLocation": "Providence (RI) 02915", "auction": "IAAI", "city": "Riverside", "state": "RI", "zip": 2915, "location": "Providence (RI)", "ports": {"Savannah, GA": 1000.0, "Elizabeth, NJ": 535.0, "Houston, TX": 1500.0, "Los Angeles, CA": 2100.0, "Indianapolis, IN": 900.0}}, {"auctionLocation": "Provo (UT) 84648", "auction": "IAAI", "city": "South Nephi", "state": "UT", "zip": 84648, "location": "Provo (UT)", "ports": {"Savannah, GA": 1900.0, "Elizabeth, NJ": 1500.0, "Houston, TX": 1300.0, "Los Angeles, CA": 700.0, "Indianapolis, IN": 1100.0}}, {"auctionLocation": "Pulaski 24301", "auction": "IAAI", "city": "Pulaski", "state": "VA", "zip": 24301, "location": "Pulaski", "ports": {"Savannah, GA": 650.0, "Elizabeth, NJ": 590.0, "Houston, TX": 1000.0, "Los Angeles, CA": 1800.0, "Indianapolis, IN": 800.0}}, {"auctionLocation": "Puyallup 98374", "auction": "IAAI", "city": "Puyallup", "state": "WA", "zip": 98374, "location": "Puyallup", "ports": {"Savannah, GA": 2100.0, "Elizabeth, NJ": 1700.0, "Houston, TX": 2200.0, "Los Angeles, CA": 950.0, "Indianapolis, IN": 1300.0}}, {"auctionLocation": "Raleigh 27520", "auction": "IAAI", "city": "Clayton", "state": "NC", "zip": 27520, "location": "Raleigh", "ports": {"Savannah, GA": 485.0, "Elizabeth, NJ": 600.0, "Houston, TX": 1000.0, "Los Angeles, CA": 1800.0, "Indianapolis, IN": 950.0}}, {"auctionLocation": "Reno (NV) 89437", "auction": "IAAI", "city": "Sparks", "state": "NV", "zip": 89437, "location": "Reno (NV)", "ports": {"Savannah, GA": 1800.0, "Elizabeth, NJ": 1700.0, "Houston, TX": 1200.0, "Los Angeles, CA": 670.0, "Indianapolis, IN": 1500.0}}, {"auctionLocation": "Richmond 23005", "auction": "IAAI", "city": "Ashland", "state": "VA", "zip": 23005, "location": "Richmond", "ports": {"Savannah, GA": 650.0, "Elizabeth, NJ": 495.0, "Houston, TX": 1000.0, "Los Angeles, CA": 1800.0, "Indianapolis, IN": 800.0}}, {"auctionLocation": "Riverside (CA) 92509", "auction": "IAAI", "city": "RIVERSIDE", "state": "CA", "zip": 92509, "location": "Riverside (CA)", "ports": {"Savannah, GA": 1600.0, "Elizabeth, NJ": 1700.0, "Houston, TX": 1400.0, "Los Angeles, CA": 350.0, "Indianapolis, IN": 1500.0}}, {"auctionLocation": "Roanoke (VA) 24122", "auction": "IAAI", "city": "Montvale", "state": "VA", "zip": 24122, "location": "Roanoke (VA)", "ports": {"Savannah, GA": 650.0, "Elizabeth, NJ": 590.0, "Houston, TX": 1000.0, "Los Angeles, CA": 1800.0, "Indianapolis, IN": 800.0}}, {"auctionLocation": "Rochester 14416", "auction": "IAAI", "city": "Bergen", "state": "NY", "zip": 14416, "location": "Rochester", "ports": {"Savannah, GA": 1000.0, "Elizabeth, NJ": 590.0, "Houston, TX": 1500.0, "Los Angeles, CA": 1800.0, "Indianapolis, IN": 650.0}}, {"auctionLocation": "Rosedale  21237", "auction": "IAAI", "city": "Rosedale", "state": "MD", "zip": 21237, "location": "Rosedale", "ports": {"Savannah, GA": 800.0, "Elizabeth, NJ": 440.0, "Houston, TX": 1100.0, "Los Angeles, CA": 1800.0, "Indianapolis, IN": 800.0}}, {"auctionLocation": "Sacramento 95742", "auction": "IAAI", "city": "Rancho Cordova", "state": "CA", "zip": null, "location": "Sacramento", "ports": {"Savannah, GA": 1700.0, "Elizabeth, NJ": 1700.0, "Houston, TX": 1400.0, "Los Angeles, CA": 600.0, "Indianapolis, IN": 1500.0}}, {"auctionLocation": "Salt Lake City 84401", "auction": "IAAI", "city": "Ogden", "state": "UT", "zip": null, "location": "Salt Lake City", "ports": {"Savannah, GA": 1900.0, "Elizabeth, NJ": 1500.0, "Houston, TX": 1300.0, "Los Angeles, CA": 700.0, "Indianapolis, IN": 1100.0}}, {"auctionLocation": "San Antonio 78211", "auction": "IAAI", "city": "San Antonio", "state": "TX", "zip": 78211, "location": "San Antonio", "ports": {"Savannah, GA": 900.0, "Elizabeth, NJ": 1350.0, "Houston, TX": 440.0, "Los Angeles, CA": 1100.0, "Indianapolis, IN": 1100.0}}, {"auctionLocation": "San Antonio-South", "auction": "IAAI", "city": "San Antonio", "state": "TX", "zip": 78224, "location": "San Antonio-South", "ports": {"Savannah, GA": 900.0, "Elizabeth, NJ": 1350.0, "Houston, TX": 440.0, "Los Angeles, CA": 1100.0, "Indianapolis, IN": 1100.0}}, {"auctionLocation": "San Diego 92154", "auction": "IAAI", "city": "San Diego", "state": "CA", "zip": 92154, "location": "San Diego", "ports": {"Savannah, GA": 1700.0, "Elizabeth, NJ": 1700.0, "Houston, TX": 1490.0, "Los Angeles, CA": 430.0, "Indianapolis, IN": 1500.0}}, {"auctionLocation": "Santa Clarita", "auction": "IAAI", "city": "Santa Clarita", "state": "CA", "zip": 91387, "location": "Santa Clarita", "ports": {"Savannah, GA": 1600.0, "Elizabeth, NJ": 1700.0, "Houston, TX": 1550.0, "Los Angeles, CA": 390.0, "Indianapolis, IN": 1500.0}}, {"auctionLocation": "Savannah 31326", "auction": "IAAI", "city": "Rincon", "state": "GA", "zip": 31326, "location": "Savannah", "ports": {"Savannah, GA": 320.0, "Elizabeth, NJ": 750.0, "Houston, TX": 750.0, "Los Angeles, CA": 1550.0, "Indianapolis, IN": 950.0}}, {"auctionLocation": "Sayreville (NJ) 08872", "auction": "IAAI", "city": "Sayreville", "state": "NJ", "zip": 8872, "location": "Sayreville (NJ)", "ports": {"Savannah, GA": 800.0, "Elizabeth, NJ": 325.0, "Houston, TX": 1300.0, "Los Angeles, CA": 1800.0, "Indianapolis, IN": 800.0}}, {"auctionLocation": "Scranton 18640", "auction": "IAAI", "city": "Pittston", "state": "PA", "zip": 18640, "location": "Scranton", "ports": {"Savannah, GA": 900.0, "Elizabeth, NJ": 440.0, "Houston, TX": 1300.0, "Los Angeles, CA": 1800.0, "Indianapolis, IN": 700.0}}, {"auctionLocation": "Seattle 98108", "auction": "IAAI", "city": "Puyallup", "state": "WA", "zip": 98374, "location": "Seattle", "ports": {"Savannah, GA": 2100.0, "Elizabeth, NJ": 1700.0, "Houston, TX": 2200.0, "Los Angeles, CA": 950.0, "Indianapolis, IN": 1300.0}}, {"auctionLocation": "Shady Spring 25918", "auction": "IAAI", "city": "Shady Spring", "state": "WV", "zip": 25918, "location": "Shady Spring", "ports": {"Savannah, GA": 800.0, "Elizabeth, NJ": 710.0, "Houston, TX": 1000.0, "Los Angeles, CA": 1800.0, "Indianapolis, IN": 700.0}}, {"auctionLocation": "Shreveport (LA)", "auction": "IAAI", "city": "Greenwood", "state": "LA", "zip": 71033, "location": "Shreveport (LA)", "ports": {"Savannah, GA": 750.0, "Elizabeth, NJ": 1000.0, "Houston, TX": 550.0, "Los Angeles, CA": 1200.0, "Indianapolis, IN": 850.0}}, {"auctionLocation": "Sioux Falls 57039", "auction": "IAAI", "city": "Lennox", "state": "SD", "zip": 57039, "location": "Sioux Falls", "ports": {"Savannah, GA": 1500.0, "Elizabeth, NJ": 1200.0, "Houston, TX": 1400.0, "Los Angeles, CA": 1400.0, "Indianapolis, IN": 900.0}}, {"auctionLocation": "South Bend 46619", "auction": "IAAI", "city": "South Bend", "state": "IN", "zip": 46619, "location": "South Bend", "ports": {"Savannah, GA": 850.0, "Elizabeth, NJ": 720.0, "Houston, TX": 1000.0, "Los Angeles, CA": 1800.0, "Indianapolis, IN": 460.0}}, {"auctionLocation": "Southern New Jersey", "auction": "IAAI", "city": "Turnersville", "state": "NJ", "zip": 8012, "location": "Southern New Jersey", "ports": {"Savannah, GA": 800.0, "Elizabeth, NJ": 350.0, "Houston, TX": 1300.0, "Los Angeles, CA": 1800.0, "Indianapolis, IN": 800.0}}, {"auctionLocation": "Specialty Division IL", "auction": "IAAI", "city": "Wheeling", "state": "IL", "zip": 60090, "location": "Specialty Division IL", "ports": {"Savannah, GA": 950.0, "Elizabeth, NJ": 720.0, "Houston, TX": 900.0, "Los Angeles, CA": 1700.0, "Indianapolis, IN": 440.0}}, {"auctionLocation": "Spokane 99224", "auction": "IAAI", "city": "Spokane Valley", "state": "WA", "zip": 99216, "location": "Spokane", "ports": {"Savannah, GA": 2100.0, "Elizabeth, NJ": 1700.0, "Houston, TX": 1500.0, "Los Angeles, CA": 1025.0, "Indianapolis, IN": 1400.0}}, {"auctionLocation": "Springfield 65803", "auction": "IAAI", "city": "Springfield", "state": "MO", "zip": null, "location": "Springfield", "ports": {"Savannah, GA": 800.0, "Elizabeth, NJ": 850.0, "Houston, TX": 890.0, "Los Angeles, CA": 1500.0, "Indianapolis, IN": 650.0}}, {"auctionLocation": "St. Cloud (MN)", "auction": "IAAI", "city": "Rice", "state": "MN", "zip": 56367, "location": "St. Cloud (MN)", "ports": {"Savannah, GA": 1300.0, "Elizabeth, NJ": 1000.0, "Houston, TX": 1400.0, "Los Angeles, CA": 2100.0, "Indianapolis, IN": 725.0}}, {"auctionLocation": "St. Louis 62232", "auction": "IAAI", "city": "CASEYVILLE", "state": "ILLINOIS", "zip": 62232, "location": "St. Louis", "ports": {"Savannah, GA": 850.0, "Elizabeth, NJ": 755.0, "Houston, TX": 900.0, "Los Angeles, CA": 1700.0, "Indianapolis, IN": 460.0}}, {"auctionLocation": "Staten Island (NY)", "auction": "IAAI", "city": "Staten Island", "state": "NY", "zip": 10314, "location": "Staten Island (NY)", "ports": {"Savannah, GA": 900.0, "Elizabeth, NJ": 410.0, "Houston, TX": 1300.0, "Los Angeles, CA": 1800.0, "Indianapolis, IN": 800.0}}, {"auctionLocation": "Stockton (CA) 95205", "auction": "IAAI", "city": "Stockton", "state": "CA", "zip": 95205, "location": "Stockton (CA)", "ports": {"Savannah, GA": 1700.0, "Elizabeth, NJ": 1700.0, "Houston, TX": 1400.0, "Los Angeles, CA": 545.0, "Indianapolis, IN": 1500.0}}, {"auctionLocation": "Suffolk (VA) 23434", "auction": "IAAI", "city": "Suffolk", "state": "VA", "zip": 23434, "location": "Suffolk (VA)", "ports": {"Savannah, GA": 650.0, "Elizabeth, NJ": 480.0, "Houston, TX": 1000.0, "Los Angeles, CA": 1800.0, "Indianapolis, IN": 800.0}}, {"auctionLocation": "Syracuse 13039", "auction": "IAAI", "city": "Cicero", "state": "NY", "zip": 13039, "location": "Syracuse", "ports": {"Savannah, GA": 1000.0, "Elizabeth, NJ": 480.0, "Houston, TX": 1400.0, "Los Angeles, CA": 1800.0, "Indianapolis, IN": 650.0}}, {"auctionLocation": "Tampa 34221", "auction": "IAAI", "city": "Palmetto", "state": "FL", "zip": null, "location": "Tampa", "ports": {"Savannah, GA": 515.0, "Elizabeth, NJ": 1000.0, "Houston, TX": 1000.0, "Los Angeles, CA": 1800.0, "Indianapolis, IN": 1300.0}}, {"auctionLocation": "Tampa North 34667", "auction": "IAAI", "city": "Hudson", "state": "FL", "zip": 34667, "location": "Tampa North", "ports": {"Savannah, GA": 515.0, "Elizabeth, NJ": 1000.0, "Houston, TX": 1000.0, "Los Angeles, CA": 1800.0, "Indianapolis, IN": 1300.0}}, {"auctionLocation": "Taunton 02718", "auction": "IAAI", "city": "East Taunton", "state": "MA", "zip": 2718, "location": "Taunton", "ports": {"Savannah, GA": 1000.0, "Elizabeth, NJ": 510.0, "Houston, TX": 1400.0, "Los Angeles, CA": 2000.0, "Indianapolis, IN": 900.0}}, {"auctionLocation": "Templeton, MA 01468", "auction": "IAAI", "city": "Templeton", "state": "MA", "zip": 1468, "location": "Templeton, MA", "ports": {"Savannah, GA": 1000.0, "Elizabeth, NJ": 535.0, "Houston, TX": 1400.0, "Los Angeles, CA": 2000.0, "Indianapolis, IN": 900.0}}, {"auctionLocation": "Tidewater VA 23693", "auction": "IAAI", "city": "Yorktown", "state": "VA", "zip": null, "location": "Tidewater VA", "ports": {"Savannah, GA": 650.0, "Elizabeth, NJ": 480.0, "Houston, TX": 1000.0, "Los Angeles, CA": 1800.0, "Indianapolis, IN": 800.0}}, {"auctionLocation": "Tifton 31794", "auction": "IAAI", "city": "Tifton", "state": "GA", "zip": 31794, "location": "Tifton", "ports": {"Savannah, GA": 445.0, "Elizabeth, NJ": 900.0, "Houston, TX": 800.0, "Los Angeles, CA": 1600.0, "Indianapolis, IN": 950.0}}, {"auctionLocation": "Tucson 85714", "auction": "IAAI", "city": "Tucson", "state": "AZ", "zip": 85714, "location": "Tucson", "ports": {"Savannah, GA": 1450.0, "Elizabeth, NJ": 1500.0, "Houston, TX": 1050.0, "Los Angeles, CA": 595.0, "Indianapolis, IN": 1500.0}}, {"auctionLocation": "Tulsa  OK 74107", "auction": "IAAI", "city": "Tulsa", "state": "OK", "zip": 74107, "location": "Tulsa OK", "ports": {"Savannah, GA": 900.0, "Elizabeth, NJ": 1050.0, "Houston, TX": 690.0, "Los Angeles, CA": 1200.0, "Indianapolis, IN": 750.0}}, {"auctionLocation": "West Palm Beach (FL)", "auction": "IAAI", "city": "Jupiter", "state": "FL", "zip": 33478, "location": "West Palm Beach (FL)", "ports": {"Savannah, GA": 570.0, "Elizabeth, NJ": 1150.0, "Houston, TX": 1050.0, "Los Angeles, CA": 1850.0, "Indianapolis, IN": 1400.0}}, {"auctionLocation": "WESTCHESTER (IL)\n60154", "auction": "IAAI", "city": "WESTCHESTE R", "state": "IL", "zip": 60154, "location": "WESTCHESTER (IL)", "ports": {"Savannah, GA": 950.0, "Elizabeth, NJ": 720.0, "Houston, TX": 1000.0, "Los Angeles, CA": 1700.0, "Indianapolis, IN": 440.0}}, {"auctionLocation": "Western Colorado\n81416", "auction": "IAAI", "city": "Delta", "state": "CO", "zip": 81416, "location": "Western Colorado", "ports": {"Savannah, GA": 1700.0, "Elizabeth, NJ": 1550.0, "Houston, TX": 1550.0, "Los Angeles, CA": 1550.0, "Indianapolis, IN": 1550.0}}, {"auctionLocation": "Wichita (KS) 67219", "auction": "IAAI", "city": "Wichita", "state": "KS", "zip": 67219, "location": "Wichita (KS)", "ports": {"Savannah, GA": 1150.0, "Elizabeth, NJ": 1100.0, "Houston, TX": 800.0, "Los Angeles, CA": 1500.0, "Indianapolis, IN": 820.0}}, {"auctionLocation": "Wilmington 28429", "auction": "IAAI", "city": "Castle Hayne", "state": "NC", "zip": null, "location": "Wilmington", "ports": {"Savannah, GA": 515.0, "Elizabeth, NJ": 600.0, "Houston, TX": 1000.0, "Los Angeles, CA": 1600.0, "Indianapolis, IN": 900.0}}, {"auctionLocation": "York Springs, PA 17372", "auction": "IAAI", "city": "York Springs", "state": "PA", "zip": 17372, "location": "York Springs, PA", "ports": {"Savannah, GA": 900.0, "Elizabeth, NJ": 440.0, "Houston, TX": 1300.0, "Los Angeles, CA": 1800.0, "Indianapolis, IN": 700.0}}, {"auctionLocation": "Albany", "auction": "Manheim", "city": "Clifton Park", "state": "NY", "zip": 12065, "location": "Albany", "ports": {"Savannah, GA": 900.0, "Elizabeth, NJ": 440.0, "Houston, TX": 1400.0, "Los Angeles, CA": 1800.0, "Indianapolis, IN": 650.0}}, {"auctionLocation": "Arena Illinois", "auction": "Manheim", "city": "Bolingbrook", "state": "IL", "zip": 60440, "location": "Arena Illinois", "ports": {"Savannah, GA": 950.0, "Elizabeth, NJ": 720.0, "Houston, TX": 1000.0, "Los Angeles, CA": 1700.0, "Indianapolis, IN": 450.0}}, {"auctionLocation": "Arizona", "auction": "Manheim", "city": "Phoenix", "state": "AZ", "zip": 85040, "location": "Arizona", "ports": {"Savannah, GA": 1450.0, "Elizabeth, NJ": 1500.0, "Houston, TX": 1050.0, "Los Angeles, CA": 480.0, "Indianapolis, IN": 1500.0}}, {"auctionLocation": "Atlanta", "auction": "Manheim", "city": "College Park", "state": "GA", "zip": 30349, "location": "Atlanta", "ports": {"Savannah, GA": 470.0, "Elizabeth, NJ": 950.0, "Houston, TX": 950.0, "Los Angeles, CA": 1750.0, "Indianapolis, IN": 900.0}}, {"auctionLocation": "Baltimore- Washington", "auction": "Manheim", "city": "Elkridge", "state": "MD", "zip": 21075, "location": "Baltimore- Washington", "ports": {"Savannah, GA": 800.0, "Elizabeth, NJ": 440.0, "Houston, TX": 1100.0, "Los Angeles, CA": 1800.0, "Indianapolis, IN": 800.0}}, {"auctionLocation": "BEL AIR AUTO\nAUCTION", "auction": "Manheim", "city": "Belcamp", "state": "MD", "zip": 21017, "location": "BEL AIR AUTO AUCTION", "ports": {"Savannah, GA": 800.0, "Elizabeth, NJ": 475.0, "Houston, TX": 1100.0, "Los Angeles, CA": 1800.0, "Indianapolis, IN": 800.0}}, {"auctionLocation": "Birmingham", "auction": "Manheim", "city": "Birmingham", "state": "AL", "zip": 35210, "location": "Birmingham", "ports": {"Savannah, GA": 575.0, "Elizabeth, NJ": 850.0, "Houston, TX": 750.0, "Los Angeles, CA": 1600.0, "Indianapolis, IN": 950.0}}, {"auctionLocation": "California", "auction": "Manheim", "city": "Anaheim", "state": "CA", "zip": 92807, "location": "California", "ports": {"Savannah, GA": 1600.0, "Elizabeth, NJ": 1700.0, "Houston, TX": 1400.0, "Los Angeles, CA": 350.0, "Indianapolis, IN": 1500.0}}, {"auctionLocation": "Central California", "auction": "Manheim", "city": "Fresno", "state": "CA", "zip": 93706, "location": "Central California", "ports": {"Savannah, GA": 1700.0, "Elizabeth, NJ": 1700.0, "Houston, TX": 1400.0, "Los Angeles, CA": 475.0, "Indianapolis, IN": 1500.0}}, {"auctionLocation": "Central Florida", "auction": "Manheim", "city": "Orlando", "state": "FL", "zip": 32824, "location": "Central Florida", "ports": {"Savannah, GA": 475.0, "Elizabeth, NJ": 1000.0, "Houston, TX": 1000.0, "Los Angeles, CA": 1800.0, "Indianapolis, IN": 1300.0}}, {"auctionLocation": "Charlotte", "auction": "Manheim", "city": "Concord", "state": "NC", "zip": 28027, "location": "Charlotte", "ports": {"Savannah, GA": 525.0, "Elizabeth, NJ": 950.0, "Houston, TX": 950.0, "Los Angeles, CA": 1750.0, "Indianapolis, IN": 900.0}}, {"auctionLocation": "Chicago", "auction": "Manheim", "city": "Matteson", "state": "IL", "zip": 60443, "location": "Chicago", "ports": {"Savannah, GA": 950.0, "Elizabeth, NJ": 720.0, "Houston, TX": 1000.0, "Los Angeles, CA": 1700.0, "Indianapolis, IN": 450.0}}, {"auctionLocation": "Cincinnati", "auction": "Manheim", "city": "Hamilton", "state": "OH", "zip": 45011, "location": "Cincinnati", "ports": {"Savannah, GA": 850.0, "Elizabeth, NJ": 650.0, "Houston, TX": 1000.0, "Los Angeles, CA": 1900.0, "Indianapolis, IN": 500.0}}, {"auctionLocation": "Cleveland", "auction": "Manheim", "city": "Cleveland", "state": "OH", "zip": 44134, "location": "Cleveland", "ports": {"Savannah, GA": 850.0, "Elizabeth, NJ": 650.0, "Houston, TX": 1100.0, "Los Angeles, CA": 1900.0, "Indianapolis, IN": 600.0}}, {"auctionLocation": "Dallas", "auction": "Manheim", "city": "Dallas", "state": "TX", "zip": 75236, "location": "Dallas", "ports": {"Savannah, GA": 900.0, "Elizabeth, NJ": 1100.0, "Houston, TX": 490.0, "Los Angeles, CA": 1100.0, "Indianapolis, IN": 950.0}}, {"auctionLocation": "Dallas-Ft Worth", "auction": "Manheim", "city": "Euless", "state": "TX", "zip": 76040, "location": "Dallas-Ft Worth", "ports": {"Savannah, GA": 900.0, "Elizabeth, NJ": 1100.0, "Houston, TX": 490.0, "Los Angeles, CA": 1100.0, "Indianapolis, IN": 950.0}}, {"auctionLocation": "Darlington", "auction": "Manheim", "city": "Darlington", "state": "SC", "zip": 29532, "location": "Darlington", "ports": {"Savannah, GA": 445.0, "Elizabeth, NJ": 700.0, "Houston, TX": 900.0, "Los Angeles, CA": 1600.0, "Indianapolis, IN": 950.0}}, {"auctionLocation": "Daytona Beach", "auction": "Manheim", "city": "Daytona Beach", "state": "FL", "zip": 32124, "location": "Daytona Beach", "ports": {"Savannah, GA": 485.0, "Elizabeth, NJ": 1000.0, "Houston, TX": 1000.0, "Los Angeles, CA": 1800.0, "Indianapolis, IN": 1300.0}}, {"auctionLocation": "Denver", "auction": "Manheim", "city": "Aurora", "state": "CO", "zip": 80011, "location": "Denver", "ports": {"Savannah, GA": 1250.0, "Elizabeth, NJ": 950.0, "Houston, TX": 920.0, "Los Angeles, CA": 1000.0, "Indianapolis, IN": 1000.0}}, {"auctionLocation": "Des Moines Auto\nAuction", "auction": "Manheim", "city": "Des Moines", "state": "IA", "zip": 50320, "location": "Des Moines Auto Auction", "ports": {"Savannah, GA": 1250.0, "Elizabeth, NJ": 780.0, "Houston, TX": 1000.0, "Los Angeles, CA": 1600.0, "Indianapolis, IN": 650.0}}, {"auctionLocation": "Detroit", "auction": "Manheim", "city": "Carleton", "state": "MI", "zip": 48117, "location": "Detroit", "ports": {"Savannah, GA": 900.0, "Elizabeth, NJ": 700.0, "Houston, TX": 1100.0, "Los Angeles, CA": 2100.0, "Indianapolis, IN": 645.0}}, {"auctionLocation": "El Paso", "auction": "Manheim", "city": "El Paso", "state": "TX", "zip": 79932, "location": "El Paso", "ports": {"Savannah, GA": 1100.0, "Elizabeth, NJ": 1500.0, "Houston, TX": 750.0, "Los Angeles, CA": 950.0, "Indianapolis, IN": 1400.0}}, {"auctionLocation": "Flint", "auction": "Manheim", "city": "Flint", "state": "MI", "zip": 48507, "location": "Flint", "ports": {"Savannah, GA": 900.0, "Elizabeth, NJ": 720.0, "Houston, TX": 1100.0, "Los Angeles, CA": 2100.0, "Indianapolis, IN": 675.0}}, {"auctionLocation": "Fort Lauderdale", "auction": "Manheim", "city": "Davie", "state": "FL", "zip": 33314, "location": "Fort Lauderdale", "ports": {"Savannah, GA": 570.0, "Elizabeth, NJ": 1150.0, "Houston, TX": 1050.0, "Los Angeles, CA": 1850.0, "Indianapolis, IN": 1400.0}}, {"auctionLocation": "Fort Myers", "auction": "Manheim", "city": "Ft. Myers", "state": "FL", "zip": 33916, "location": "Fort Myers", "ports": {"Savannah, GA": 565.0, "Elizabeth, NJ": 1050.0, "Houston, TX": 1250.0, "Los Angeles, CA": 1850.0, "Indianapolis, IN": 1400.0}}, {"auctionLocation": "Fredericksburg", "auction": "Manheim", "city": "Fredericksburg", "state": "VA", "zip": 22406, "location": "Fredericksburg", "ports": {"Savannah, GA": 700.0, "Elizabeth, NJ": 590.0, "Houston, TX": 1100.0, "Los Angeles, CA": 1800.0, "Indianapolis, IN": 800.0}}, {"auctionLocation": "Fresno", "auction": "Manheim", "city": "Fresno", "state": "CA", "zip": 93706, "location": "Fresno", "ports": {"Savannah, GA": 1700.0, "Elizabeth, NJ": 1700.0, "Houston, TX": 1400.0, "Los Angeles, CA": 475.0, "Indianapolis, IN": 1500.0}}, {"auctionLocation": "Gateway St. Louis", "auction": "Manheim", "city": "Belleville", "state": "IL", "zip": 62221, "location": "Gateway St. Louis", "ports": {"Savannah, GA": 850.0, "Elizabeth, NJ": 755.0, "Houston, TX": 900.0, "Los Angeles, CA": 1700.0, "Indianapolis, IN": 490.0}}, {"auctionLocation": "Georgia", "auction": "Manheim", "city": "Atlanta", "state": "GA", "zip": 30331, "location": "Georgia", "ports": {"Savannah, GA": 525.0, "Elizabeth, NJ": 950.0, "Houston, TX": 950.0, "Los Angeles, CA": 1750.0, "Indianapolis, IN": 900.0}}, {"auctionLocation": "Greer", "auction": "Manheim", "city": "Greer", "state": "SC", "zip": 29651, "location": "Greer", "ports": {"Savannah, GA": 475.0, "Elizabeth, NJ": 700.0, "Houston, TX": 1000.0, "Los Angeles, CA": 1600.0, "Indianapolis, IN": 900.0}}, {"auctionLocation": "Harrisonburg", "auction": "Manheim", "city": "Harrisonburg", "state": "VA", "zip": 22801, "location": "Harrisonburg", "ports": {"Savannah, GA": 700.0, "Elizabeth, NJ": 650.0, "Houston, TX": 1000.0, "Los Angeles, CA": 1800.0, "Indianapolis, IN": 850.0}}, {"auctionLocation": "Hawaii (Honolulu) 96819", "auction": "Manheim", "city": "Honolulu", "state": "HI", "zip": 96819, "location": "Hawaii (Honolulu)", "ports": {"Savannah, GA": 3600.0, "Elizabeth, NJ": 3600.0, "Houston, TX": 3000.0, "Los Angeles, CA": 3300.0, "Indianapolis, IN": 3500.0}}, {"auctionLocation": "Hawaii (Kailua-Kona)", "auction": "Manheim", "city": "Kailua-Kona", "state": "HI", "zip": 96819, "location": "Hawaii (Kailua-Kona)", "ports": {"Savannah, GA": 4300.0, "Elizabeth, NJ": 5300.0, "Houston, TX": 100.0, "Los Angeles, CA": 3200.0, "Indianapolis, IN": 5100.0}}, {"auctionLocation": "Hawaii (Lihue)", "auction": "Manheim", "city": "Lihue", "state": "HI", "zip": 96819, "location": "Hawaii (Lihue)", "ports": {"Savannah, GA": 4650.0, "Elizabeth, NJ": 5650.0, "Houston, TX": 4050.0, "Los Angeles, CA": 3700.0, "Indianapolis, IN": 5450.0}}, {"auctionLocation": "Hawaii (Maui)", "auction": "Manheim", "city": "Maui", "state": "HI", "zip": 96819, "location": "Hawaii (Maui)", "ports": {"Savannah, GA": 3900.0, "Elizabeth, NJ": 4900.0, "Houston, TX": 3300.0, "Los Angeles, CA": 3450.0, "Indianapolis, IN": 4700.0}}, {"auctionLocation": "Houston", "auction": "Manheim", "city": "Houston", "state": "TX", "zip": 77041, "location": "Houston", "ports": {"Savannah, GA": 750.0, "Elizabeth, NJ": 1100.0, "Houston, TX": 345.0, "Los Angeles, CA": 1000.0, "Indianapolis, IN": 1000.0}}, {"auctionLocation": "Indianapolis", "auction": "Manheim", "city": "Indianapolis", "state": "IN", "zip": 46239, "location": "Indianapolis", "ports": {"Savannah, GA": 850.0, "Elizabeth, NJ": 700.0, "Houston, TX": 1000.0, "Los Angeles, CA": 1800.0, "Indianapolis, IN": 350.0}}, {"auctionLocation": "Iowa", "auction": "Manheim", "city": "STUART", "state": "IA", "zip": 50250, "location": "Iowa", "ports": {"Savannah, GA": 1250.0, "Elizabeth, NJ": 780.0, "Houston, TX": 1000.0, "Los Angeles, CA": 1600.0, "Indianapolis, IN": 650.0}}, {"auctionLocation": "Jacksonville", "auction": "Manheim", "city": "Jacksonville", "state": "FL", "zip": 32219, "location": "Jacksonville", "ports": {"Savannah, GA": 385.0, "Elizabeth, NJ": 900.0, "Houston, TX": 800.0, "Los Angeles, CA": 1600.0, "Indianapolis, IN": 1200.0}}, {"auctionLocation": "Kansas City", "auction": "Manheim", "city": "Kansas City", "state": "MO", "zip": 64161, "location": "Kansas City", "ports": {"Savannah, GA": 850.0, "Elizabeth, NJ": 850.0, "Houston, TX": 800.0, "Los Angeles, CA": 1500.0, "Indianapolis, IN": 645.0}}, {"auctionLocation": "Keystone Pennsylvania", "auction": "Manheim", "city": "Grantville", "state": "PA", "zip": 17028, "location": "Keystone Pennsylvania", "ports": {"Savannah, GA": 900.0, "Elizabeth, NJ": 440.0, "Houston, TX": 1300.0, "Los Angeles, CA": 1800.0, "Indianapolis, IN": 700.0}}, {"auctionLocation": "Lafayette", "auction": "Manheim", "city": "Scott", "state": "LA", "zip": 70583, "location": "Lafayette", "ports": {"Savannah, GA": 700.0, "Elizabeth, NJ": 1000.0, "Houston, TX": 550.0, "Los Angeles, CA": 1200.0, "Indianapolis, IN": 950.0}}, {"auctionLocation": "Lakeland", "auction": "Manheim", "city": "Lakeland", "state": "FL", "zip": 33809, "location": "Lakeland", "ports": {"Savannah, GA": 545.0, "Elizabeth, NJ": 1050.0, "Houston, TX": 1050.0, "Los Angeles, CA": 1850.0, "Indianapolis, IN": 1400.0}}, {"auctionLocation": "Little Rock", "auction": "Manheim", "city": "Little Rock", "state": "AR", "zip": 72209, "location": "Little Rock", "ports": {"Savannah, GA": 825.0, "Elizabeth, NJ": 1000.0, "Houston, TX": 750.0, "Los Angeles, CA": 1300.0, "Indianapolis, IN": 750.0}}, {"auctionLocation": "Louisville", "auction": "Manheim", "city": "Clarksville", "state": "IN", "zip": 47129, "location": "Louisville", "ports": {"Savannah, GA": 650.0, "Elizabeth, NJ": 750.0, "Houston, TX": 900.0, "Los Angeles, CA": 1700.0, "Indianapolis, IN": 400.0}}, {"auctionLocation": "Manheim (Missouri Auto\nAuction)", "auction": "Manheim", "city": "Columbia", "state": "MO", "zip": 65201, "location": "Manheim (Missouri Auto Auction)", "ports": {"Savannah, GA": 900.0, "Elizabeth, NJ": 950.0, "Houston, TX": 990.0, "Los Angeles, CA": 1500.0, "Indianapolis, IN": 700.0}}, {"auctionLocation": "Metro Atlanta", "auction": "Manheim", "city": "Atlanta", "state": "GA", "zip": 30315, "location": "Metro Atlanta", "ports": {"Savannah, GA": 470.0, "Elizabeth, NJ": 950.0, "Houston, TX": 950.0, "Los Angeles, CA": 1750.0, "Indianapolis, IN": 900.0}}, {"auctionLocation": "Milwaukee", "auction": "Manheim", "city": "Caledonia", "state": "WI", "zip": 53108, "location": "Milwaukee", "ports": {"Savannah, GA": 1250.0, "Elizabeth, NJ": 900.0, "Houston, TX": 1200.0, "Los Angeles, CA": 2100.0, "Indianapolis, IN": 525.0}}, {"auctionLocation": "Minneapolis", "auction": "Manheim", "city": "Maple Grove", "state": "MN", "zip": 55369, "location": "Minneapolis", "ports": {"Savannah, GA": 1250.0, "Elizabeth, NJ": 950.0, "Houston, TX": 1400.0, "Los Angeles, CA": 2100.0, "Indianapolis, IN": 675.0}}, {"auctionLocation": "Mississippi", "auction": "Manheim", "city": "Hattiesburg", "state": "MS", "zip": 39402, "location": "Mississippi", "ports": {"Savannah, GA": 740.0, "Elizabeth, NJ": 950.0, "Houston, TX": 700.0, "Los Angeles, CA": 1300.0, "Indianapolis, IN": 950.0}}, {"auctionLocation": "Montgomery", "auction": "Manheim", "city": "Montgomery", "state": "AL", "zip": 36117, "location": "Montgomery", "ports": {"Savannah, GA": 525.0, "Elizabeth, NJ": 900.0, "Houston, TX": 750.0, "Los Angeles, CA": 1600.0, "Indianapolis, IN": 950.0}}, {"auctionLocation": "myCentralAuction", "auction": "Manheim", "city": "Atlanta", "state": "GA", "zip": 30328, "location": "myCentralAuction", "ports": {"Savannah, GA": 470.0, "Elizabeth, NJ": 950.0, "Houston, TX": 950.0, "Los Angeles, CA": 1750.0, "Indianapolis, IN": 900.0}}, {"auctionLocation": "Nashville", "auction": "Manheim", "city": "Mount Juliet", "state": "TN", "zip": 37122, "location": "Nashville", "ports": {"Savannah, GA": 600.0, "Elizabeth, NJ": 700.0, "Houston, TX": 800.0, "Los Angeles, CA": 1600.0, "Indianapolis, IN": 700.0}}, {"auctionLocation": "Nevada", "auction": "Manheim", "city": "North Las Vegas", "state": "NV", "zip": 89165, "location": "Nevada", "ports": {"Savannah, GA": 1700.0, "Elizabeth, NJ": 1700.0, "Houston, TX": 1250.0, "Los Angeles, CA": 500.0, "Indianapolis, IN": 1500.0}}, {"auctionLocation": "New England", "auction": "Manheim", "city": "North Dighton", "state": "MA", "zip": 2764, "location": "New England", "ports": {"Savannah, GA": 1000.0, "Elizabeth, NJ": 510.0, "Houston, TX": 1400.0, "Los Angeles, CA": 2000.0, "Indianapolis, IN": 900.0}}, {"auctionLocation": "New Jersey", "auction": "Manheim", "city": "Bordentown", "state": "NJ", "zip": 8505, "location": "New Jersey", "ports": {"Savannah, GA": 800.0, "Elizabeth, NJ": 350.0, "Houston, TX": 1200.0, "Los Angeles, CA": 1800.0, "Indianapolis, IN": 800.0}}, {"auctionLocation": "New Mexico", "auction": "Manheim", "city": "Albuquerque", "state": "NM", "zip": 87105, "location": "New Mexico", "ports": {"Savannah, GA": 1200.0, "Elizabeth, NJ": 1500.0, "Houston, TX": 800.0, "Los Angeles, CA": 850.0, "Indianapolis, IN": 1400.0}}, {"auctionLocation": "New Orleans", "auction": "Manheim", "city": "Slidell", "state": "LA", "zip": 70460, "location": "New Orleans", "ports": {"Savannah, GA": 700.0, "Elizabeth, NJ": 1000.0, "Houston, TX": 550.0, "Los Angeles, CA": 1200.0, "Indianapolis, IN": 950.0}}, {"auctionLocation": "New York", "auction": "Manheim", "city": "Newburgh", "state": "NY", "zip": 12550, "location": "New York", "ports": {"Savannah, GA": 900.0, "Elizabeth, NJ": 395.0, "Houston, TX": 1300.0, "Los Angeles, CA": 1800.0, "Indianapolis, IN": 650.0}}, {"auctionLocation": "North Carolina", "auction": "Manheim", "city": "Kenly", "state": "NC", "zip": 27542, "location": "North Carolina", "ports": {"Savannah, GA": 475.0, "Elizabeth, NJ": 600.0, "Houston, TX": 1000.0, "Los Angeles, CA": 1800.0, "Indianapolis, IN": 950.0}}, {"auctionLocation": "Northstar Minnesota", "auction": "Manheim", "city": "Shakopee", "state": "MN", "zip": 55379, "location": "Northstar Minnesota", "ports": {"Savannah, GA": 1250.0, "Elizabeth, NJ": 950.0, "Houston, TX": 1400.0, "Los Angeles, CA": 2100.0, "Indianapolis, IN": 700.0}}, {"auctionLocation": "NY Metro Skyline", "auction": "Manheim", "city": "Fairfield", "state": "NJ", "zip": 7004, "location": "NY Metro Skyline", "ports": {"Savannah, GA": 800.0, "Elizabeth, NJ": 300.0, "Houston, TX": 1200.0, "Los Angeles, CA": 1800.0, "Indianapolis, IN": 750.0}}, {"auctionLocation": "Oceanside", "auction": "Manheim", "city": "Oceanside", "state": "CA", "zip": 92057, "location": "Oceanside", "ports": {"Savannah, GA": 1700.0, "Elizabeth, NJ": 1700.0, "Houston, TX": 1490.0, "Los Angeles, CA": 430.0, "Indianapolis, IN": 1500.0}}, {"auctionLocation": "Ohio", "auction": "Manheim", "city": "Grove City", "state": "OH", "zip": 43123, "location": "Ohio", "ports": {"Savannah, GA": 850.0, "Elizabeth, NJ": 675.0, "Houston, TX": 1000.0, "Los Angeles, CA": 1900.0, "Indianapolis, IN": 430.0}}, {"auctionLocation": "Omaha", "auction": "Manheim", "city": "Omaha", "state": "NE", "zip": 68138, "location": "Omaha", "ports": {"Savannah, GA": 1150.0, "Elizabeth, NJ": 905.0, "Houston, TX": 905.0, "Los Angeles, CA": 1500.0, "Indianapolis, IN": 725.0}}, {"auctionLocation": "Orlando", "auction": "Manheim", "city": "Ocoee", "state": "FL", "zip": 34761, "location": "Orlando", "ports": {"Savannah, GA": 475.0, "Elizabeth, NJ": 1000.0, "Houston, TX": 1000.0, "Los Angeles, CA": 1800.0, "Indianapolis, IN": 1300.0}}, {"auctionLocation": "Palm Beach", "auction": "Manheim", "city": "West Palm Beach", "state": "FL", "zip": 33411, "location": "Palm Beach", "ports": {"Savannah, GA": 570.0, "Elizabeth, NJ": 1150.0, "Houston, TX": 1050.0, "Los Angeles, CA": 1850.0, "Indianapolis, IN": 1400.0}}, {"auctionLocation": "Pennsylvania", "auction": "Manheim", "city": "Manheim", "state": "PA", "zip": 17545, "location": "Pennsylvania", "ports": {"Savannah, GA": 800.0, "Elizabeth, NJ": 400.0, "Houston, TX": 1200.0, "Los Angeles, CA": 1800.0, "Indianapolis, IN": 700.0}}, {"auctionLocation": "Pensacola", "auction": "Manheim", "city": "Pensacola", "state": "FL", "zip": 32505, "location": "Pensacola", "ports": {"Savannah, GA": 570.0, "Elizabeth, NJ": 1000.0, "Houston, TX": 700.0, "Los Angeles, CA": 1500.0, "Indianapolis, IN": 1200.0}}, {"auctionLocation": "Philadelphia", "auction": "Manheim", "city": "Hatfield", "state": "PA", "zip": 19440, "location": "Philadelphia", "ports": {"Savannah, GA": 800.0, "Elizabeth, NJ": 390.0, "Houston, TX": 1200.0, "Los Angeles, CA": 1800.0, "Indianapolis, IN": 700.0}}, {"auctionLocation": "Phoenix", "auction": "Manheim", "city": "Tolleson", "state": "AZ", "zip": 85353, "location": "Phoenix", "ports": {"Savannah, GA": 1450.0, "Elizabeth, NJ": 1500.0, "Houston, TX": 1050.0, "Los Angeles, CA": 480.0, "Indianapolis, IN": 1500.0}}, {"auctionLocation": "Pittsburgh", "auction": "Manheim", "city": "Cranberry Twp", "state": "PA", "zip": 16066, "location": "Pittsburgh", "ports": {"Savannah, GA": 1000.0, "Elizabeth, NJ": 590.0, "Houston, TX": 1400.0, "Los Angeles, CA": 1800.0, "Indianapolis, IN": 650.0}}, {"auctionLocation": "Portland", "auction": "Manheim", "city": "Portland", "state": "OR", "zip": 97217, "location": "Portland", "ports": {"Savannah, GA": 1900.0, "Elizabeth, NJ": 1700.0, "Houston, TX": 1800.0, "Los Angeles, CA": 820.0, "Indianapolis, IN": 1500.0}}, {"auctionLocation": "Riverside", "auction": "Manheim", "city": "Riverside", "state": "CA", "zip": 92504, "location": "Riverside", "ports": {"Savannah, GA": 1600.0, "Elizabeth, NJ": 1700.0, "Houston, TX": 1400.0, "Los Angeles, CA": 400.0, "Indianapolis, IN": 1500.0}}, {"auctionLocation": "Rochester", "auction": "Manheim", "city": "Rochester", "state": "NY", "zip": 14611, "location": "Rochester", "ports": {"Savannah, GA": 1000.0, "Elizabeth, NJ": 590.0, "Houston, TX": 1400.0, "Los Angeles, CA": 1800.0, "Indianapolis, IN": 650.0}}, {"auctionLocation": "San Antonio", "auction": "Manheim", "city": "San Antonio", "state": "TX", "zip": 78219, "location": "San Antonio", "ports": {"Savannah, GA": 900.0, "Elizabeth, NJ": 1370.0, "Houston, TX": 440.0, "Los Angeles, CA": 1100.0, "Indianapolis, IN": 1100.0}}, {"auctionLocation": "San Francisco Bay", "auction": "Manheim", "city": "Hayward", "state": "CA", "zip": 94544, "location": "San Francisco Bay", "ports": {"Savannah, GA": 1700.0, "Elizabeth, NJ": 1700.0, "Houston, TX": 1400.0, "Los Angeles, CA": 545.0, "Indianapolis, IN": 1500.0}}, {"auctionLocation": "Seattle", "auction": "Manheim", "city": "Kent", "state": "WA", "zip": 98032, "location": "Seattle", "ports": {"Savannah, GA": 2100.0, "Elizabeth, NJ": 1700.0, "Houston, TX": 2200.0, "Los Angeles, CA": 1025.0, "Indianapolis, IN": 1300.0}}, {"auctionLocation": "South Houston", "auction": "Manheim", "city": "Houston", "state": "TX", "zip": 77034, "location": "South Houston", "ports": {"Savannah, GA": 750.0, "Elizabeth, NJ": 1100.0, "Houston, TX": 345.0, "Los Angeles, CA": 1000.0, "Indianapolis, IN": 1000.0}}, {"auctionLocation": "Southern California", "auction": "Manheim", "city": "Fontana", "state": "CA", "zip": 92337, "location": "Southern California", "ports": {"Savannah, GA": 1600.0, "Elizabeth, NJ": 1700.0, "Houston, TX": 1400.0, "Los Angeles, CA": 360.0, "Indianapolis, IN": 1500.0}}, {"auctionLocation": "St. Louis", "auction": "Manheim", "city": "Bridgeton", "state": "MO", "zip": 63044, "location": "St. Louis", "ports": {"Savannah, GA": 850.0, "Elizabeth, NJ": 755.0, "Houston, TX": 900.0, "Los Angeles, CA": 1700.0, "Indianapolis, IN": 475.0}}, {"auctionLocation": "St. Pete", "auction": "Manheim", "city": "Clearwater", "state": "FL", "zip": 33762, "location": "St. Pete", "ports": {"Savannah, GA": 515.0, "Elizabeth, NJ": 1000.0, "Houston, TX": 1000.0, "Los Angeles, CA": 1800.0, "Indianapolis, IN": 1300.0}}, {"auctionLocation": "Statesville", "auction": "Manheim", "city": "Statesville", "state": "NC", "zip": 28625, "location": "Statesville", "ports": {"Savannah, GA": 515.0, "Elizabeth, NJ": 600.0, "Houston, TX": 1000.0, "Los Angeles, CA": 1600.0, "Indianapolis, IN": 900.0}}, {"auctionLocation": "Tampa", "auction": "Manheim", "city": "Tampa", "state": "FL", "zip": 33619, "location": "Tampa", "ports": {"Savannah, GA": 515.0, "Elizabeth, NJ": 1000.0, "Houston, TX": 1000.0, "Los Angeles, CA": 1800.0, "Indianapolis, IN": 1300.0}}, {"auctionLocation": "Texas Hobby", "auction": "Manheim", "city": "Houston", "state": "TX", "zip": 77061, "location": "Texas Hobby", "ports": {"Savannah, GA": 750.0, "Elizabeth, NJ": 1100.0, "Houston, TX": 345.0, "Los Angeles, CA": 1000.0, "Indianapolis, IN": 1000.0}}, {"auctionLocation": "Tucson", "auction": "Manheim", "city": "Tucson", "state": "AZ", "zip": 85756, "location": "Tucson", "ports": {"Savannah, GA": 1450.0, "Elizabeth, NJ": 1500.0, "Houston, TX": 1050.0, "Los Angeles, CA": 595.0, "Indianapolis, IN": 1500.0}}, {"auctionLocation": "Tulsa", "auction": "Manheim", "city": "Sapulpa", "state": "OK", "zip": 74066, "location": "Tulsa", "ports": {"Savannah, GA": 900.0, "Elizabeth, NJ": 1050.0, "Houston, TX": 690.0, "Los Angeles, CA": 1200.0, "Indianapolis, IN": 750.0}}, {"auctionLocation": "Utah", "auction": "Manheim", "city": "Woods Cross", "state": "UT", "zip": 84087, "location": "Utah", "ports": {"Savannah, GA": 1900.0, "Elizabeth, NJ": 1500.0, "Houston, TX": 1300.0, "Los Angeles, CA": 700.0, "Indianapolis, IN": 1100.0}}, {"auctionLocation": "West Texas", "auction": "Manheim", "city": "Lubbock", "state": "TX", "zip": 79404, "location": "West Texas", "ports": {"Savannah, GA": 1100.0, "Elizabeth, NJ": 1500.0, "Houston, TX": 625.0, "Los Angeles, CA": 900.0, "Indianapolis, IN": 1100.0}}, {"auctionLocation": "Wilmington", "auction": "Manheim", "city": "Wilmington", "state": "NC", "zip": 28405, "location": "Wilmington", "ports": {"Savannah, GA": 545.0, "Elizabeth, NJ": 600.0, "Houston, TX": 1000.0, "Los Angeles, CA": 1600.0, "Indianapolis, IN": 900.0}}, {"auctionLocation": "Atlanta 30213", "auction": "ADESA", "city": "Fairburn", "state": "GA", "zip": 30213, "location": "Atlanta", "ports": {"Savannah, GA": 470.0, "Elizabeth, NJ": 950.0, "Houston, TX": 950.0, "Los Angeles, CA": 1750.0, "Indianapolis, IN": 900.0}}, {"auctionLocation": "Austin 78754", "auction": "ADESA", "city": "Austin", "state": "TX", "zip": 78754, "location": "Austin", "ports": {"Savannah, GA": 900.0, "Elizabeth, NJ": 1350.0, "Houston, TX": 465.0, "Los Angeles, CA": 1000.0, "Indianapolis, IN": 1100.0}}, {"auctionLocation": "Birmingham 35004", "auction": "ADESA", "city": "Moody", "state": "AL", "zip": 35004, "location": "Birmingham", "ports": {"Savannah, GA": 575.0, "Elizabeth, NJ": 850.0, "Houston, TX": 750.0, "Los Angeles, CA": 1600.0, "Indianapolis, IN": 950.0}}, {"auctionLocation": "Boise", "auction": "ADESA", "city": "Boise", "state": "ID", "zip": 83716, "location": "Boise", "ports": {"Savannah, GA": 1900.0, "Elizabeth, NJ": 1500.0, "Houston, TX": 1550.0, "Los Angeles, CA": 1170.0, "Indianapolis, IN": 1400.0}}, {"auctionLocation": "Boston 01702", "auction": "ADESA", "city": "Framingham", "state": "MA", "zip": 1702, "location": "Boston", "ports": {"Savannah, GA": 1000.0, "Elizabeth, NJ": 510.0, "Houston, TX": 1400.0, "Los Angeles, CA": 2000.0, "Indianapolis, IN": 900.0}}, {"auctionLocation": "Brashers 95673", "auction": "ADESA", "city": "Rio Linda", "state": "CA", "zip": 95673, "location": "Brashers", "ports": {"Savannah, GA": 1700.0, "Elizabeth, NJ": 1700.0, "Houston, TX": 1400.0, "Los Angeles, CA": 590.0, "Indianapolis, IN": 1500.0}}, {"auctionLocation": "Buffalo 14001", "auction": "ADESA", "city": "Akron", "state": "NY", "zip": 14001, "location": "Buffalo", "ports": {"Savannah, GA": 1000.0, "Elizabeth, NJ": 640.0, "Houston, TX": 1500.0, "Los Angeles, CA": 1800.0, "Indianapolis, IN": 650.0}}, {"auctionLocation": "Casper", "auction": "ADESA", "city": "Casper", "state": "WY", "zip": 82601, "location": "Casper", "ports": {"Savannah, GA": 1450.0, "Elizabeth, NJ": 1450.0, "Houston, TX": 1450.0, "Los Angeles, CA": 1450.0, "Indianapolis, IN": 1250.0}}, {"auctionLocation": "Charlotte 28273", "auction": "ADESA", "city": "Charlotte", "state": "NC", "zip": 28273, "location": "Charlotte", "ports": {"Savannah, GA": 525.0, "Elizabeth, NJ": 600.0, "Houston, TX": 1000.0, "Los Angeles, CA": 1800.0, "Indianapolis, IN": 950.0}}, {"auctionLocation": "Chicago 60169", "auction": "ADESA", "city": "Hoffman Estates", "state": "IL", "zip": 60169, "location": "Chicago", "ports": {"Savannah, GA": 950.0, "Elizabeth, NJ": 720.0, "Houston, TX": 1000.0, "Los Angeles, CA": 1700.0, "Indianapolis, IN": 440.0}}, {"auctionLocation": "Cincinnati Dayton 45005", "auction": "ADESA", "city": "Franklin", "state": "OH", "zip": 45005, "location": "Cincinnati Dayton", "ports": {"Savannah, GA": 850.0, "Elizabeth, NJ": 650.0, "Houston, TX": 1000.0, "Los Angeles, CA": 1900.0, "Indianapolis, IN": 500.0}}, {"auctionLocation": "Cincinnati Queen City", "auction": "ADESA", "city": "Cincinnati", "state": "OH", "zip": 45237, "location": "Cincinnati Queen City", "ports": {"Savannah, GA": 850.0, "Elizabeth, NJ": 650.0, "Houston, TX": 1000.0, "Los Angeles, CA": 1900.0, "Indianapolis, IN": 500.0}}, {"auctionLocation": "Cleveland 44067", "auction": "ADESA", "city": "Northfield", "state": "OH", "zip": 44067, "location": "Cleveland", "ports": {"Savannah, GA": 850.0, "Elizabeth, NJ": 650.0, "Houston, TX": 1100.0, "Los Angeles, CA": 1900.0, "Indianapolis, IN": 600.0}}, {"auctionLocation": "Colorado Springs 80817", "auction": "ADESA", "city": "Fountain", "state": "CO", "zip": 80817, "location": "Colorado Springs", "ports": {"Savannah, GA": 1250.0, "Elizabeth, NJ": 950.0, "Houston, TX": 950.0, "Los Angeles, CA": 1000.0, "Indianapolis, IN": 1000.0}}, {"auctionLocation": "Concord 01720", "auction": "ADESA", "city": "Acton", "state": "MA", "zip": 1720, "location": "Concord", "ports": {"Savannah, GA": 1000.0, "Elizabeth, NJ": 510.0, "Houston, TX": 1400.0, "Los Angeles, CA": 2000.0, "Indianapolis, IN": 900.0}}, {"auctionLocation": "Dallas 75141", "auction": "ADESA", "city": "Hutchins", "state": "TX", "zip": 75141, "location": "Dallas", "ports": {"Savannah, GA": 900.0, "Elizabeth, NJ": 1100.0, "Houston, TX": 470.0, "Los Angeles, CA": 1100.0, "Indianapolis, IN": 950.0}}, {"auctionLocation": "Des Moines 50111", "auction": "ADESA", "city": "Grimes", "state": "IA", "zip": 50111, "location": "Des Moines", "ports": {"Savannah, GA": 1250.0, "Elizabeth, NJ": 780.0, "Houston, TX": 1000.0, "Los Angeles, CA": 1600.0, "Indianapolis, IN": 650.0}}, {"auctionLocation": "Dundalk (MD)", "auction": "ADESA", "city": "Dundalk", "state": "MD", "zip": 21222, "location": "Dundalk (MD)", "ports": {"Savannah, GA": 800.0, "Elizabeth, NJ": 455.0, "Houston, TX": 1100.0, "Los Angeles, CA": 1800.0, "Indianapolis, IN": 800.0}}, {"auctionLocation": "East Tennessee 37656", "auction": "ADESA", "city": "Fall Branch", "state": "TN", "zip": 37656, "location": "East Tennessee", "ports": {"Savannah, GA": 600.0, "Elizabeth, NJ": 800.0, "Houston, TX": 750.0, "Los Angeles, CA": 1600.0, "Indianapolis, IN": 800.0}}, {"auctionLocation": "Fargo 58078", "auction": "ADESA", "city": "West Fargo", "state": "ND", "zip": 58078, "location": "Fargo", "ports": {"Savannah, GA": 1500.0, "Elizabeth, NJ": 1300.0, "Houston, TX": 1500.0, "Los Angeles, CA": 1400.0, "Indianapolis, IN": 1000.0}}, {"auctionLocation": "Flint", "auction": "ADESA", "city": "Flint", "state": "MI", "zip": 48506, "location": "Flint", "ports": {"Savannah, GA": 900.0, "Elizabeth, NJ": 720.0, "Houston, TX": 1100.0, "Los Angeles, CA": 2100.0, "Indianapolis, IN": 675.0}}, {"auctionLocation": "Fresno", "auction": "ADESA", "city": "Fresno", "state": "CA", "zip": 93725, "location": "Fresno", "ports": {"Savannah, GA": 1700.0, "Elizabeth, NJ": 1700.0, "Houston, TX": 1400.0, "Los Angeles, CA": 475.0, "Indianapolis, IN": 1500.0}}, {"auctionLocation": "Golden Gate CA 95377", "auction": "ADESA", "city": "Tracy", "state": "CA", "zip": 95377, "location": "Golden Gate CA", "ports": {"Savannah, GA": 1700.0, "Elizabeth, NJ": 1700.0, "Houston, TX": 1400.0, "Los Angeles, CA": 575.0, "Indianapolis, IN": 1500.0}}, {"auctionLocation": "Great Lakes 48708", "auction": "ADESA", "city": "Bay City", "state": "MI", "zip": 48708, "location": "Great Lakes", "ports": {"Savannah, GA": 950.0, "Elizabeth, NJ": 870.0, "Houston, TX": 1100.0, "Los Angeles, CA": 2100.0, "Indianapolis, IN": 820.0}}, {"auctionLocation": "Houston 77086", "auction": "ADESA", "city": "Houston", "state": "TX", "zip": 77086, "location": "Houston", "ports": {"Savannah, GA": 750.0, "Elizabeth, NJ": 1100.0, "Houston, TX": 330.0, "Los Angeles, CA": 1000.0, "Indianapolis, IN": 1000.0}}, {"auctionLocation": "Indianapolis 46168", "auction": "ADESA", "city": "Plainfield", "state": "IN", "zip": 46168, "location": "Indianapolis", "ports": {"Savannah, GA": 850.0, "Elizabeth, NJ": 700.0, "Houston, TX": 1000.0, "Los Angeles, CA": 1800.0, "Indianapolis, IN": 350.0}}, {"auctionLocation": "Irving (TX) 75061", "auction": "ADESA", "city": "Irving", "state": "TX", "zip": 75061, "location": "Irving (TX)", "ports": {"Savannah, GA": 900.0, "Elizabeth, NJ": 1100.0, "Houston, TX": 470.0, "Los Angeles, CA": 1100.0, "Indianapolis, IN": 950.0}}, {"auctionLocation": "Jacksonville 32219", "auction": "ADESA", "city": "Jacksonville", "state": "FL", "zip": 32219, "location": "Jacksonville", "ports": {"Savannah, GA": 385.0, "Elizabeth, NJ": 900.0, "Houston, TX": 800.0, "Los Angeles, CA": 1600.0, "Indianapolis, IN": 1200.0}}, {"auctionLocation": "Kansas City (MO) 64012", "auction": "ADESA", "city": "Belton", "state": "MO", "zip": 64012, "location": "Kansas City (MO)", "ports": {"Savannah, GA": 850.0, "Elizabeth, NJ": 850.0, "Houston, TX": 800.0, "Los Angeles, CA": 1500.0, "Indianapolis, IN": 645.0}}, {"auctionLocation": "Knoxville 37771", "auction": "ADESA", "city": "Lenoir City", "state": "TN", "zip": 37771, "location": "Knoxville", "ports": {"Savannah, GA": 600.0, "Elizabeth, NJ": 650.0, "Houston, TX": 850.0, "Los Angeles, CA": 1600.0, "Indianapolis, IN": 800.0}}, {"auctionLocation": "Lansing 48821", "auction": "ADESA", "city": "Dimondale", "state": "MI", "zip": 48821, "location": "Lansing", "ports": {"Savannah, GA": 900.0, "Elizabeth, NJ": 800.0, "Houston, TX": 1100.0, "Los Angeles, CA": 2100.0, "Indianapolis, IN": 765.0}}, {"auctionLocation": "Las Vegas 89030", "auction": "ADESA", "city": "North las vegas", "state": "NV", "zip": 89030, "location": "Las Vegas", "ports": {"Savannah, GA": 1700.0, "Elizabeth, NJ": 1700.0, "Houston, TX": 1250.0, "Los Angeles, CA": 500.0, "Indianapolis, IN": 1500.0}}, {"auctionLocation": "Lexington 40509", "auction": "ADESA", "city": "Lexington", "state": "KY", "zip": 40509, "location": "Lexington", "ports": {"Savannah, GA": 630.0, "Elizabeth, NJ": 750.0, "Houston, TX": 900.0, "Los Angeles, CA": 1700.0, "Indianapolis, IN": 575.0}}, {"auctionLocation": "Little Rock 72117", "auction": "ADESA", "city": "North Little Rock", "state": "AR", "zip": 72117, "location": "Little Rock", "ports": {"Savannah, GA": 825.0, "Elizabeth, NJ": 1000.0, "Houston, TX": 750.0, "Los Angeles, CA": 1300.0, "Indianapolis, IN": 750.0}}, {"auctionLocation": "Long Island 11980", "auction": "ADESA", "city": "Yaphank", "state": "NY", "zip": 11980, "location": "Long Island", "ports": {"Savannah, GA": 900.0, "Elizabeth, NJ": 410.0, "Houston, TX": 1300.0, "Los Angeles, CA": 1800.0, "Indianapolis, IN": 800.0}}, {"auctionLocation": "Los Angeles 91752", "auction": "ADESA", "city": "Mira Loma", "state": "CA", "zip": 91752, "location": "Los Angeles", "ports": {"Savannah, GA": 1600.0, "Elizabeth, NJ": 1700.0, "Houston, TX": 1550.0, "Los Angeles, CA": 400.0, "Indianapolis, IN": 1500.0}}, {"auctionLocation": "Memphis 38118", "auction": "ADESA", "city": "Memphis", "state": "TN", "zip": 38118, "location": "Memphis", "ports": {"Savannah, GA": 635.0, "Elizabeth, NJ": 900.0, "Houston, TX": 700.0, "Los Angeles, CA": 1500.0, "Indianapolis, IN": 700.0}}, {"auctionLocation": "Mercer", "auction": "ADESA", "city": "Mercer", "state": "PA", "zip": 16137, "location": "Mercer", "ports": {"Savannah, GA": 1000.0, "Elizabeth, NJ": 605.0, "Houston, TX": 1100.0, "Los Angeles, CA": 1900.0, "Indianapolis, IN": 605.0}}, {"auctionLocation": "Minneapolis 55369", "auction": "ADESA", "city": "Dayton", "state": "MN", "zip": 55369, "location": "Minneapolis", "ports": {"Savannah, GA": 1250.0, "Elizabeth, NJ": 950.0, "Houston, TX": 1400.0, "Los Angeles, CA": 2100.0, "Indianapolis, IN": 675.0}}, {"auctionLocation": "Nashville 37138", "auction": "ADESA", "city": "Old Hickory", "state": "TN", "zip": 37138, "location": "Nashville", "ports": {"Savannah, GA": 600.0, "Elizabeth, NJ": 700.0, "Houston, TX": 800.0, "Los Angeles, CA": 1600.0, "Indianapolis, IN": 700.0}}, {"auctionLocation": "New Jersey 08835", "auction": "ADESA", "city": "Manville", "state": "NJ", "zip": 8835, "location": "New Jersey", "ports": {"Savannah, GA": 800.0, "Elizabeth, NJ": 410.0, "Houston, TX": 1300.0, "Los Angeles, CA": 1800.0, "Indianapolis, IN": 800.0}}, {"auctionLocation": "Northwest", "auction": "ADESA", "city": "Eugene", "state": "OR", "zip": 97402, "location": "Northwest", "ports": {"Savannah, GA": 1900.0, "Elizabeth, NJ": 1700.0, "Houston, TX": 1800.0, "Los Angeles, CA": 890.0, "Indianapolis, IN": 1500.0}}, {"auctionLocation": "Ocala 34474", "auction": "ADESA", "city": "Ocala", "state": "FL", "zip": 34474, "location": "Ocala", "ports": {"Savannah, GA": 475.0, "Elizabeth, NJ": 1000.0, "Houston, TX": 1000.0, "Los Angeles, CA": 1800.0, "Indianapolis, IN": 1300.0}}, {"auctionLocation": "Orlando  32771", "auction": "ADESA", "city": "Sanford", "state": "FL", "zip": 32771, "location": "Orlando", "ports": {"Savannah, GA": 475.0, "Elizabeth, NJ": 1000.0, "Houston, TX": 1000.0, "Los Angeles, CA": 1800.0, "Indianapolis, IN": 1300.0}}, {"auctionLocation": "Pennsylvania 17406", "auction": "ADESA", "city": "York", "state": "PA", "zip": 17406, "location": "Pennsylvania", "ports": {"Savannah, GA": 900.0, "Elizabeth, NJ": 455.0, "Houston, TX": 1300.0, "Los Angeles, CA": 1800.0, "Indianapolis, IN": 700.0}}, {"auctionLocation": "Phoenix 85226", "auction": "ADESA", "city": "Chandler", "state": "AZ", "zip": 85226, "location": "Phoenix", "ports": {"Savannah, GA": 1450.0, "Elizabeth, NJ": 1500.0, "Houston, TX": 1050.0, "Los Angeles, CA": 480.0, "Indianapolis, IN": 1500.0}}, {"auctionLocation": "Pittsburgh 16137", "auction": "ADESA", "city": "New Stanton", "state": "PA", "zip": 15672, "location": "Pittsburgh", "ports": {"Savannah, GA": 1000.0, "Elizabeth, NJ": 590.0, "Houston, TX": 1400.0, "Los Angeles, CA": 1800.0, "Indianapolis, IN": 650.0}}, {"auctionLocation": "Portland", "auction": "ADESA", "city": "Wood Village", "state": "OR", "zip": 97060, "location": "Portland", "ports": {"Savannah, GA": 1900.0, "Elizabeth, NJ": 1700.0, "Houston, TX": 1800.0, "Los Angeles, CA": 850.0, "Indianapolis, IN": 1500.0}}, {"auctionLocation": "Queen City 45237", "auction": "ADESA", "city": "Cincinnati", "state": "OH", "zip": 45237, "location": "Queen City", "ports": {"Savannah, GA": 850.0, "Elizabeth, NJ": 650.0, "Houston, TX": 1000.0, "Los Angeles, CA": 1900.0, "Indianapolis, IN": 500.0}}, {"auctionLocation": "Raleigh 27520", "auction": "ADESA", "city": "Clayton", "state": "NC", "zip": null, "location": "Raleigh", "ports": {"Savannah, GA": 485.0, "Elizabeth, NJ": 600.0, "Houston, TX": 1000.0, "Los Angeles, CA": 1800.0, "Indianapolis, IN": 950.0}}, {"auctionLocation": "Reno", "auction": "ADESA", "city": "Reno", "state": "NV", "zip": 89506, "location": "Reno", "ports": {"Savannah, GA": 1800.0, "Elizabeth, NJ": 1700.0, "Houston, TX": 1350.0, "Los Angeles, CA": 670.0, "Indianapolis, IN": 1500.0}}, {"auctionLocation": "Sacramento 95826", "auction": "ADESA", "city": "Sacramento", "state": "CA", "zip": 95826, "location": "Sacramento", "ports": {"Savannah, GA": 1700.0, "Elizabeth, NJ": 1700.0, "Houston, TX": 1500.0, "Los Angeles, CA": 600.0, "Indianapolis, IN": 1500.0}}, {"auctionLocation": "Salt Lake", "auction": "ADESA", "city": "Salt Lake City", "state": "UT", "zip": 84104, "location": "Salt Lake", "ports": {"Savannah, GA": 1900.0, "Elizabeth, NJ": 1500.0, "Houston, TX": 1300.0, "Los Angeles, CA": 700.0, "Indianapolis, IN": 1100.0}}, {"auctionLocation": "San Antonio 78227", "auction": "ADESA", "city": "SAN ANTONIO", "state": "TX", "zip": 78227, "location": "San Antonio", "ports": {"Savannah, GA": 900.0, "Elizabeth, NJ": 1350.0, "Houston, TX": 440.0, "Los Angeles, CA": 1100.0, "Indianapolis, IN": 1100.0}}, {"auctionLocation": "San Diego 92154", "auction": "ADESA", "city": "San Diego", "state": "CA", "zip": 92154, "location": "San Diego", "ports": {"Savannah, GA": 1700.0, "Elizabeth, NJ": 1700.0, "Houston, TX": 1490.0, "Los Angeles, CA": 430.0, "Indianapolis, IN": 1500.0}}, {"auctionLocation": "San Jose", "auction": "ADESA", "city": "San Jose", "state": "CA", "zip": 95111, "location": "San Jose", "ports": {"Savannah, GA": 1700.0, "Elizabeth, NJ": 1700.0, "Houston, TX": 1400.0, "Los Angeles, CA": 545.0, "Indianapolis, IN": 1500.0}}, {"auctionLocation": "Sarasota 34203", "auction": "ADESA", "city": "Bradenton", "state": "FL", "zip": 34203, "location": "Sarasota", "ports": {"Savannah, GA": 515.0, "Elizabeth, NJ": 1000.0, "Houston, TX": 1000.0, "Los Angeles, CA": 1800.0, "Indianapolis, IN": 1300.0}}, {"auctionLocation": "Seattle 98001", "auction": "ADESA", "city": "Auburn", "state": "WA", "zip": 98001, "location": "Seattle", "ports": {"Savannah, GA": 2100.0, "Elizabeth, NJ": 1700.0, "Houston, TX": 2200.0, "Los Angeles, CA": 950.0, "Indianapolis, IN": 1300.0}}, {"auctionLocation": "Shreveport 71119", "auction": "ADESA", "city": "Shreveport", "state": "LA", "zip": 71119, "location": "Shreveport", "ports": {"Savannah, GA": 750.0, "Elizabeth, NJ": 1000.0, "Houston, TX": 550.0, "Los Angeles, CA": 1200.0, "Indianapolis, IN": 850.0}}, {"auctionLocation": "Sioux Falls 57064", "auction": "ADESA", "city": "Tea", "state": "SD", "zip": 57064, "location": "Sioux Falls", "ports": {"Savannah, GA": 1500.0, "Elizabeth, NJ": 1200.0, "Houston, TX": 1400.0, "Los Angeles, CA": 1400.0, "Indianapolis, IN": 965.0}}, {"auctionLocation": "St. Louis 63012", "auction": "ADESA", "city": "Barnhart", "state": "MO", "zip": 63012, "location": "St. Louis", "ports": {"Savannah, GA": 850.0, "Elizabeth, NJ": 755.0, "Houston, TX": 900.0, "Los Angeles, CA": 1700.0, "Indianapolis, IN": 525.0}}, {"auctionLocation": "Syracuse 13039", "auction": "ADESA", "city": "Cicero", "state": "NY", "zip": 13039, "location": "Syracuse", "ports": {"Savannah, GA": 1000.0, "Elizabeth, NJ": 480.0, "Houston, TX": 1400.0, "Los Angeles, CA": 1800.0, "Indianapolis, IN": 650.0}}, {"auctionLocation": "Tampa 33619", "auction": "ADESA", "city": "Tampa", "state": "FL", "zip": 33619, "location": "Tampa", "ports": {"Savannah, GA": 515.0, "Elizabeth, NJ": 1000.0, "Houston, TX": 1000.0, "Los Angeles, CA": 1800.0, "Indianapolis, IN": 1300.0}}, {"auctionLocation": "Tulsa 74116", "auction": "ADESA", "city": "Tulsa", "state": "OK", "zip": 74116, "location": "Tulsa", "ports": {"Savannah, GA": 900.0, "Elizabeth, NJ": 1050.0, "Houston, TX": 690.0, "Los Angeles, CA": 1200.0, "Indianapolis, IN": 750.0}}, {"auctionLocation": "Washington DC (VA)", "auction": "ADESA", "city": "Dulles", "state": "VA", "zip": 20166, "location": "Washington DC (VA)", "ports": {"Savannah, GA": 800.0, "Elizabeth, NJ": 490.0, "Houston, TX": 1100.0, "Los Angeles, CA": 1800.0, "Indianapolis, IN": 800.0}}, {"auctionLocation": "Wisconsin 53901", "auction": "ADESA", "city": "Portage", "state": "WI", "zip": 53901, "location": "Wisconsin", "ports": {"Savannah, GA": 1250.0, "Elizabeth, NJ": 900.0, "Houston, TX": 1200.0, "Los Angeles, CA": 2100.0, "Indianapolis, IN": 575.0}}], "auctions": ["ADESA", "Copart", "IAAI", "Manheim"], "ports": ["Savannah, GA", "Elizabeth, NJ", "Houston, TX", "Los Angeles, CA", "Indianapolis, IN"], "seaRates": {"3": {"Savannah, GA": 850, "Elizabeth, NJ": 875, "Houston, TX": 1085, "Los Angeles, CA": 1685, "Indianapolis, IN": 1150}, "4": {"Savannah, GA": 750, "Elizabeth, NJ": 775, "Houston, TX": 875, "Los Angeles, CA": 1325, "Indianapolis, IN": 925}}}